mother,stepdaughter,category_for_map,,name,city,link,country,address,Latitude,Longitude
Елладська православна церква,Hellas Orthodox Church,Hellas Orthodox Church,Німецька єпархія РПЦЗ,Parish in honor of the holy martyr Clement Pope of Rome,Орхус,https://rocor.de/,Denmark,"Åby Kirkevej 1,
8230 Aarhus",56.14562590000001,10.1624436
Елладська православна церква,Hellas Orthodox Church,Hellas Orthodox Church,,Church in honor of Seraphim of Sarovsky in Thessaloniki,Салоніки,https://www.seraphim.gr/,Greece,"Iasonidou 2, Thessaloniki 564 29",40.6866014,22.9291639
Moscow Patriarchy of the Russian Orthodox Church,Moscow Patriarchy of the Russian Orthodox Church,Moscow Patriarchy of the Russian Orthodox Church,Берлінсько-Німецька єпархія,Parish of Queen Tamara of Georgia,Aachen,www.rokmp.de,Germany,"Schuetzenstrasse 13, 52062 Aachen",50.7716564,6.0913808
Moscow Patriarchy of the Russian Orthodox Church,Moscow Patriarchy of the Russian Orthodox Church,Moscow Patriarchy of the Russian Orthodox Church,Сурозька єпархія,Parish of St. Machar of Aberdeen in Aberdeen,Aberdeen,http://www.sourozh.org/,Great Britain,"College Bounds, Old Aberdeen, AB24 3EE",57.1639872,-2.1020223
Moscow Patriarchy of the Russian Orthodox Church,Moscow Patriarchy of the Russian Orthodox Church,Moscow Patriarchy of the Russian Orthodox Church,Адміністрація парафій МП в Італії,Community in honor of Saint Nicholas the Wonderworker,Alessandria,http://ortodossia.org/,Italy,Via Solero (AL) — Via Ugo Ghisiglieri — chiesa San Michele,44.9188318,8.5109952
Moscow Patriarchy of the Russian Orthodox Church,Moscow Patriarchy of the Russian Orthodox Church,Moscow Patriarchy of the Russian Orthodox Church,Іспано-Португальська єпархія,Parish in honor of the Iver Icon of the Mother of God,Alicante,http://orthodoxspain.com,Spain,"Carrer Dr. Sapena, 39, 03013 Alacant, Alicante",38.3543155,-0.4765982
Moscow Patriarchy of the Russian Orthodox Church,Moscow Patriarchy of the Russian Orthodox Church,Moscow Patriarchy of the Russian Orthodox Church,Великобританська і Західно-Європейська єпархія РПЦЗ,Parish Rev. Simeon the New Theologian and St. Innocent of Moskovsky,Alicante,https://orthodox-europe.org,Spain,"Calle Tato, 6
03005 Alicante",38.34638899999999,-0.4959453999999999
Moscow Patriarchy of the Russian Orthodox Church,Moscow Patriarchy of the Russian Orthodox Church,Moscow Patriarchy of the Russian Orthodox Church,Іспано-Португальська єпархія,Church in honor of Archangel Michael,Altea,http://orthodoxspain.com,Spain,"Calle Noraу, 1 Altea Alicante 03590",38.6305806,-0.0446062
Moscow Patriarchy of the Russian Orthodox Church,Moscow Patriarchy of the Russian Orthodox Church,Moscow Patriarchy of the Russian Orthodox Church,Берлінсько-Німецька єпархія,Community at the Advent of the Lord's Resurrection (Munich),Altötting,www.rokmp.de,Germany,"Ostpreussenstrasse 2, 84503 Altötting",48.21751339999999,12.6734206
Moscow Patriarchy of the Russian Orthodox Church,Moscow Patriarchy of the Russian Orthodox Church,Moscow Patriarchy of the Russian Orthodox Church,Німецька єпархія РПЦЗ,Russian Orthodox community of St. Rev. Grand Duchess Elizabeth,Alzey,https://rocor.de/,Germany,"Kirchenplatz 7,
55232 Alzey",49.743998,8.1125963
Moscow Patriarchy of the Russian Orthodox Church,Moscow Patriarchy of the Russian Orthodox Church,Moscow Patriarchy of the Russian Orthodox Church,Гаазька і Нідерландська єпархія,Parish of St. Cornelius the Centurion,Amersfoort,www.russian-diocese.nl,Netherlands,"Matthias Withoosstraat 34, 3812 ST Amersfoort",52.157831,5.3730842
Moscow Patriarchy of the Russian Orthodox Church,Moscow Patriarchy of the Russian Orthodox Church,Moscow Patriarchy of the Russian Orthodox Church,Гаазька і Нідерландська єпархія,The parish of Reverend Serhii Radonezhsky,Amsterdam,www.russian-diocese.nl,Netherlands,"Krom Boomssloot 22, 1011 GW Amsterdam",52.37169650000001,4.9021463
Moscow Patriarchy of the Russian Orthodox Church,Moscow Patriarchy of the Russian Orthodox Church,Moscow Patriarchy of the Russian Orthodox Church,Великобританська і Західно-Європейська єпархія РПЦЗ,Church of Rev. Mary of Egypt,Амстердам,https://orthodox-europe.org,Netherlands,"Oosteinclweg 394
NL-1432 BG Aalsmeer, Holland",52.2846988,4.7991329
Moscow Patriarchy of the Russian Orthodox Church,Moscow Patriarchy of the Russian Orthodox Church,Moscow Patriarchy of the Russian Orthodox Church,Корсунська єпархія,Community in honor of the Beheading of John the Baptist in Amiens,Amiens,https://cerkov-ru.com/,France,"France, 30 Place Notre Dame 80000 Amiens",49.8945915,2.3021338
Moscow Patriarchy of the Russian Orthodox Church,Moscow Patriarchy of the Russian Orthodox Church,Moscow Patriarchy of the Russian Orthodox Church,Адміністрація парафій МП в Італії,Community in honor of the Pochaiv Icon of the Mother of God,Ancona,http://ortodossia.org/,Italy,"via Valleniano 70, Ancona",43.6158299,13.518915
Moscow Patriarchy of the Russian Orthodox Church,Moscow Patriarchy of the Russian Orthodox Church,Moscow Patriarchy of the Russian Orthodox Church,Великобританська і Західно-Європейська єпархія РПЦЗ,Community of All Saints,Annecy,https://orthodox-europe.org,France,"2, place Notre Dame F-74000 Annecy, France",45.8999371,6.1255736
Moscow Patriarchy of the Russian Orthodox Church,Moscow Patriarchy of the Russian Orthodox Church,Moscow Patriarchy of the Russian Orthodox Church,Брюсельсько-Бельгійська єпархія,Church of the Nativity of Christ,Антверпен,https://www.archiepiskopia.be/,Belgium,"Loosplaats 2 (St.-Jozefkerk), B-2018 Antwerpen",51.2096902,4.4184614
Moscow Patriarchy of the Russian Orthodox Church,Moscow Patriarchy of the Russian Orthodox Church,Moscow Patriarchy of the Russian Orthodox Church,,Temple in honor of the Sumel Icon of the Mother of God in Athens,Афіни,https://www.psa.org.gr/,Greece,"El. Venizelou 73, Acharnes 136 74",38.097308,23.728651
Moscow Patriarchy of the Russian Orthodox Church,Moscow Patriarchy of the Russian Orthodox Church,Moscow Patriarchy of the Russian Orthodox Church,Адміністрація парафій МП в Італії,Community in honor of the Annunciation of the Holy Mother of God,Б'єлла,http://ortodossia.org/,Italy,"via Mazzini 26/a , Biella
chiesa instituto Lasana",45.5635425,8.053171299999999
Moscow Patriarchy of the Russian Orthodox Church,Moscow Patriarchy of the Russian Orthodox Church,Moscow Patriarchy of the Russian Orthodox Church,Берлінсько-Німецька єпархія,Parish of the Holy and Life-giving Cross of the Lord,Бад-Кройцнах,www.rokmp.de,Germany,"Holbeinstr.108, 55543 Bad Kreuznach (St. Franziskus Kirche)",49.84023819999999,7.884063699999999
Moscow Patriarchy of the Russian Orthodox Church,Moscow Patriarchy of the Russian Orthodox Church,Moscow Patriarchy of the Russian Orthodox Church,Берлінсько-Німецька єпархія,Parish of the Transfiguration of the Lord and St. Spyridon of Trimifuntsky,Баден-Баден,www.rokmp.de,Germany,"Königsberger Str. 16a, 76532 Baden-Baden",48.7805227,8.1892666
Moscow Patriarchy of the Russian Orthodox Church,Moscow Patriarchy of the Russian Orthodox Church,Moscow Patriarchy of the Russian Orthodox Church,Сурозька єпархія,Diocesan Community of Basildon,Базілдон,http://www.sourozh.org/,Great Britain,"St Nicholas Church Church Hill, Basildon, Essex, SS15 5RX",51.5791587,0.4356882
Moscow Patriarchy of the Russian Orthodox Church,Moscow Patriarchy of the Russian Orthodox Church,Moscow Patriarchy of the Russian Orthodox Church,Берлінсько-Німецька єпархія,Parish in the name of the holy apostles,Байройт,www.rokmp.de,Germany,"Leuschnerstrasse 80, 95447 Bayreuth",49.9332655,11.5661124
Moscow Patriarchy of the Russian Orthodox Church,Moscow Patriarchy of the Russian Orthodox Church,Moscow Patriarchy of the Russian Orthodox Church,Берлінсько-Німецька єпархія,The community of St. Sebastian of Karaganda,Бамберг,www.rokmp.de,Germany,"Hauptstrasse, 30, 96049 Gaustadt (Katholische Kapelle St. Sebastian)",49.9048113,10.8561007
Moscow Patriarchy of the Russian Orthodox Church,Moscow Patriarchy of the Russian Orthodox Church,Moscow Patriarchy of the Russian Orthodox Church,Іспано-Португальська єпархія,Church of the Annunciation of the Holy Mother of God,Барселона,http://orthodoxspain.com,Spain,"Carrer de la Mare de Déu dels Reis,12",41.4131109,2.145474
Moscow Patriarchy of the Russian Orthodox Church,Moscow Patriarchy of the Russian Orthodox Church,Moscow Patriarchy of the Russian Orthodox Church,Сурозька єпархія,St. Finian's Parish of Clonar in Belfast,Белфаст,http://www.sourozh.org/,Great Britain,"105 High St, Belfast, BT1 2AG, UK",54.5999382,-5.924929
Moscow Patriarchy of the Russian Orthodox Church,Moscow Patriarchy of the Russian Orthodox Church,Moscow Patriarchy of the Russian Orthodox Church,Адміністрація парафій МП в Італії,Parish in honor of the Vladimir Icon of the Mother of God,Бергамо,http://ortodossia.org/,Italy,piazza Sant’Anna 1,38.1151024,13.3648335
Moscow Patriarchy of the Russian Orthodox Church,Moscow Patriarchy of the Russian Orthodox Church,Moscow Patriarchy of the Russian Orthodox Church,Берлінсько-Німецька єпархія,Cathedral of the Resurrection of Christ,Берлін,www.rokmp.de,Germany,"Hohenzollerndamm 166, 10713 Berlin",52.4880612,13.307816
Moscow Patriarchy of the Russian Orthodox Church,Moscow Patriarchy of the Russian Orthodox Church,Moscow Patriarchy of the Russian Orthodox Church,Берлінсько-Німецька єпархія,Church of St. Serhiy Radonezhsky,Берлін,www.rokmp.de,Germany,"Wildensteinesstrasse 10, 10318 Berlin",52.4799894,13.5229071
Moscow Patriarchy of the Russian Orthodox Church,Moscow Patriarchy of the Russian Orthodox Church,Moscow Patriarchy of the Russian Orthodox Church,Берлінсько-Німецька єпархія,Temple of the Equal-to-the-apostles Prince Volodymyr in the Martsan-Hellersdorf district of Berlin,Берлін,www.rokmp.de,Germany,"Allee der Kosmonauten 184-188, 12685 Berlin-Marzahn",52.5400309,13.5624759
Moscow Patriarchy of the Russian Orthodox Church,Moscow Patriarchy of the Russian Orthodox Church,Moscow Patriarchy of the Russian Orthodox Church,Берлінсько-Німецька єпархія,Temple of the equal-to-the-aposltes Konstantin and Elena,Берлін,www.rokmp.de,Germany,"Wittestrasse 37, 13509 Berlin-Tegel",52.57817,13.3015641
Moscow Patriarchy of the Russian Orthodox Church,Moscow Patriarchy of the Russian Orthodox Church,Moscow Patriarchy of the Russian Orthodox Church,Берлінсько-Німецька єпархія,Parish of St. Isidore of Rostov,Берлін,www.rokmp.de,Germany,"Alt Lankwitz 43, 12247 Berlin",52.4381937,13.3570017
Moscow Patriarchy of the Russian Orthodox Church,Moscow Patriarchy of the Russian Orthodox Church,Moscow Patriarchy of the Russian Orthodox Church,Берлінсько-Німецька єпархія,Community in Spandau,Берлін,www.rokmp.de,Germany,"Melanchtonplatz 1, 13595 Berlin",52.52129610000001,13.1888328
Moscow Patriarchy of the Russian Orthodox Church,Moscow Patriarchy of the Russian Orthodox Church,Moscow Patriarchy of the Russian Orthodox Church,Берлінсько-Німецька єпархія,Community in the name of St. great martyr Ioann Sochavskyi,Берлін,www.rokmp.de,Germany,"Robert-Siewert-Str 67, 10318 Berlin",52.4930031,13.5345054
Moscow Patriarchy of the Russian Orthodox Church,Moscow Patriarchy of the Russian Orthodox Church,Moscow Patriarchy of the Russian Orthodox Church,Берлінсько-Німецька єпархія,Church of St. Nectariy Eginsky and St. Procopy of Ustyug,Бишофсхайм-на-Рене,www.rokmp.de,Germany,"Fastnachtsgasse 4, 97653 Bischofshein (Rhoen)",50.4004416,10.0086064
Moscow Patriarchy of the Russian Orthodox Church,Moscow Patriarchy of the Russian Orthodox Church,Moscow Patriarchy of the Russian Orthodox Church,Берлінсько-Німецька єпархія,Community of St. Apostle Jacob,Білефельд,www.rokmp.de,Germany,"Andreas Kapelle, Kiskerstraße 26, Bielefeld 33615",52.0233046,8.523357599999999
Moscow Patriarchy of the Russian Orthodox Church,Moscow Patriarchy of the Russian Orthodox Church,Moscow Patriarchy of the Russian Orthodox Church,Сурозька єпархія,Parish of All Saints of Great Britain and Ireland,Бірмінгем,http://www.sourozh.org/,Great Britain,"141 Hagley Rd, Edgbaston, Birmingham B16 8UE",52.47202309999999,-1.9290134
Moscow Patriarchy of the Russian Orthodox Church,Moscow Patriarchy of the Russian Orthodox Church,Moscow Patriarchy of the Russian Orthodox Church,Сурозька єпархія,Parthia of All Saints of Wales,Бленау Ффестініог,http://www.sourozh.org/,Great Britain,"Manod Rd, Blaenau Ffestiniog LL41 4AF",52.9842339,-3.9296073
Moscow Patriarchy of the Russian Orthodox Church,Moscow Patriarchy of the Russian Orthodox Church,Moscow Patriarchy of the Russian Orthodox Church,РПЦ в Данії,Church of the Saint Royal Passionists,Богу,https://ortodoxy.dk/,Denmark,"Prinsehoejsvej 35, Baagoe 5160, Assens",55.3106118,9.8099926
Moscow Patriarchy of the Russian Orthodox Church,Moscow Patriarchy of the Russian Orthodox Church,Moscow Patriarchy of the Russian Orthodox Church,Сурозька єпархія,Sisterhood of Saint Elizabeth in Bodiam,Бодіам,http://www.sourozh.org/,Great Britain,"Rocks Farm, Bodiam, EAST SUSSEX, TN32 5RJ",50.98941440000001,0.5356419
Moscow Patriarchy of the Russian Orthodox Church,Moscow Patriarchy of the Russian Orthodox Church,Moscow Patriarchy of the Russian Orthodox Church,Адміністрація парафій МП в Італії,Parish in honor of Saint Basil the Great,Болонья,http://ortodossia.org/,Italy,"via Sant’Isaia, 35, 40123 Bologna",44.4940826,11.3321642
Moscow Patriarchy of the Russian Orthodox Church,Moscow Patriarchy of the Russian Orthodox Church,Moscow Patriarchy of the Russian Orthodox Church,Адміністрація парафій МП в Італії,Parish in honor of the Intercession of the Holy Mother of God,Болонья,http://ortodossia.org/,Italy,"Via Saragozza,  2.  Cap 40135, Bologna",44.49021940000001,11.3373084
Moscow Patriarchy of the Russian Orthodox Church,Moscow Patriarchy of the Russian Orthodox Church,Moscow Patriarchy of the Russian Orthodox Church,Берлінсько-Німецька єпархія,Parish of the Intercession of the Holy Mother of God,Бонн,www.rokmp.de,Germany,"Am Draitschbusch 2a, 53177 Bonn",50.6791344,7.147305999999999
Moscow Patriarchy of the Russian Orthodox Church,Moscow Patriarchy of the Russian Orthodox Church,Moscow Patriarchy of the Russian Orthodox Church,Корсунська єпархія,Parish in honor of Ven. Seraphim of Sarovsky to Bordeaux,Бордо,https://cerkov-ru.com/,France,"France, 15 rue saint François-Xavier Bruges 33520 Bordeaux",44.8957757,-0.5920027000000001
Moscow Patriarchy of the Russian Orthodox Church,Moscow Patriarchy of the Russian Orthodox Church,Moscow Patriarchy of the Russian Orthodox Church,Сурозька єпархія,Parish in honor of the Jerusalem icon of the Mother of God,Брайтон,http://www.sourozh.org/,Great Britain,"St Richard Hollingdean Community Hall, 9 Beal Crescent, Brighton, East Sussex, BN1 7BU",50.8431046,-0.1268786
Moscow Patriarchy of the Russian Orthodox Church,Moscow Patriarchy of the Russian Orthodox Church,Moscow Patriarchy of the Russian Orthodox Church,Берлінсько-Німецька єпархія,"Parish of the Icon of the Mother of God ""Sign"" Kurska-Korinna",Бракель,www.rokmp.de,Germany,"Ostheimerstrasse, 33034 Brakel",51.7131117,9.19323
Moscow Patriarchy of the Russian Orthodox Church,Moscow Patriarchy of the Russian Orthodox Church,Moscow Patriarchy of the Russian Orthodox Church,Берлінсько-Німецька єпархія,"Parish of the Icon of the Mother of God ""Joy of All the Sorrowful""",Бранденбург,www.rokmp.de,Germany,"Brahmstrasse 12A, 14772 Brandenburg an der Havel",52.4287567,12.51442
Moscow Patriarchy of the Russian Orthodox Church,Moscow Patriarchy of the Russian Orthodox Church,Moscow Patriarchy of the Russian Orthodox Church,Берлінсько-Німецька єпархія,St. George Men's Monastery,Бранденбург,www.rokmp.de,Germany,,53.09198763913793 ,13.672138184377479
Moscow Patriarchy of the Russian Orthodox Church,Moscow Patriarchy of the Russian Orthodox Church,Moscow Patriarchy of the Russian Orthodox Church,Сурозька єпархія,Parish in name of God's Ascension in Bradford,Бредфорд,http://www.sourozh.org/,Great Britain,"98 Little Horton Lane, Bradford BD5 0JG",53.7857885,-1.7599148
Moscow Patriarchy of the Russian Orthodox Church,Moscow Patriarchy of the Russian Orthodox Church,Moscow Patriarchy of the Russian Orthodox Church,Берлінсько-Німецька єпархія,Church of the Saint Royal Passionists,Бремен,www.rokmp.de,Germany,"Kleine Westerholzstrasse 17, 28309 Bremen",53.0532929,8.890907499999999
Moscow Patriarchy of the Russian Orthodox Church,Moscow Patriarchy of the Russian Orthodox Church,Moscow Patriarchy of the Russian Orthodox Church,Берлінсько-Німецька єпархія,Parish of Rev. Anastasia of Kyiv and St. martyr Volodymyr Abartsumov,Бремерхафен,www.rokmp.de,Germany,"Schillerstraße 117, Bremerhaven",53.52388209999999,8.5974962
Moscow Patriarchy of the Russian Orthodox Church,Moscow Patriarchy of the Russian Orthodox Church,Moscow Patriarchy of the Russian Orthodox Church,Адміністрація парафій МП в Італії,Parish in honor of the Sending of the Holy Spirit,Брешія,http://ortodossia.org/,Italy,"Chiesa Santi Cosma e Damiano, Via Cairoli 27, Brescia",45.53950529999999,10.2118238
Moscow Patriarchy of the Russian Orthodox Church,Moscow Patriarchy of the Russian Orthodox Church,Moscow Patriarchy of the Russian Orthodox Church,Адміністрація парафій МП в Італії,Community in honor of Saint Nicholas the Wonderworker,Брешія,http://ortodossia.org/,Italy,"via San Faustino 36, Brescia",45.5420379,10.2196233
Moscow Patriarchy of the Russian Orthodox Church,Moscow Patriarchy of the Russian Orthodox Church,Moscow Patriarchy of the Russian Orthodox Church,Сурозька єпархія,Holy Trinity Parish in Bristol,Брістоль,http://www.sourozh.org/,Great Britain,"St John Fisher Church, 56 Begbrook Park, Frenchay, Bristol BS16 1NF
",51.4944382,-2.5271029
Moscow Patriarchy of the Russian Orthodox Church,Moscow Patriarchy of the Russian Orthodox Church,Moscow Patriarchy of the Russian Orthodox Church,,Representation of the Russian Orthodox Church at European international organizations,Брюссель,http://orthodoxru.eu/,Belgium,"
Rue Leon Lepage 35, 1000 Bruxelles, Belgium",50.8521459,4.345397999999999
Moscow Patriarchy of the Russian Orthodox Church,Moscow Patriarchy of the Russian Orthodox Church,Moscow Patriarchy of the Russian Orthodox Church,Брюсельсько-Бельгійська єпархія,St. Michael Cathedral,Брюссель,https://www.archiepiskopia.be/,Belgium,"Rue des Chevaliers 29, B-1050 Bruxelles",50.8360313,4.3597603
Moscow Patriarchy of the Russian Orthodox Church,Moscow Patriarchy of the Russian Orthodox Church,Moscow Patriarchy of the Russian Orthodox Church,Брюсельсько-Бельгійська єпархія,Church of the Holy Life-giving Trinity,Брюссель,https://www.archiepiskopia.be/,Belgium,"Rue Leon Lepage 35
B-1000 Bruxelles",50.8521459,4.345397999999999
Moscow Patriarchy of the Russian Orthodox Church,Moscow Patriarchy of the Russian Orthodox Church,Moscow Patriarchy of the Russian Orthodox Church,Брюсельсько-Бельгійська єпархія,Church of the Intercession of the Holy Mother of God,Брюссель,https://www.archiepiskopia.be/,Belgium,"Rue Leon Lepage 33, 1000 Bruxelles",50.8520809,4.34537
Moscow Patriarchy of the Russian Orthodox Church,Moscow Patriarchy of the Russian Orthodox Church,Moscow Patriarchy of the Russian Orthodox Church,Брюсельсько-Бельгійська єпархія,Church of St. Righteous Anna,Брюссель,https://www.archiepiskopia.be/,Belgium,"Eglise Ste. Anne, Avenue des Trembles, 1020 Bruxelles (Laeken)",50.8887863,4.3494618
Moscow Patriarchy of the Russian Orthodox Church,Moscow Patriarchy of the Russian Orthodox Church,Moscow Patriarchy of the Russian Orthodox Church,,Assumption Cathedral (Hungarian Assumption Parish),Будапешт,http://hungary.orthodoxia.org,Hungary,"1052 Budapest, Petőfi tér 2",47.4932309,19.050837
Moscow Patriarchy of the Russian Orthodox Church,Moscow Patriarchy of the Russian Orthodox Church,Moscow Patriarchy of the Russian Orthodox Church,,Assumption Cathedral (Russian Holy Trinity Parish),Будапешт,http://hungary.orthodoxia.org,Hungary,"1052 Budapest, Petőfi tér 2",47.4932309,19.050837
Moscow Patriarchy of the Russian Orthodox Church,Moscow Patriarchy of the Russian Orthodox Church,Moscow Patriarchy of the Russian Orthodox Church,,Budapest St. Sergius Parish,Будапешт,http://hungary.orthodoxia.org,Hungary,"1052 Budapest, Petőfi tér 2",47.4932309,19.050837
Moscow Patriarchy of the Russian Orthodox Church,Moscow Patriarchy of the Russian Orthodox Church,Moscow Patriarchy of the Russian Orthodox Church,Іспано-Португальська єпархія,Parish in honor of the great martyr George,Валенсія,http://orthodoxspain.com,Spain,"Spain, CNorte 6 46008 Valencia España",39.47503090000001,-0.3904552
Moscow Patriarchy of the Russian Orthodox Church,Moscow Patriarchy of the Russian Orthodox Church,Moscow Patriarchy of the Russian Orthodox Church,Корсунська єпархія,Church in honor of the Holy Trinity and New Martyrs and confessors of Russia,Ванв,https://cerkov-ru.com/,France,"France, 16 rue Michel-Ange",48.84666439999999,2.2628204
Moscow Patriarchy of the Russian Orthodox Church,Moscow Patriarchy of the Russian Orthodox Church,Moscow Patriarchy of the Russian Orthodox Church,Адміністрація парафій МП в Італії,Parish in honor of St. Grand Duke Alexander Nevsky,Варезе,http://ortodossia.org/,Italy,"via Milazzo 15, Varese",45.8146944,8.8132888
Moscow Patriarchy of the Russian Orthodox Church,Moscow Patriarchy of the Russian Orthodox Church,Moscow Patriarchy of the Russian Orthodox Church,Корсунська єпархія,Parish in honor of the first martyr Archdeacon Stefan and Saint Herman of Osser,Везле,https://cerkov-ru.com/,France,"France, Maison Romane rue du Couvent 89450 Vezelay",47.4661348,3.7470594
Moscow Patriarchy of the Russian Orthodox Church,Moscow Patriarchy of the Russian Orthodox Church,Moscow Patriarchy of the Russian Orthodox Church,Берлінсько-Німецька єпархія,Church of St. Reverend Martyr Evgenia,Веймар,www.rokmp.de,Germany,"Pfarramt ROK, Windmühlenstraße 25 b, 99425 Weimar",50.9721082,11.3135138
Moscow Patriarchy of the Russian Orthodox Church,Moscow Patriarchy of the Russian Orthodox Church,Moscow Patriarchy of the Russian Orthodox Church,Адміністрація парафій МП в Італії,Parish in honor of Saints Myrrh-bearers,Венеція,http://ortodossia.org/,Italy,"Sestiere Santa Croce, campo San Zan Degolà 1",45.4415226,12.3276874
Moscow Patriarchy of the Russian Orthodox Church,Moscow Patriarchy of the Russian Orthodox Church,Moscow Patriarchy of the Russian Orthodox Church,Адміністрація парафій МП в Італії,Parish in honor of Saint Nicholas the Wonderworker,Верона,http://ortodossia.org/,Italy,"Vicolo San Salvatore Vecchio, 9 Verona",45.4440811,10.9945662
Moscow Patriarchy of the Russian Orthodox Church,Moscow Patriarchy of the Russian Orthodox Church,Moscow Patriarchy of the Russian Orthodox Church,Адміністрація парафій МП в Італії,Parish in honor of All Saints,Верона,http://ortodossia.org/,Italy,"Chiesa S. Antonio, Via A. Manzoni — San Martino Buon Albergo",45.4267967,11.0821672
Moscow Patriarchy of the Russian Orthodox Church,Moscow Patriarchy of the Russian Orthodox Church,Moscow Patriarchy of the Russian Orthodox Church,Берлінсько-Німецька єпархія,The community of St. martyr Iryna,Вертхайм,www.rokmp.de,Germany,Willi-Brand-Str. 1. 97877 Wertheim,49.7531089,9.4957133
Moscow Patriarchy of the Russian Orthodox Church,Moscow Patriarchy of the Russian Orthodox Church,Moscow Patriarchy of the Russian Orthodox Church,Благочиння РПЦ МП в Швеції,Parish in the name of the Kazan icon of the Mother of God,Вестерос,http://sweden.cerkov.ru/,Sweden,"Atmosfärvägen 8, 72131 Västerås",59.5922114,16.6242235
Moscow Patriarchy of the Russian Orthodox Church,Moscow Patriarchy of the Russian Orthodox Church,Moscow Patriarchy of the Russian Orthodox Church,Віденсько-Австрійська єпархія,Saint Nicholas Cathedral,Відень,https://austria-diocese.com/,Austria,"Jaurèsgasse 2, 1030 Wien, Австрія",48.1974525,16.3850621
Moscow Patriarchy of the Russian Orthodox Church,Moscow Patriarchy of the Russian Orthodox Church,Moscow Patriarchy of the Russian Orthodox Church,Адміністрація парафій МП в Італії,Parish in honor of Saint Nicholas the Wonderworker,Віченца,http://ortodossia.org/,Italy,Via Porta Santa Croce 55,41.8401649,12.8938163
Moscow Patriarchy of the Russian Orthodox Church,Moscow Patriarchy of the Russian Orthodox Church,Moscow Patriarchy of the Russian Orthodox Church,Сурозька єпархія,"Parish of Our Lady of the Life-giving Source, Walsingham",Волсінгем,http://www.sourozh.org/,Great Britain,"Pan-Orthodox Chapel at the  Shrine of Our Lady of Walsingham, Little Walsingham, Norfolk NR22 6EF",52.8946704,0.8759113
Moscow Patriarchy of the Russian Orthodox Church,Moscow Patriarchy of the Russian Orthodox Church,Moscow Patriarchy of the Russian Orthodox Church,Берлінсько-Німецька єпархія,"Community of the Three Saints Basil the Great, Gregory the Theologian and John the Baptist",Вормс,www.rokmp.de,Germany,"Landgrafenstraße 66, 67549 Worms",49.63423580000001,8.3208352
Moscow Patriarchy of the Russian Orthodox Church,Moscow Patriarchy of the Russian Orthodox Church,Moscow Patriarchy of the Russian Orthodox Church,Сурозька єпархія,Parish of St. Patrick of Ireland,Вотерфорд,http://www.sourozh.org/,Ireland,"Saint Paul's Boxing Club (1st floor), Lisduggan,  Waterford, X91XW80",52.2496895,-7.1323319
Moscow Patriarchy of the Russian Orthodox Church,Moscow Patriarchy of the Russian Orthodox Church,Moscow Patriarchy of the Russian Orthodox Church,Берлінсько-Німецька єпархія,Parish of Reverend Martyrs Elizabeth and Barbara in Buckfast,Вупперталь,www.rokmp.de,Germany,"Vogelsangstrasse 106, 42109 Wuppertal",51.2745968,7.1426177
Moscow Patriarchy of the Russian Orthodox Church,Moscow Patriarchy of the Russian Orthodox Church,Moscow Patriarchy of the Russian Orthodox Church,Берлінсько-Німецька єпархія,Parish of the Annunciation of the Most Holy Theotokos,Вюрцбург,www.rokmp.de,Germany,"Zeller Straße 45, 97082 Würzburg",49.7937774,9.918678199999999
Moscow Patriarchy of the Russian Orthodox Church,Moscow Patriarchy of the Russian Orthodox Church,Moscow Patriarchy of the Russian Orthodox Church,Гаазька і Нідерландська єпархія,Parish of St. Mary Magdalene,Гаага,www.russian-diocese.nl,Netherlands,"Obrechtstraat 9, 2517 VL Den Haag",52.0834103,4.2885354
Moscow Patriarchy of the Russian Orthodox Church,Moscow Patriarchy of the Russian Orthodox Church,Moscow Patriarchy of the Russian Orthodox Church,Берлінсько-Німецька єпархія,Parish of the Exaltation of the Holy Cross,Галле,www.rokmp.de,Germany,"Franckeplatz 1, 06110 Halle",51.4779707,11.9709711
Moscow Patriarchy of the Russian Orthodox Church,Moscow Patriarchy of the Russian Orthodox Church,Moscow Patriarchy of the Russian Orthodox Church,Берлінсько-Німецька єпархія,Church of St. Nicholas the Miracle Worker of Myrliki,Гамбург,www.rokmp.de,Germany,"Tschaikovskiplatz 1, 20355 Hamburg",53.5568845,9.9751759
Moscow Patriarchy of the Russian Orthodox Church,Moscow Patriarchy of the Russian Orthodox Church,Moscow Patriarchy of the Russian Orthodox Church,Берлінсько-Німецька єпархія,Church of St. Myrrh-bearing women,Гамбург,www.rokmp.de,Germany,"Holstenkamp 89, 22525 Hamburg",53.5713291,9.9144691
Moscow Patriarchy of the Russian Orthodox Church,Moscow Patriarchy of the Russian Orthodox Church,Moscow Patriarchy of the Russian Orthodox Church,Берлінсько-Німецька єпархія,Parish of equal-to-the-apostles Cyril and Methodius,Гамбург,www.rokmp.de,Germany,"Billhorner Mühlenweg 31, 20539 Hamburg",53.5355608,10.0327408
Moscow Patriarchy of the Russian Orthodox Church,Moscow Patriarchy of the Russian Orthodox Church,Moscow Patriarchy of the Russian Orthodox Church,Берлінсько-Німецька єпархія,"Community in the name of St. Luke, Archbishop of Crimea",Гамельн,www.rokmp.de,Germany,"Lohstraße 8, 31785 Hameln",52.102113,9.3673792
Moscow Patriarchy of the Russian Orthodox Church,Moscow Patriarchy of the Russian Orthodox Church,Moscow Patriarchy of the Russian Orthodox Church,Берлінсько-Німецька єпархія,Parish of the Annunciation of the Most Holy Theotokos,Ганновер,www.rokmp.de,Germany,"Schulenburger Landstrasse 126a, Hannover",52.40657270000001,9.712592299999999
Moscow Patriarchy of the Russian Orthodox Church,Moscow Patriarchy of the Russian Orthodox Church,Moscow Patriarchy of the Russian Orthodox Church,Берлінсько-Німецька єпархія,Community of orthodox Joachim and Anna,Гейдельберг,www.rokmp.de,Germany,"Ploeck 4, 69177 Heidelberg",49.40876979999999,8.6959355
Moscow Patriarchy of the Russian Orthodox Church,Moscow Patriarchy of the Russian Orthodox Church,Moscow Patriarchy of the Russian Orthodox Church,Гаазька і Нідерландська єпархія,Russian Orthodox Monastery of St. Nicholas the Wonderworker in Hemelyum,Гемелюм,www.russian-diocese.nl,Netherlands,"Buorren 18, 8584 VC Hemelum",52.88192670000001,5.4552855
Moscow Patriarchy of the Russian Orthodox Church,Moscow Patriarchy of the Russian Orthodox Church,Moscow Patriarchy of the Russian Orthodox Church,Адміністрація парафій МП в Італії,Parish in honor of the Transfiguration of the Lord,Генуя,http://ortodossia.org/,Italy,Chiesa alla salita della Seta 3r — Genova,44.4047244,8.9290947
Moscow Patriarchy of the Russian Orthodox Church,Moscow Patriarchy of the Russian Orthodox Church,Moscow Patriarchy of the Russian Orthodox Church,Благочиння РПЦ МП в Швеції,Parish in the name of the Protection of the Mother of God,Гетеборг,http://sweden.cerkov.ru/,Sweden,"Runstavsgatan 9, Göteborg",57.7483024,12.0273188
Moscow Patriarchy of the Russian Orthodox Church,Moscow Patriarchy of the Russian Orthodox Church,Moscow Patriarchy of the Russian Orthodox Church,Берлінсько-Німецька єпархія,Parish of Archangel Michael of God,Геттинген,www.rokmp.de,Germany,"Stauffenbergring 4, 37075 Göttingen",51.5477858,9.9601937
Moscow Patriarchy of the Russian Orthodox Church,Moscow Patriarchy of the Russian Orthodox Church,Moscow Patriarchy of the Russian Orthodox Church,Берлінсько-Німецька єпархія,Men's Monastery of George the Victorious in Götschendorf,Гетшендорф,www.rokmp.de,Germany,"Germany, St. Georgskloster, Russische Orthodoxe Kirche Götschendorf 33, 17268 Milmersdorf",53.0919039,13.672106
Moscow Patriarchy of the Russian Orthodox Church,Moscow Patriarchy of the Russian Orthodox Church,Moscow Patriarchy of the Russian Orthodox Church,Берлінсько-Німецька єпархія,"Parish in honor of the icon of the Mother of God ""Zhyrovytska""",Гіссен,www.rokmp.de,Germany,"Egerländerstr. 6, 35396 Giessen",50.5957685,8.6772042
Moscow Patriarchy of the Russian Orthodox Church,Moscow Patriarchy of the Russian Orthodox Church,Moscow Patriarchy of the Russian Orthodox Church,Берлінсько-Німецька єпархія,Church of St. Nicholas the Wonderworker,Гіфхорн,www.rokmp.de,Germany,"Bromer Straße 2, 38518 Gifhorn",52.49251,10.5480169
Moscow Patriarchy of the Russian Orthodox Church,Moscow Patriarchy of the Russian Orthodox Church,Moscow Patriarchy of the Russian Orthodox Church,Сурозька єпархія,St. Kentiger's Parish in Glasgow,Глазго,http://www.sourozh.org/,Great Britain,"866 Govan Road, Glasgow G51 3UU",55.8646469,-4.3130171
Moscow Patriarchy of the Russian Orthodox Church,Moscow Patriarchy of the Russian Orthodox Church,Moscow Patriarchy of the Russian Orthodox Church,Сурозька єпархія,Parish of St. Nicholas the Wonderworker,Голвей,http://www.sourozh.org/,Ireland,"Market Place, Galway",53.2898419,-9.0224697
Moscow Patriarchy of the Russian Orthodox Church,Moscow Patriarchy of the Russian Orthodox Church,Moscow Patriarchy of the Russian Orthodox Church,Берлінсько-Німецька єпархія,The community of Matrona of Moscow,Грайфсвальд,www.rokmp.de,Germany,"An der Christuskirche 1, 17491 Greifswald",54.084117,13.4245659
Moscow Patriarchy of the Russian Orthodox Church,Moscow Patriarchy of the Russian Orthodox Church,Moscow Patriarchy of the Russian Orthodox Church,Іспано-Португальська єпархія,Parish in honor of the Intercession of the Mother of God,Гранада,http://orthodoxspain.com,Spain,"Calle Pedro Machuca 21, Granada",37.2034445,-3.6067209
Moscow Patriarchy of the Russian Orthodox Church,Moscow Patriarchy of the Russian Orthodox Church,Moscow Patriarchy of the Russian Orthodox Church,Корсунська єпархія,"Women's monastery in honor of the icon of the Mother of God ""Korsunska"" in Grassak",Грассак,https://cerkov-ru.com/,France,"France, Doumérac - 16380 Grassac",45.567253,0.418263
Moscow Patriarchy of the Russian Orthodox Church,Moscow Patriarchy of the Russian Orthodox Church,Moscow Patriarchy of the Russian Orthodox Church,Віденсько-Австрійська єпархія,Russian Orthodox Parish of the Intercession of the Holy Mother of God,Грац,https://austria-diocese.com/,Austria,"Griesplatz 30, 8020 Graz",47.0660649,15.431063
Moscow Patriarchy of the Russian Orthodox Church,Moscow Patriarchy of the Russian Orthodox Church,Moscow Patriarchy of the Russian Orthodox Church,Гаазька і Нідерландська єпархія,Parish of the Transfiguration of the Lord,Гронінген,www.russian-diocese.nl,Netherlands,"Ganzevoortsingel 2, 9711 AL Groningen",53.213909,6.5618329
Moscow Patriarchy of the Russian Orthodox Church,Moscow Patriarchy of the Russian Orthodox Church,Moscow Patriarchy of the Russian Orthodox Church,Сурозька єпархія,Parish of the Annunciation of the Mother of God,Данді,http://www.sourozh.org/,Great Britain,"Chaplaincy Centre, University of Dundee, Cross Row, Dundee, DD1 4HN",56.45801760000001,-2.9815929
Moscow Patriarchy of the Russian Orthodox Church,Moscow Patriarchy of the Russian Orthodox Church,Moscow Patriarchy of the Russian Orthodox Church,Берлінсько-Німецька єпархія,Resurrection chapel-monument,Дахау,www.rokmp.de,Germany,"Alte Römerstr. 75, 85221 Dachau",48.2682845,11.469956
Moscow Patriarchy of the Russian Orthodox Church,Moscow Patriarchy of the Russian Orthodox Church,Moscow Patriarchy of the Russian Orthodox Church,,Church of the Holy Trinity in Debrecen,Дебрецен,http://hungary.orthodoxia.org,Hungary,"4029 Debrecen, Késmárk u. 7/c",47.5290019,21.6403876
Moscow Patriarchy of the Russian Orthodox Church,Moscow Patriarchy of the Russian Orthodox Church,Moscow Patriarchy of the Russian Orthodox Church,Берлінсько-Німецька єпархія,The community of the equal-to-ap. Nicholas of Japan,Деммин,www.rokmp.de,Germany,"St. Bartholomäus Kirche, Kirchplatz 7, 17109 Demmin",53.9067,13.03453
Moscow Patriarchy of the Russian Orthodox Church,Moscow Patriarchy of the Russian Orthodox Church,Moscow Patriarchy of the Russian Orthodox Church,Сурозька єпархія,Parish of St. David of Wales in Derby,Дербі,http://www.sourozh.org/,Great Britain,"St. Mary's Bridge, Derby DE1 3AT",52.92713,-1.4751198
Moscow Patriarchy of the Russian Orthodox Church,Moscow Patriarchy of the Russian Orthodox Church,Moscow Patriarchy of the Russian Orthodox Church,Берлінсько-Німецька єпархія,Parish of St. Luke of Crimea,Дибург,www.rokmp.de,Germany,"Minnefeld 36, 64807 Dieburg",49.9016212,8.8427168
Moscow Patriarchy of the Russian Orthodox Church,Moscow Patriarchy of the Russian Orthodox Church,Moscow Patriarchy of the Russian Orthodox Church,Адміністрація парафій МП в Італії,Community in honor of the Holy Trinity,Домодоссола,http://ortodossia.org/,Italy,"via Paolo Silva 1, Domodossola",46.1157382,8.290740999999999
Moscow Patriarchy of the Russian Orthodox Church,Moscow Patriarchy of the Russian Orthodox Church,Moscow Patriarchy of the Russian Orthodox Church,Берлінсько-Німецька єпархія,Parish of the Holy Life-giving Trinity,Дортмунд,www.rokmp.de,Germany,"Flurstr. 39, 44145 Dortmund",51.5274455,7.4861995
Moscow Patriarchy of the Russian Orthodox Church,Moscow Patriarchy of the Russian Orthodox Church,Moscow Patriarchy of the Russian Orthodox Church,Берлінсько-Німецька єпархія,Church of St. Simeon Divnogorets,Дрезден,www.rokmp.de,Germany,"Fritz-Löffler-Str. 19, 01069 Dresden",51.0334893,13.7312145
Moscow Patriarchy of the Russian Orthodox Church,Moscow Patriarchy of the Russian Orthodox Church,Moscow Patriarchy of the Russian Orthodox Church,Сурозька єпархія,Parish of the Introduction to the Church of the Holy Mother of God,Дрогеда,http://www.sourozh.org/,Ireland,"Peter's Hill, Drogheda, Co. Louth",53.7164568,-6.350891
Moscow Patriarchy of the Russian Orthodox Church,Moscow Patriarchy of the Russian Orthodox Church,Moscow Patriarchy of the Russian Orthodox Church,Сурозька єпархія,Parish of the Holy Apostles Peter and Paul,Дублін,http://www.sourozh.org/,Ireland,"Mount Argus Rd, Dublin 6W",53.3235851,-6.281638099999999
Moscow Patriarchy of the Russian Orthodox Church,Moscow Patriarchy of the Russian Orthodox Church,Moscow Patriarchy of the Russian Orthodox Church,Сурозька єпархія,Parish of the Royal Martyrs in Douglas,Дуглас,http://www.sourozh.org/,Great Britain,"North Quay, Douglas, IM2 1AZ",54.14876686933668,-4.479808265245264
Moscow Patriarchy of the Russian Orthodox Church,Moscow Patriarchy of the Russian Orthodox Church,Moscow Patriarchy of the Russian Orthodox Church,Берлінсько-Німецька єпархія,"Parish in honor of the icon of the Mother of God ""Joy and Consolation""",Дуйсбург,www.rokmp.de,Germany,Norbertuskirchplatz 10 47166 Duisburg,51.4988661,6.7843096
Moscow Patriarchy of the Russian Orthodox Church,Moscow Patriarchy of the Russian Orthodox Church,Moscow Patriarchy of the Russian Orthodox Church,,Church of St. Nicholas in Gyöngyös,Дьєндьєш,http://hungary.orthodoxia.org,Hungary,"3200 Gyöngyös, Vachott S. u. 12",47.7864501,19.9227028
Moscow Patriarchy of the Russian Orthodox Church,Moscow Patriarchy of the Russian Orthodox Church,Moscow Patriarchy of the Russian Orthodox Church,Берлінсько-Німецька єпархія,Church of the Intercession of the Holy Mother of God,Дюссельдорф,www.rokmp.de,Germany,"Ellerstrasse 213
40227 Düsseldorf",51.2131781,6.8054952
Moscow Patriarchy of the Russian Orthodox Church,Moscow Patriarchy of the Russian Orthodox Church,Moscow Patriarchy of the Russian Orthodox Church,Сурозька єпархія,Parish of St. Teneu in Edinburgh,Единбург,http://www.sourozh.org/,Great Britain,"1b Royal Terrace, EH7 5AB",55.9571787,-3.1813822
Moscow Patriarchy of the Russian Orthodox Church,Moscow Patriarchy of the Russian Orthodox Church,Moscow Patriarchy of the Russian Orthodox Church,Корсунська єпархія,House temple in honor of St. Martin the Confessor and Fr. Genevieve of Paris,Епіне-су-Сенар,https://cerkov-ru.com/,France,"France, 4 rue Sainte-Geneviève",48.9025712,2.2796378
Moscow Patriarchy of the Russian Orthodox Church,Moscow Patriarchy of the Russian Orthodox Church,Moscow Patriarchy of the Russian Orthodox Church,Берлінсько-Німецька єпархія,Community in the city of Erfurt,Ерфурт,www.rokmp.de,Germany,"Schonnebeckhöfe, 202, 45327 Essen",51.493074,7.047170599999999
Moscow Patriarchy of the Russian Orthodox Church,Moscow Patriarchy of the Russian Orthodox Church,Moscow Patriarchy of the Russian Orthodox Church,Берлінсько-Німецька єпархія,Parish of Saints Cosmas and Damian the Silverless,Ессен,www.rokmp.de,Germany,"Schonnebeckhöfe, 202, 45327 Essen",51.493074,7.047170599999999
Moscow Patriarchy of the Russian Orthodox Church,Moscow Patriarchy of the Russian Orthodox Church,Moscow Patriarchy of the Russian Orthodox Church,Благочиння РПЦ МП в Швеції,Parish of the Assumption of the Mother of God,Євле,http://sweden.cerkov.ru/,Sweden,"Marma Kyrka, Kyrkvägen 2, 814 95 Älvkarleby",60.49190079999999,17.4257246
Moscow Patriarchy of the Russian Orthodox Church,Moscow Patriarchy of the Russian Orthodox Church,Moscow Patriarchy of the Russian Orthodox Church,Віденсько-Австрійська єпархія,Church of the Intercession of the Holy Mother of God,Зальцбург,https://austria-diocese.com/,Austria,"Christian-Doppler-Strasse 3a, A-5020 Salzburg",47.8098617,13.034686
Moscow Patriarchy of the Russian Orthodox Church,Moscow Patriarchy of the Russian Orthodox Church,Moscow Patriarchy of the Russian Orthodox Church,Гаазька і Нідерландська єпархія,Parish of Saint Michael the Archangel,Зволле,www.russian-diocese.nl,Netherlands,"Theodorahof 20, 8011 AA Zwolle",52.5110104,6.0849953
Moscow Patriarchy of the Russian Orthodox Church,Moscow Patriarchy of the Russian Orthodox Church,Moscow Patriarchy of the Russian Orthodox Church,Берлінсько-Німецька єпархія,Parish of Michael the Archangel and all Heavenly Powers of the Incorporeal,Зинген,www.rokmp.de,Germany,"Erzengel-Michael-Kapelle im Park an der Goethe-Straße, Singen",47.7670971,8.8722387
Moscow Patriarchy of the Russian Orthodox Church,Moscow Patriarchy of the Russian Orthodox Church,Moscow Patriarchy of the Russian Orthodox Church,Берлінсько-Німецька єпархія,Community of the Assumption of the Blessed Virgin Mary,Зулінген,www.rokmp.de,Germany,"Edenstrasse 57, 27232 Sulingen",52.6794,8.82217
Moscow Patriarchy of the Russian Orthodox Church,Moscow Patriarchy of the Russian Orthodox Church,Moscow Patriarchy of the Russian Orthodox Church,Адміністрація парафій МП в Італії,Parish in honor of the Saints equal-to-apostles Tsars Constantine and Elena,Імола,http://ortodossia.org/,Italy,"Piazza  della  Conciliazione, 3 – Imola",44.3535437,11.711888
Moscow Patriarchy of the Russian Orthodox Church,Moscow Patriarchy of the Russian Orthodox Church,Moscow Patriarchy of the Russian Orthodox Church,Сурозька єпархія,Diocesan community in Ipswich,Іспвіч,http://www.sourozh.org/,Great Britain,"St Mary at the Elms, Elm Street, Ipswich IP1 2AB",52.0570613,1.1499808
Moscow Patriarchy of the Russian Orthodox Church,Moscow Patriarchy of the Russian Orthodox Church,Moscow Patriarchy of the Russian Orthodox Church,Берлінсько-Німецька єпархія,Community in the city of Jena,Йєна,www.rokmp.de,Germany,"Werner-Seelenbinder-Strasse 26, 07747 Jena",50.8818619,11.6116041
Moscow Patriarchy of the Russian Orthodox Church,Moscow Patriarchy of the Russian Orthodox Church,Moscow Patriarchy of the Russian Orthodox Church,Благочиння РПЦ МП в Швеції,Archangel Michael Parish,Йонкопінг,http://sweden.cerkov.ru/,Sweden,"Ceciliakyrkan, Ebba Ramsayväg 10, Jönköping",57.80885199999999,14.1496434
Moscow Patriarchy of the Russian Orthodox Church,Moscow Patriarchy of the Russian Orthodox Church,Moscow Patriarchy of the Russian Orthodox Church,Сурозька єпархія,Parish of Saints Equal-to-the-Apostles Constantine and Helen in York,Йорк,http://www.sourozh.org/,Great Britain,"Bishophill Junior, York, YO1 6EN",53.955724,-1.0870382
Moscow Patriarchy of the Russian Orthodox Church,Moscow Patriarchy of the Russian Orthodox Church,Moscow Patriarchy of the Russian Orthodox Church,Берлінсько-Німецька єпархія,"Community of the Icon of the Mother of God ""Vladimirskaya""",Кайзерслаутерн,www.rokmp.de,Germany,Kloster Str.6 D- 67655 Kaiserslautern,49.446026,7.773187399999999
Moscow Patriarchy of the Russian Orthodox Church,Moscow Patriarchy of the Russian Orthodox Church,Moscow Patriarchy of the Russian Orthodox Church,Іспано-Португальська єпархія,Parish in honor of St. Great Martyr George and St. Martyr Anastasia,Калонже,http://orthodoxspain.com,Spain,"Avenida Andorra, 21 (C-253), Calonge",41.8474119,3.1009288
Moscow Patriarchy of the Russian Orthodox Church,Moscow Patriarchy of the Russian Orthodox Church,Moscow Patriarchy of the Russian Orthodox Church,Адміністрація парафій МП в Італії,Parish in honor of Saint Sava the Sanctified,Кальярі,http://ortodossia.org/,Italy,"via del Duomo, 23, Cagliari 09124",39.2179864,9.116547899999999
Moscow Patriarchy of the Russian Orthodox Church,Moscow Patriarchy of the Russian Orthodox Church,Moscow Patriarchy of the Russian Orthodox Church,Адміністрація парафій МП в Італії,Community in honor of Saint Anthony the Great,Канту,http://ortodossia.org/,Italy,via D’Averio 20,45.4598811,9.2005913
Moscow Patriarchy of the Russian Orthodox Church,Moscow Patriarchy of the Russian Orthodox Church,Moscow Patriarchy of the Russian Orthodox Church,Сурозька єпархія,Parish of St. Ninian of Whithorn in Carlisle,Карлайл,http://www.sourozh.org/,Great Britain,Карлайл,54.87464445664866,-2.919213302057266
Moscow Patriarchy of the Russian Orthodox Church,Moscow Patriarchy of the Russian Orthodox Church,Moscow Patriarchy of the Russian Orthodox Church,Благочиння РПЦ МП в Швеції,"Parish in honor of the icon of the Mother of God ""Ghosts of Humility""",Карлстад,http://sweden.cerkov.ru/,Sweden,Drottninggatan 38,59.3320202,18.0632463
Moscow Patriarchy of the Russian Orthodox Church,Moscow Patriarchy of the Russian Orthodox Church,Moscow Patriarchy of the Russian Orthodox Church,Сурозька єпархія,"Diocesan community of Saint Tikhon, Patriarch of Moscow and All Russia",Каслбар,http://www.sourozh.org/,Ireland,"F23 RY60, Derrycreeve, Co. Mayo",53.84749979999999,-9.4133213
Moscow Patriarchy of the Russian Orthodox Church,Moscow Patriarchy of the Russian Orthodox Church,Moscow Patriarchy of the Russian Orthodox Church,Берлінсько-Німецька єпархія,Parish of the Russian New Martyrs and Confessors,Кассель,www.rokmp.de,Germany,"Steinweg, 34117 Kassel",51.313871,9.5005532
Moscow Patriarchy of the Russian Orthodox Church,Moscow Patriarchy of the Russian Orthodox Church,Moscow Patriarchy of the Russian Orthodox Church,Адміністрація парафій МП в Італії,Parish in the name of St. John of Kronstadt,Кастровілларі,http://ortodossia.org/,Italy,Palazzo Gallo — Piazza Vittorio Emanuele II — 87012 Castrovillari (CS),39.8102849,16.2051809
Moscow Patriarchy of the Russian Orthodox Church,Moscow Patriarchy of the Russian Orthodox Church,Moscow Patriarchy of the Russian Orthodox Church,Адміністрація парафій МП в Італії,Parish in honor of the holy martyr Agafia,Катанія,http://ortodossia.org/,Italy,"Piazza Cavour 1, Catania",37.517202,15.0827298
Moscow Patriarchy of the Russian Orthodox Church,Moscow Patriarchy of the Russian Orthodox Church,Moscow Patriarchy of the Russian Orthodox Church,Берлінсько-Німецька єпархія,Parish of Saints Equal-to-the-Apostles Tsar Constantine and Queen Elena,Кельн,www.rokmp.de,Germany,"Maria-Ablaß-Platz 14, 50668 Köln",50.9431368,6.951582699999999
Moscow Patriarchy of the Russian Orthodox Church,Moscow Patriarchy of the Russian Orthodox Church,Moscow Patriarchy of the Russian Orthodox Church,Сурозька єпархія,Parish of Reverend Ephrem Sirin in Cambridge,Кембрідж,http://www.sourozh.org/,Great Britain,"Bridge Street, Cambridge, CB2 1UF",52.2091576,0.1176217
Moscow Patriarchy of the Russian Orthodox Church,Moscow Patriarchy of the Russian Orthodox Church,Moscow Patriarchy of the Russian Orthodox Church,Берлінсько-Німецька єпархія,Church of Saint Nicholas the Wonderworker,Кемптен,www.rokmp.de,Germany,"die katholischen Seelenkapelle, Fürstenstr. 7, Kempten",47.7298059,10.3086928
Moscow Patriarchy of the Russian Orthodox Church,Moscow Patriarchy of the Russian Orthodox Church,Moscow Patriarchy of the Russian Orthodox Church,Берлінсько-Німецька єпархія,"Parish of the Prophet John the Baptist, the Forerunner",Кіль,www.rokmp.de,Germany,"Manrade 2, 24105 Kiel",54.3600888,10.1132959
Moscow Patriarchy of the Russian Orthodox Church,Moscow Patriarchy of the Russian Orthodox Church,Moscow Patriarchy of the Russian Orthodox Church,Сурозька єпархія,Diocesan community in King's Lynn,Кінгс Лінн,http://www.sourozh.org/,Great Britain,"St Margaret’s Minster, St Margaret’s Place, King’s Lynn, Norfolk, PE30 5DL",52.751664,0.3956502
Moscow Patriarchy of the Russian Orthodox Church,Moscow Patriarchy of the Russian Orthodox Church,Moscow Patriarchy of the Russian Orthodox Church,Сурозька єпархія,Nativity Parish in Kingston upon Hill,Кінгстон-апон-Хілл,http://www.sourozh.org/,Great Britain,"Saint Charles Borromeo, 12 Jarratt Street, Kingston-upon-Hull, HU1 3HB",53.7468654,-0.3389426
Moscow Patriarchy of the Russian Orthodox Church,Moscow Patriarchy of the Russian Orthodox Church,Moscow Patriarchy of the Russian Orthodox Church,Корсунська єпархія,Parish in honor of the Equal-to-the-Apostles Tsars Konstantin and Elena,Кламар,https://cerkov-ru.com/,France,"France, 83 rue du Moulin-de-Pierre - 92140 Clamart",48.8099067,2.2669523
Moscow Patriarchy of the Russian Orthodox Church,Moscow Patriarchy of the Russian Orthodox Church,Moscow Patriarchy of the Russian Orthodox Church,Берлінсько-Німецька єпархія,The community of St. Equal-to-the-Apostles Princess Olga in Cleve,Клеве,www.rokmp.de,Germany,"Böllenstege 4, 47533 Kleve",51.7858378,6.1351963
Moscow Patriarchy of the Russian Orthodox Church,Moscow Patriarchy of the Russian Orthodox Church,Moscow Patriarchy of the Russian Orthodox Church,,Church of St. great martyr Panteleimon,Княжево,http://podvorie-sofia.bg/,Bulgaria,"г. София, бул. Цар Борис Трети, № 202, в двора на „Дом за възрастни хора с деменция“.",42.66380179999999,23.2554895
Moscow Patriarchy of the Russian Orthodox Church,Moscow Patriarchy of the Russian Orthodox Church,Moscow Patriarchy of the Russian Orthodox Church,Берлінсько-Німецька єпархія,Parish of the holy princes Boris and Hleb,Кобленц,www.rokmp.de,Germany,Zwickauer Str. 6 56075 Koblenz-Karthause,50.3369608,7.566062
Moscow Patriarchy of the Russian Orthodox Church,Moscow Patriarchy of the Russian Orthodox Church,Moscow Patriarchy of the Russian Orthodox Church,Берлінсько-Німецька єпархія,The community of St. Seraphim of Sarov,Кобург,www.rokmp.de,Germany,"Leopoldstr. 15, 96450 Coburg",50.2578335,10.9700924
Moscow Patriarchy of the Russian Orthodox Church,Moscow Patriarchy of the Russian Orthodox Church,Moscow Patriarchy of the Russian Orthodox Church,Адміністрація парафій МП в Італії,Community in honor of the holy apostles Peter and Paul,Комо,http://ortodossia.org/,Italy,"Via Castelnuovo 1, Como 22100",45.8023049,9.102109
Moscow Patriarchy of the Russian Orthodox Church,Moscow Patriarchy of the Russian Orthodox Church,Moscow Patriarchy of the Russian Orthodox Church,Адміністрація парафій МП в Італії,Community in the name of the Dormition of the Most Holy Theotokos,Комо,http://ortodossia.org/,Italy,"piazza San Rocco — via Regina Teodolinda, 61  — Como",45.7980402,9.086550599999999
Moscow Patriarchy of the Russian Orthodox Church,Moscow Patriarchy of the Russian Orthodox Church,Moscow Patriarchy of the Russian Orthodox Church,Берлінсько-Німецька єпархія,Parish of Saint Blessed Prokopius of Ustyuzhsky,Констанц,www.rokmp.de,Germany,"Rheingasse 20, 78462 Konstanz",47.6654126,9.177043399999999
Moscow Patriarchy of the Russian Orthodox Church,Moscow Patriarchy of the Russian Orthodox Church,Moscow Patriarchy of the Russian Orthodox Church,Сурозька єпархія,Parish of the Holy Trinity of Pentecost,Корк,http://www.sourozh.org/,Ireland,"Fr Matthew Quay, Cork",51.8954635,-8.4705585
Moscow Patriarchy of the Russian Orthodox Church,Moscow Patriarchy of the Russian Orthodox Church,Moscow Patriarchy of the Russian Orthodox Church,Брюсельсько-Бельгійська єпархія,Church of the Nativity of the Holy Mother of God,Кортрейк,https://www.archiepiskopia.be/,Belgium,"Hoog Mosscher 61-76,
Kortrijk",50.8165337,3.2574395
Moscow Patriarchy of the Russian Orthodox Church,Moscow Patriarchy of the Russian Orthodox Church,Moscow Patriarchy of the Russian Orthodox Church,Адміністрація парафій МП в Італії,Community in honor of St. great martyr and healer Panteleimon,Крема,http://ortodossia.org/,Italy,via Civerchi 6 Crema,45.3638312,9.6886335
Moscow Patriarchy of the Russian Orthodox Church,Moscow Patriarchy of the Russian Orthodox Church,Moscow Patriarchy of the Russian Orthodox Church,Берлінсько-Німецька єпархія,Church of the great martyr Barbara,Крефельд,www.rokmp.de,Germany,"Wielandstr. 11, 47799 Krefeld",51.3407183,6.5700911
Moscow Patriarchy of the Russian Orthodox Church,Moscow Patriarchy of the Russian Orthodox Church,Moscow Patriarchy of the Russian Orthodox Church,Адміністрація парафій МП в Італії,Parish in the name of the Annunciation of the Most Holy Theotokos,Кьярі,http://ortodossia.org/,Italy,"Chiari (BS) via S. Sebastiano, 5",45.5327783,9.928666999999999
Moscow Patriarchy of the Russian Orthodox Church,Moscow Patriarchy of the Russian Orthodox Church,Moscow Patriarchy of the Russian Orthodox Church,Віденсько-Австрійська єпархія,Church of Saint Archangel Michael of God,Лаа ан дер Тайя,https://austria-diocese.com/,Austria,"Ruhhofstraße 93, Laa a. d. Thaya, 2136, Austria",48.73323,16.3993706
Moscow Patriarchy of the Russian Orthodox Church,Moscow Patriarchy of the Russian Orthodox Church,Moscow Patriarchy of the Russian Orthodox Church,Берлінсько-Німецька єпархія,Community of the Holy Spirit,Лар,www.rokmp.de,Germany,Untere Hauptstraße 33 77933 Lahr/Schwarzwald,48.3656973,7.833309
Moscow Patriarchy of the Russian Orthodox Church,Moscow Patriarchy of the Russian Orthodox Church,Moscow Patriarchy of the Russian Orthodox Church,Корсунська єпархія,Hermitage in honor of the Holy Spirit,Ле-Меніль-Сен-Дені,https://cerkov-ru.com/,France,"France, avenue des Bruyères - 78320 Le Mesnil-Saint-Denis Yvelines",48.7395338,1.9368783
Moscow Patriarchy of the Russian Orthodox Church,Moscow Patriarchy of the Russian Orthodox Church,Moscow Patriarchy of the Russian Orthodox Church,Брюсельсько-Бельгійська єпархія,Parish of St. Apostle and evangelist Matthew,Левен,https://www.archiepiskopia.be/,Belgium,"Tervuursestraat, 56, Bruxelles",50.8783787,4.6876628
Moscow Patriarchy of the Russian Orthodox Church,Moscow Patriarchy of the Russian Orthodox Church,Moscow Patriarchy of the Russian Orthodox Church,Брюсельсько-Бельгійська єпархія,Church of the Exaltation of the Fair and Life-Giving Cross,Легліз,https://www.archiepiskopia.be/,Belgium,"Rue de Luxembourg 76,
B-6860 Léglise",49.8006582,5.532817
Moscow Patriarchy of the Russian Orthodox Church,Moscow Patriarchy of the Russian Orthodox Church,Moscow Patriarchy of the Russian Orthodox Church,Берлінсько-Німецька єпархія,"Temple-monument of Saint Oleksii, Metropolitan of Moscow",Лейпциг,www.rokmp.de,Germany,"Philipp-Rosenthal-Strasse 51a
04103 Leipzig",51.3241624,12.3969268
Moscow Patriarchy of the Russian Orthodox Church,Moscow Patriarchy of the Russian Orthodox Church,Moscow Patriarchy of the Russian Orthodox Church,Адміністрація парафій МП в Італії,Community in honor of Saint Nicholas the Wonderworker,Лекко,http://ortodossia.org/,Italy,"via Seminario 35, Lecco",45.8640038,9.3946322
Moscow Patriarchy of the Russian Orthodox Church,Moscow Patriarchy of the Russian Orthodox Church,Moscow Patriarchy of the Russian Orthodox Church,Адміністрація парафій МП в Італії,Parish of St. Equal-to-the-Apostles Mary Magdalene,Леньяно,http://ortodossia.org/,Italy,"via Ponzella 40, Legnano (MI)",45.58703089999999,8.896419999999999
Moscow Patriarchy of the Russian Orthodox Church,Moscow Patriarchy of the Russian Orthodox Church,Moscow Patriarchy of the Russian Orthodox Church,Берлінсько-Німецька єпархія,Parish of Hilarion of Vereisky,Лер,www.rokmp.de,Germany,"Ringstraße 40, 26789 Leer (Ostfriesland)",53.2397849,7.462548000000001
Moscow Patriarchy of the Russian Orthodox Church,Moscow Patriarchy of the Russian Orthodox Church,Moscow Patriarchy of the Russian Orthodox Church,Сурозька єпархія,Diocesan community of the Kazan Icon of the Mother of God,Леттеркенні,http://www.sourozh.org/,Ireland,"IOSAS Center, Derryvane, Muff, Co Donegal",55.0543574,-7.3285746
Moscow Patriarchy of the Russian Orthodox Church,Moscow Patriarchy of the Russian Orthodox Church,Moscow Patriarchy of the Russian Orthodox Church,Гаазька і Нідерландська єпархія,Church of John the Baptist in Leeuwarden,Леуварден,www.russian-diocese.nl,Netherlands,"De Hooidollen 17, 8918 HV Leeuwarden",53.2160048,5.7910257
Moscow Patriarchy of the Russian Orthodox Church,Moscow Patriarchy of the Russian Orthodox Church,Moscow Patriarchy of the Russian Orthodox Church,Корсунська єпархія,"Community in honor of the icon of the Mother of God ""Skoroposhlynytsia""",Лимож,https://cerkov-ru.com/,France,"France, 30 rue François Perrin 87000 Limoges Haute Vienne",45.8297548,1.247154
Moscow Patriarchy of the Russian Orthodox Church,Moscow Patriarchy of the Russian Orthodox Church,Moscow Patriarchy of the Russian Orthodox Church,Сурозька єпархія,Parish of St. Xenia of Petersburg in Leeds,Лідс,http://www.sourozh.org/,Great Britain,"Wood Lane, Chapel Allerton, Leeds, United Kingdom LS7 3QF",53.8320266,-1.5410592
Moscow Patriarchy of the Russian Orthodox Church,Moscow Patriarchy of the Russian Orthodox Church,Moscow Patriarchy of the Russian Orthodox Church,Сурозька єпархія,John the Theologian Parish,Лімерик,http://www.sourozh.org/,Ireland,"St. Michael’s Church, Denmark St., Limerick",52.6641575,-8.6248735
Moscow Patriarchy of the Russian Orthodox Church,Moscow Patriarchy of the Russian Orthodox Church,Moscow Patriarchy of the Russian Orthodox Church,Берлінсько-Німецька єпархія,Community in the city of Lingen,Лінген,www.rokmp.de,Germany,Heinrichstr.1 in Lingen,52.520267,7.3328288
Moscow Patriarchy of the Russian Orthodox Church,Moscow Patriarchy of the Russian Orthodox Church,Moscow Patriarchy of the Russian Orthodox Church,Берлінсько-Німецька єпархія,Community in the name of the holy apostle John the Theologian in the city of Lindau,Ліндау,www.rokmp.de,Germany,"Ulrichskapelle, Anheggerstr.3, Lindau, 88131",47.55504149999999,9.6914032
Moscow Patriarchy of the Russian Orthodox Church,Moscow Patriarchy of the Russian Orthodox Church,Moscow Patriarchy of the Russian Orthodox Church,Віденсько-Австрійська єпархія,Parish of St. new martyrs and Russian confessors,Лінц,https://austria-diocese.com/,Austria,"Biberweg 30, Pichling, Linz",48.2494948,14.3658988
Moscow Patriarchy of the Russian Orthodox Church,Moscow Patriarchy of the Russian Orthodox Church,Moscow Patriarchy of the Russian Orthodox Church,Корсунська єпархія,Parish in honor of the Intercession of the Mother of God in Lyon,Ліон,https://cerkov-ru.com/,France,"France, Chapelle St-Joseph des Brotteaux 146 rue Sully - LYON 6ème",45.7716219,4.8546668
Moscow Patriarchy of the Russian Orthodox Church,Moscow Patriarchy of the Russian Orthodox Church,Moscow Patriarchy of the Russian Orthodox Church,Берлінсько-Німецька єпархія,"Community in the name of Saint Tikhon, Patriarch of Moscow and All Russia",Ліппштадт,www.rokmp.de,Germany,"Beckumer Straße 118, 59555 Lippstadt",51.6786792,8.3230417
Moscow Patriarchy of the Russian Orthodox Church,Moscow Patriarchy of the Russian Orthodox Church,Moscow Patriarchy of the Russian Orthodox Church,Сурозька єпархія,Saint Nicholas Parish,Лондон,http://www.sourozh.org/,Great Britain,"69 Watling St, London EC4N 4SJ",51.5129946,-0.0933777
Moscow Patriarchy of the Russian Orthodox Church,Moscow Patriarchy of the Russian Orthodox Church,Moscow Patriarchy of the Russian Orthodox Church,Сурозька єпархія,Diocesan Cathedral of the Assumption of the Mother of God and All Saints,Лондон,http://www.sourozh.org/,Great Britain,"67 Ennismore Gardens, London  SW7 1NH",51.5004941,-0.1690805
Moscow Patriarchy of the Russian Orthodox Church,Moscow Patriarchy of the Russian Orthodox Church,Moscow Patriarchy of the Russian Orthodox Church,Брюсельсько-Бельгійська єпархія,University Orthodox Chapel,Лувен-ля-Ньов,https://www.archiepiskopia.be/,Belgium,"ruelle Saint-Eloi 2,
1348 Louvain-la-Neuve",50.6680745,4.6175228
Moscow Patriarchy of the Russian Orthodox Church,Moscow Patriarchy of the Russian Orthodox Church,Moscow Patriarchy of the Russian Orthodox Church,Благочиння РПЦ МП в Швеції,"Parish in honor of the icon of the Mother of God ""Unexpected Joy""",Лулео,http://sweden.cerkov.ru/,Sweden,"Professorsvägen 9, Luleå",65.6191499,22.1491798
Moscow Patriarchy of the Russian Orthodox Church,Moscow Patriarchy of the Russian Orthodox Church,Moscow Patriarchy of the Russian Orthodox Church,Сурозька єпархія,St Alban's Parish in Luton,Лутон,http://www.sourozh.org/,Great Britain,"Buckle Close, Luton LU3 3RT",51.9172025,-0.4519791
Moscow Patriarchy of the Russian Orthodox Church,Moscow Patriarchy of the Russian Orthodox Church,Moscow Patriarchy of the Russian Orthodox Church,Брюсельсько-Бельгійська єпархія,"Church of the Icon of the Mother of God ""Life-Bearing Spring""",Льєж,https://www.archiepiskopia.be/,Belgium,"Rue Ferrer 73,
B-4100 Seraing (Liège)",50.60921459999999,5.5087703
Moscow Patriarchy of the Russian Orthodox Church,Moscow Patriarchy of the Russian Orthodox Church,Moscow Patriarchy of the Russian Orthodox Church,Іспано-Португальська єпархія,Parish in honor of the holy martyrs Kirik and Iulitta,Льорет-де-Мар,http://orthodoxspain.com,Spain,"carrer de Pitàgores, 6, 17310, Lloret de Mar, Girona",41.7025243,2.8335723
Moscow Patriarchy of the Russian Orthodox Church,Moscow Patriarchy of the Russian Orthodox Church,Moscow Patriarchy of the Russian Orthodox Church,Берлінсько-Німецька єпархія,Community of Resurrection of Christ,Люнебург,www.rokmp.de,Germany,"Ökumenisches Gemeindezentrum St. Stephanus, St. Stephanus Platz 1, 21337 Lüneburg",53.2385759,10.4347439
Moscow Patriarchy of the Russian Orthodox Church,Moscow Patriarchy of the Russian Orthodox Church,Moscow Patriarchy of the Russian Orthodox Church,Берлінсько-Німецька єпархія,Parish of All Saints,Магдебург,www.rokmp.de,Germany,"Lienhardstraße 6, 39108 Magdeburg Deutschland",52.1356756,11.6223176
Moscow Patriarchy of the Russian Orthodox Church,Moscow Patriarchy of the Russian Orthodox Church,Moscow Patriarchy of the Russian Orthodox Church,Іспано-Португальська єпархія,Cathedral in honor of St. Equal-to-the-Apostles Mary Magdalene,Мадрид,http://orthodoxspain.com,Spain,"Gran Via de Hortaleza, 48 28043 Madrid",40.4669971,-3.6515315
Moscow Patriarchy of the Russian Orthodox Church,Moscow Patriarchy of the Russian Orthodox Church,Moscow Patriarchy of the Russian Orthodox Church,Берлінсько-Німецька єпархія,Parish of Christopher the Martyr,Майнц,www.rokmp.de,Germany,"Berliner Straße 39a, 55131 Mainz",49.97866,8.26642
Moscow Patriarchy of the Russian Orthodox Church,Moscow Patriarchy of the Russian Orthodox Church,Moscow Patriarchy of the Russian Orthodox Church,Іспано-Португальська єпархія,Parish in honor of Saint Mary of Egypt,Малага,http://orthodoxspain.com,Spain,"calle Obsidiana 6, Malaga",36.7102171,-4.456696099999999
Moscow Patriarchy of the Russian Orthodox Church,Moscow Patriarchy of the Russian Orthodox Church,Moscow Patriarchy of the Russian Orthodox Church,Німецька єпархія РПЦЗ,"Parish in honor of the Kursk Native Icon of the Mother of God ""The Sign""",Мальме,https://rocor.de/,Sweden,"Cedergatan 4,
21567 Malmå",55.5741737,13.0003051
Moscow Patriarchy of the Russian Orthodox Church,Moscow Patriarchy of the Russian Orthodox Church,Moscow Patriarchy of the Russian Orthodox Church,Сурозька єпархія,Parish of the Protection of the Holy Virgin (Pokrov),Манчестер,http://www.sourozh.org/,Great Britain,"64 Clarence Road, Longsight, Manchester M13 0YE",53.4573994,-2.2068221
Moscow Patriarchy of the Russian Orthodox Church,Moscow Patriarchy of the Russian Orthodox Church,Moscow Patriarchy of the Russian Orthodox Church,Іспано-Португальська єпархія,Parish in honor of the Ascension of the Lord,Марбелья,http://orthodoxspain.com,Spain,"calle Hermanos Alvarez Quintero, 4, 29670, San Pedro de Alcántara (Malaga)",36.4821322,-4.9898913
Moscow Patriarchy of the Russian Orthodox Church,Moscow Patriarchy of the Russian Orthodox Church,Moscow Patriarchy of the Russian Orthodox Church,Адміністрація парафій МП в Італії,Parish in honor of the Holy Archangels Michael and Gabriel,Маргера,http://ortodossia.org/,Italy,"Via della Pila 66, Marghera (VE)",45.4788958,12.2397063
Moscow Patriarchy of the Russian Orthodox Church,Moscow Patriarchy of the Russian Orthodox Church,Moscow Patriarchy of the Russian Orthodox Church,Адміністрація парафій МП в Італії,"Parish in honor of the icon of the Mother of God ""Skoroposhnytsia""",Маррубіу,http://ortodossia.org/,Italy,"via Napoli 182, Marrubbiu, Sardegna",39.7518915,8.6406356
Moscow Patriarchy of the Russian Orthodox Church,Moscow Patriarchy of the Russian Orthodox Church,Moscow Patriarchy of the Russian Orthodox Church,Корсунська єпархія,Parish in honor of the Kazan Icon of the Mother of God in Marseille,Марсель,https://cerkov-ru.com/,France,"France, 20 boulevard Madeleine Remusat - 13013 Marseille. Станция метро La Rose",43.336434,5.421974100000001
Moscow Patriarchy of the Russian Orthodox Church,Moscow Patriarchy of the Russian Orthodox Church,Moscow Patriarchy of the Russian Orthodox Church,Корсунська єпархія,Parish in honor of Archangel Gabriel,Мартініка,https://cerkov-ru.com/,France,"5, rue de la clairière 97200 Fort-de-France (Martinique)",14.6062875,-61.08115359999999
Moscow Patriarchy of the Russian Orthodox Church,Moscow Patriarchy of the Russian Orthodox Church,Moscow Patriarchy of the Russian Orthodox Church,Берлінсько-Німецька єпархія,Parish app. Peter and Paul,Менден (Зауерланд),www.rokmp.de,Germany,Bodelschwingstr. 4-6 Menden,51.4362865,7.7923862
Moscow Patriarchy of the Russian Orthodox Church,Moscow Patriarchy of the Russian Orthodox Church,Moscow Patriarchy of the Russian Orthodox Church,Берлінсько-Німецька єпархія,Parish of St. great martyr Antony the Great,Менхенгладбах,www.rokmp.de,Germany,"Am Torfbend 19, 41238 Mönchengladbach",51.1592236,6.4658299
Moscow Patriarchy of the Russian Orthodox Church,Moscow Patriarchy of the Russian Orthodox Church,Moscow Patriarchy of the Russian Orthodox Church,Адміністрація парафій МП в Італії,Parish in honor of Saint Nicholas the Wonderworker,Мерано,http://ortodossia.org/,Italy,"Via Schaffer, 21 39012 Merano (BZ)",46.6651215,11.1682047
Moscow Patriarchy of the Russian Orthodox Church,Moscow Patriarchy of the Russian Orthodox Church,Moscow Patriarchy of the Russian Orthodox Church,Брюсельсько-Бельгійська єпархія,Parish of the Holy Epiphany (Baptism of the Lord),Мехелен,https://www.archiepiskopia.be/,Belgium,"Frederik de Merodestraat 18,
B-2800 Mechelen",51.02938330000001,4.4813429
Moscow Patriarchy of the Russian Orthodox Church,Moscow Patriarchy of the Russian Orthodox Church,Moscow Patriarchy of the Russian Orthodox Church,,Church of the Holy Trinity in Miskolc,Мишкольц,http://hungary.orthodoxia.org,Hungary,3525 Miskolc Deák tér 7,48.10606019999999,20.7840733
Moscow Patriarchy of the Russian Orthodox Church,Moscow Patriarchy of the Russian Orthodox Church,Moscow Patriarchy of the Russian Orthodox Church,Адміністрація парафій МП в Італії,Parish of Saint Ambrose of Mediolan,Мілан,http://ortodossia.org/,Italy,"Largo Corsia dei Servi, 4 – 20122 – Milano",45.4646438,9.196026699999999
Moscow Patriarchy of the Russian Orthodox Church,Moscow Patriarchy of the Russian Orthodox Church,Moscow Patriarchy of the Russian Orthodox Church,Адміністрація парафій МП в Італії,"Parish in honor of Saints Sergius, Seraphim and Vincent",Мілан,http://ortodossia.org/,Italy,"via Giulini, angolo via Porlezza, Milano",45.4664054,9.1822065
Moscow Patriarchy of the Russian Orthodox Church,Moscow Patriarchy of the Russian Orthodox Church,Moscow Patriarchy of the Russian Orthodox Church,Адміністрація парафій МП в Італії,Parish in honor of All Saints,Модена,http://ortodossia.org/,Italy,"piazza Liberazione, Quartiere Modena Est, 41100, Modena",44.6409213,10.9662549
Moscow Patriarchy of the Russian Orthodox Church,Moscow Patriarchy of the Russian Orthodox Church,Moscow Patriarchy of the Russian Orthodox Church,Корсунська єпархія,"Church in honor of Ven. Seraphim of Sarovsky, Ven. Serhii and Herman Valaamsky in Montgeron",Монжерон,https://cerkov-ru.com/,France,"France, Rue du Moulin de Senlis 91230 Montgeron",48.7127322,2.4564801
Moscow Patriarchy of the Russian Orthodox Church,Moscow Patriarchy of the Russian Orthodox Church,Moscow Patriarchy of the Russian Orthodox Church,Брюсельсько-Бельгійська єпархія,Church of St. Archstrategist of God Michael,Монс,https://www.archiepiskopia.be/,Belgium,"Place des Martyrs 11 bis,
B-7000 Mons",50.44927329999999,3.9501352
Moscow Patriarchy of the Russian Orthodox Church,Moscow Patriarchy of the Russian Orthodox Church,Moscow Patriarchy of the Russian Orthodox Church,Іспано-Португальська єпархія,Parish of Reverend Iov Pochaevsky,Мурсія,http://orthodoxspain.com,Spain,"Murcia, av. Ciudad de Almeria, 91",37.9752428,-1.1410931
Moscow Patriarchy of the Russian Orthodox Church,Moscow Patriarchy of the Russian Orthodox Church,Moscow Patriarchy of the Russian Orthodox Church,Берлінсько-Німецька єпархія,Parish of the Resurrection of Christ in Munich,Мюнхен,www.rokmp.de,Germany,"Kolpinghaus, Adolf-Kolpingstr. 1, 80336 München 
or
Kreuzerhöhungskapelle, Glyzinenstr. 38, 80935 München",48.1986278,11.5514754
Moscow Patriarchy of the Russian Orthodox Church,Moscow Patriarchy of the Russian Orthodox Church,Moscow Patriarchy of the Russian Orthodox Church,Берлінсько-Німецька єпархія,The Church of the Exaltation of the Holy and Life-giving Cross of the Lord at the southern residence of the ruling bishop,Мюнхен,www.rokmp.de,Germany,"Glyzinenstraße 38, 80935 München",48.1986278,11.5514754
Moscow Patriarchy of the Russian Orthodox Church,Moscow Patriarchy of the Russian Orthodox Church,Moscow Patriarchy of the Russian Orthodox Church,Брюсельсько-Бельгійська єпархія,Parish of Saint Seraphim of Sarovsky,Намюр,https://www.archiepiskopia.be/,Belgium,"Avenue de la Vecquée 9,
B-5000 Namur",50.4483231,4.8502942
Moscow Patriarchy of the Russian Orthodox Church,Moscow Patriarchy of the Russian Orthodox Church,Moscow Patriarchy of the Russian Orthodox Church,Адміністрація парафій МП в Італії,Parish in the name of the Holy Apostle Andrew the First-Called,Неаполь,http://ortodossia.org/,Italy,"Via Leopoldo Rodino’, 20, 80138, Napoli",40.8463095,14.2579541
Moscow Patriarchy of the Russian Orthodox Church,Moscow Patriarchy of the Russian Orthodox Church,Moscow Patriarchy of the Russian Orthodox Church,Гаазька і Нідерландська єпархія,Parish of Saint Tikhon Patriarch of Moscow,Неймеген,www.russian-diocese.nl,Netherlands,"Byzantijnse kapel, Dobbelmanweg 3, 6531 KT Nijmegen",51.8301737,5.847672500000001
Moscow Patriarchy of the Russian Orthodox Church,Moscow Patriarchy of the Russian Orthodox Church,Moscow Patriarchy of the Russian Orthodox Church,,Assumption Cathedral (Hungarian Assumption Parish),Ніредьхаза,http://hungary.orthodoxia.org,Hungary,"4400 Nyíregyháza, Széchenyi u. 5",47.9524908,21.7123571
Moscow Patriarchy of the Russian Orthodox Church,Moscow Patriarchy of the Russian Orthodox Church,Moscow Patriarchy of the Russian Orthodox Church,Корсунська єпархія,St. Nicholas Church,Ніца,https://cerkov-ru.com/,France,"France, avenue Nicolas II - 06000 Nice",43.7032317,7.2537094
Moscow Patriarchy of the Russian Orthodox Church,Moscow Patriarchy of the Russian Orthodox Church,Moscow Patriarchy of the Russian Orthodox Church,Адміністрація парафій МП в Італії,Parish in honor of Saint Nicholas the Wonderworker,Новара,http://ortodossia.org/,Italy,via C. Magnani Ricotti 25 – 28100 Novara (NO),45.4444958,8.6253843
Moscow Patriarchy of the Russian Orthodox Church,Moscow Patriarchy of the Russian Orthodox Church,Moscow Patriarchy of the Russian Orthodox Church,Адміністрація парафій МП в Італії,Parish in honor of the Holy Trinity,Новелара,http://ortodossia.org/,Italy,"via Cavour, 10\1 Novellara",44.8492956,10.7317542
Moscow Patriarchy of the Russian Orthodox Church,Moscow Patriarchy of the Russian Orthodox Church,Moscow Patriarchy of the Russian Orthodox Church,Берлінсько-Німецька єпархія,Parish of St. George the Victorious,Нойруппін,www.rokmp.de,Germany,,52.91542897031757,12.799108977700834
Moscow Patriarchy of the Russian Orthodox Church,Moscow Patriarchy of the Russian Orthodox Church,Moscow Patriarchy of the Russian Orthodox Church,Берлінсько-Німецька єпархія,Parish of the Holy Archangels,Нойс,www.rokmp.de,Germany,"Alexianerplatz 1, 41464 Neuss",51.1898406,6.703245
Moscow Patriarchy of the Russian Orthodox Church,Moscow Patriarchy of the Russian Orthodox Church,Moscow Patriarchy of the Russian Orthodox Church,Сурозька єпархія,Parish St. Aidan and St. Chad,Ноттінгем,http://www.sourozh.org/,Great Britain,"Carlton Road, Carlton, Nottingham NG4 1EE",52.9638334,-1.1174087
Moscow Patriarchy of the Russian Orthodox Church,Moscow Patriarchy of the Russian Orthodox Church,Moscow Patriarchy of the Russian Orthodox Church,Сурозька єпархія,Parish of St George the Victorious in Newcastle upon Tyne,Ньюкасл-апон-Тайн,http://www.sourozh.org/,Great Britain,"Jesmond Road, Newcastleupon Tyne, NE2 1NL",54.9844632,-1.599233
Moscow Patriarchy of the Russian Orthodox Church,Moscow Patriarchy of the Russian Orthodox Church,Moscow Patriarchy of the Russian Orthodox Church,Сурозька єпархія,Diocesan community in Newry,Ньюрі,http://www.sourozh.org/,Great Britain,"Hall for All, 33 Downshire Rd, Newry, BT34 1EE",54.1817285,-6.3322229
Moscow Patriarchy of the Russian Orthodox Church,Moscow Patriarchy of the Russian Orthodox Church,Moscow Patriarchy of the Russian Orthodox Church,Берлінсько-Німецька єпархія,Parish of St. Blessed Ksenia of St. Petersburg,Нюрнберг,www.rokmp.de,Germany,"90478 Nürnberg, Glockenhofstraße 30",49.4440992,11.091069
Moscow Patriarchy of the Russian Orthodox Church,Moscow Patriarchy of the Russian Orthodox Church,Moscow Patriarchy of the Russian Orthodox Church,Сурозька єпархія,Parish of St. Nicholas the Wonderworker in Oxford,Оксфорд,http://www.sourozh.org/,Great Britain,"34 Ferry Rd, Marston, Oxford  OX3 0EU",51.7600807,-1.2378129
Moscow Patriarchy of the Russian Orthodox Church,Moscow Patriarchy of the Russian Orthodox Church,Moscow Patriarchy of the Russian Orthodox Church,Берлінсько-Німецька єпархія,Parish of the Great Martyr George the Victorious,Оснабрюк,www.rokmp.de,Germany,"Wersenerstr. 85, 49090 Osnabrück",52.2961141,7.999493299999999
Moscow Patriarchy of the Russian Orthodox Church,Moscow Patriarchy of the Russian Orthodox Church,Moscow Patriarchy of the Russian Orthodox Church,Брюсельсько-Бельгійська єпархія,Parish of St. Apostle John the Theologian,Остенде,https://www.archiepiskopia.be/,Belgium,"Sint-Catharinaplein 23
8400 - Oostende",51.2164528,2.9050547
Moscow Patriarchy of the Russian Orthodox Church,Moscow Patriarchy of the Russian Orthodox Church,Moscow Patriarchy of the Russian Orthodox Church,Адміністрація парафій МП в Італії,Parish in honor of the Three Saints,П'яченца,http://ortodossia.org/,Italy,"Chiesa San Eustachio, via del Consiglio 9, Piacenza",45.0519452,9.6996754
Moscow Patriarchy of the Russian Orthodox Church,Moscow Patriarchy of the Russian Orthodox Church,Moscow Patriarchy of the Russian Orthodox Church,Берлінсько-Німецька єпархія,"Parish in honor of the icon of the Mother of God ""Fedorovska""",Падерборн,www.rokmp.de,Germany,Maximilian-Kolbe-Straße 2 33175 Bad Lippspringe,51.79027139999999,8.8274097
Moscow Patriarchy of the Russian Orthodox Church,Moscow Patriarchy of the Russian Orthodox Church,Moscow Patriarchy of the Russian Orthodox Church,Адміністрація парафій МП в Італії,Parish in honor of the Nativity of the Most Holy Theotokos,Падуя,http://ortodossia.org/,Italy,"via SS.Fabiano e Sebastiano, 134 Padova",45.393322,11.8401778
Moscow Patriarchy of the Russian Orthodox Church,Moscow Patriarchy of the Russian Orthodox Church,Moscow Patriarchy of the Russian Orthodox Church,Адміністрація парафій МП в Італії,Parish of St. Oleksandr Komanskyi,Палермо,http://ortodossia.org/,Italy,"via Sant’Alessandro, 3 Palermo",38.1212458,13.3653271
Moscow Patriarchy of the Russian Orthodox Church,Moscow Patriarchy of the Russian Orthodox Church,Moscow Patriarchy of the Russian Orthodox Church,Іспано-Португальська єпархія,Church of the Nativity of Christ,Пальма-де-Майорка,http://orthodoxspain.com,Spain,"Porta Pintada 9, Calle Sant Miquel esquina Calle Omos, 07001 Palma de Mallorca",39.5719813,2.6518994
Moscow Patriarchy of the Russian Orthodox Church,Moscow Patriarchy of the Russian Orthodox Church,Moscow Patriarchy of the Russian Orthodox Church,Корсунська єпархія,Cathedral in honor of the Holy Trinity,Париж,https://cerkov-ru.com/,France,"France, 1 quai Branly 75007 Paris",48.86097849999999,2.3006359
Moscow Patriarchy of the Russian Orthodox Church,Moscow Patriarchy of the Russian Orthodox Church,Moscow Patriarchy of the Russian Orthodox Church,Корсунська єпархія,Cathedral in honor of the Three Saints,Париж,https://cerkov-ru.com/,France,"France, 5 rue Petel",48.8410703,2.2994075
Moscow Patriarchy of the Russian Orthodox Church,Moscow Patriarchy of the Russian Orthodox Church,Moscow Patriarchy of the Russian Orthodox Church,Корсунська єпархія,Church in honor of the Nativity of the Most Holy Theotokos,Париж,https://cerkov-ru.com/,France,"France, 4 rue Sainte-Geneviève",48.9025712,2.2796378
Moscow Patriarchy of the Russian Orthodox Church,Moscow Patriarchy of the Russian Orthodox Church,Moscow Patriarchy of the Russian Orthodox Church,Корсунська єпархія,"Parish in honor of the icon of the Mother of God ""Joy of all who mourn"" and St. Genevieve of Paris",Париж,https://cerkov-ru.com/,France,"France, 4 rue S. Victor - 75005 Paris",48.8434912,2.3518339
Moscow Patriarchy of the Russian Orthodox Church,Moscow Patriarchy of the Russian Orthodox Church,Moscow Patriarchy of the Russian Orthodox Church,Корсунська єпархія,Community in honor of Equal-to-the-Apostles Tsaritsa Helena in Paris,Париж,https://cerkov-ru.com/,France,"France, Communauté ortohodoxe 92 rue Saint Denis 75001 Paris",48.8626899,2.3499577
Moscow Patriarchy of the Russian Orthodox Church,Moscow Patriarchy of the Russian Orthodox Church,Moscow Patriarchy of the Russian Orthodox Church,Корсунська єпархія,"Chapel in honor of Saint Nicholas the Wonderworker at the ""Russian House""",Париж,https://cerkov-ru.com/,France,"France, Maison russe - rue de la Cossonnerie",48.8674347,2.285733
Moscow Patriarchy of the Russian Orthodox Church,Moscow Patriarchy of the Russian Orthodox Church,Moscow Patriarchy of the Russian Orthodox Church,Берлінсько-Німецька єпархія,"Parish of the Icon of the Mother of God ""Unexpected Joy""",Пассау,www.rokmp.de,Germany,"Dom St. Stephan, Domplatz, 94032 Passau",48.5741597,13.4656793
Moscow Patriarchy of the Russian Orthodox Church,Moscow Patriarchy of the Russian Orthodox Church,Moscow Patriarchy of the Russian Orthodox Church,Адміністрація парафій МП в Італії,Parish in honor of the Holy Trinity,Пезаро,http://ortodossia.org/,Italy,"chiesa san Giovanni Battista, via Paseri 98 Pesaro",43.9094238,12.9065861
Moscow Patriarchy of the Russian Orthodox Church,Moscow Patriarchy of the Russian Orthodox Church,Moscow Patriarchy of the Russian Orthodox Church,Брюсельсько-Бельгійська єпархія,"Monastery of the Icon of the Mother of God ""Joy of All the Sorrowful""",Первейзе,https://www.archiepiskopia.be/,Belgium,"Roesdammestraat 1,
B-8600 Pervijze (Diksmuide)",51.06633309999999,2.733803
Moscow Patriarchy of the Russian Orthodox Church,Moscow Patriarchy of the Russian Orthodox Church,Moscow Patriarchy of the Russian Orthodox Church,Корсунська єпархія,Community for the Nativity of John the Baptist in Perpignan,Перпіньян,https://cerkov-ru.com/,France,"France, 11 rue Claude Monet - Perpignan",42.72009990000001,2.8932391
Moscow Patriarchy of the Russian Orthodox Church,Moscow Patriarchy of the Russian Orthodox Church,Moscow Patriarchy of the Russian Orthodox Church,Адміністрація парафій МП в Італії,Parish in honor of the Nativity of the Most Holy Theotokos,Перуджа,http://ortodossia.org/,Italy,"via Monteripido 2, 06125 Perugia,
presso la chiesa di San Matteo degli Armeni",43.1200365,12.3835508
Moscow Patriarchy of the Russian Orthodox Church,Moscow Patriarchy of the Russian Orthodox Church,Moscow Patriarchy of the Russian Orthodox Church,Адміністрація парафій МП в Італії,Parish in honor of the Nativity of the Most Holy Theotokos,Пескара,http://ortodossia.org/,Italy,"Моntesilvano,  via Vestino 9",42.51539289999999,14.1492599
Moscow Patriarchy of the Russian Orthodox Church,Moscow Patriarchy of the Russian Orthodox Church,Moscow Patriarchy of the Russian Orthodox Church,Адміністрація парафій МП в Італії,Parish in honor of Saint Spyridon of Trimifuntsky,Піза,http://ortodossia.org/,Italy,"Piazza San Matteo in Soarta, 1",43.7145118,10.4073446
Moscow Patriarchy of the Russian Orthodox Church,Moscow Patriarchy of the Russian Orthodox Church,Moscow Patriarchy of the Russian Orthodox Church,Адміністрація парафій МП в Італії,Parish in honor of the Nativity of the Most Holy Theotokos,Пістоя,http://ortodossia.org/,Italy,"Via di Ripalta, 251100 Pistoia",43.9366376,10.9135151
Moscow Patriarchy of the Russian Orthodox Church,Moscow Patriarchy of the Russian Orthodox Church,Moscow Patriarchy of the Russian Orthodox Church,Сурозька єпархія,Parish of St. Olga in Peterborough,Пітерборо,http://www.sourozh.org/,Great Britain,"All Saints Road, Peterborough, PE1 2UJ",52.5850055,-0.2401316
Moscow Patriarchy of the Russian Orthodox Church,Moscow Patriarchy of the Russian Orthodox Church,Moscow Patriarchy of the Russian Orthodox Church,Сурозька єпархія,Parish of Saints Peter and Paul in Portsmouth,Портсмут,http://www.sourozh.org/,Great Britain,"St. Colman Ave, Cosham, Portsmouth, PO6 2JJ ",50.8472581,-1.0622468
Moscow Patriarchy of the Russian Orthodox Church,Moscow Patriarchy of the Russian Orthodox Church,Moscow Patriarchy of the Russian Orthodox Church,Берлінсько-Німецька єпархія,Church of the Holy Prince Alexander Nevsky,Потсдам,www.rokmp.de,Germany,"Russische Kolonie 14
14469 Potsdam",52.415263,13.0576635
Moscow Patriarchy of the Russian Orthodox Church,Moscow Patriarchy of the Russian Orthodox Church,Moscow Patriarchy of the Russian Orthodox Church,Берлінсько-Німецька єпархія,Epiphany Parish,Пфорцхайм,www.rokmp.de,Germany,"Marienburgerstr. 16, Pforzheim",48.8832467,8.7338019
Moscow Patriarchy of the Russian Orthodox Church,Moscow Patriarchy of the Russian Orthodox Church,Moscow Patriarchy of the Russian Orthodox Church,Корсунська єпархія,Parish in honor of the Savior of the Immaculate Conception,Пюїмуаян,https://cerkov-ru.com/,France,"France, Puyloubard Beaussac - 24340 Mareuil",45.49851,0.466627
Moscow Patriarchy of the Russian Orthodox Church,Moscow Patriarchy of the Russian Orthodox Church,Moscow Patriarchy of the Russian Orthodox Church,Адміністрація парафій МП в Італії,Parish in honor of the Intercession of the Holy Mother of God,Равенна,http://ortodossia.org/,Italy,via Candiano 33 angolo piazza d’Armi – Ravenna,44.4166657,12.209912
Moscow Patriarchy of the Russian Orthodox Church,Moscow Patriarchy of the Russian Orthodox Church,Moscow Patriarchy of the Russian Orthodox Church,Адміністрація парафій МП в Італії,Parish in honor of St. Blessed Ksenia of St. Petersburg,Реджіо-Емілія,http://ortodossia.org/,Italy,Via Gonzaga 59/A,44.72483369450853,10.619769682226215
Moscow Patriarchy of the Russian Orthodox Church,Moscow Patriarchy of the Russian Orthodox Church,Moscow Patriarchy of the Russian Orthodox Church,Адміністрація парафій МП в Італії,Church of the Holy Great Martyr Catherine,Рим,http://ortodossia.org/,Italy,"via del Lago Terrione 77/79, 00165 Roma",41.8950927,12.4540632
Moscow Patriarchy of the Russian Orthodox Church,Moscow Patriarchy of the Russian Orthodox Church,Moscow Patriarchy of the Russian Orthodox Church,Адміністрація парафій МП в Італії,Church of Saint and Miracle Worker Nicholas,Рим,http://ortodossia.org/,Italy,"via Palestro 69/71, 00185 Roma",41.9040375,12.50521
Moscow Patriarchy of the Russian Orthodox Church,Moscow Patriarchy of the Russian Orthodox Church,Moscow Patriarchy of the Russian Orthodox Church,Адміністрація парафій МП в Італії,Parish in the name of the holy Archangels Michael and Gabriel,Роверето,http://ortodossia.org/,Italy,"Via R. Zotti, 17 Rovereto (TN) 38068",45.8861237,11.0225277
Moscow Patriarchy of the Russian Orthodox Church,Moscow Patriarchy of the Russian Orthodox Church,Moscow Patriarchy of the Russian Orthodox Church,Сурозька єпархія,Parish of St. Andrew the First-Called in Romford,Ромфорд,http://www.sourozh.org/,Great Britain,"5 Park End Rd, Romford RM1 4AT",51.5809951,0.1823839
Moscow Patriarchy of the Russian Orthodox Church,Moscow Patriarchy of the Russian Orthodox Church,Moscow Patriarchy of the Russian Orthodox Church,Берлінсько-Німецька єпархія,Parish of St. Blessed Ksenia of St. Petersburg,Росток,www.rokmp.de,Germany,"Thünenstr. 9, Rostock 18057",54.08382690000001,12.1079048
Moscow Patriarchy of the Russian Orthodox Church,Moscow Patriarchy of the Russian Orthodox Church,Moscow Patriarchy of the Russian Orthodox Church,Гаазька і Нідерландська єпархія,Parish of the Holy Grand Duke Alexander Nevsky,Роттердам,www.russian-diocese.nl,Netherlands,"Schiedamsesingel, 220, 3012 BA Rotterdam",51.912422,4.479233700000001
Moscow Patriarchy of the Russian Orthodox Church,Moscow Patriarchy of the Russian Orthodox Church,Moscow Patriarchy of the Russian Orthodox Church,Берлінсько-Німецька єпархія,Parish of the Great Martyr and Healer Panteleimon,Саарбрюккен,www.rokmp.de,Germany,"die katholische St.Michael-Kirche. Schumannstr 25, 66111 Saarbrücken",49.23831670000001,7.00232
Moscow Patriarchy of the Russian Orthodox Church,Moscow Patriarchy of the Russian Orthodox Church,Moscow Patriarchy of the Russian Orthodox Church,Іспано-Португальська єпархія,Parish in honor of the pious Prince Alexander Nevsky,Сарагоса,http://orthodoxspain.com,Spain,"España, Comunidad Autónoma de Aragón, Zaragoza, Calle Ricardo del Arco, 29",41.6598939,-0.8781460999999999
Moscow Patriarchy of the Russian Orthodox Church,Moscow Patriarchy of the Russian Orthodox Church,Moscow Patriarchy of the Russian Orthodox Church,Сурозька єпархія,Diocesan community of St. Cedd,Саутгейт,http://www.sourozh.org/,Great Britain,"Southgate Methodist Church, 45 The Bourne, Southgate, N14 6RS",51.6317706,-0.1240045
Moscow Patriarchy of the Russian Orthodox Church,Moscow Patriarchy of the Russian Orthodox Church,Moscow Patriarchy of the Russian Orthodox Church,Сурозька єпархія,Parish of St. Silouan of Athos in Southampton,Саутгемптон,http://www.sourozh.org/,Great Britain,"Millbrook Road, Southampton, SO15 0JZ",50.9141973,-1.4493164
Moscow Patriarchy of the Russian Orthodox Church,Moscow Patriarchy of the Russian Orthodox Church,Moscow Patriarchy of the Russian Orthodox Church,Іспано-Португальська єпархія,Parish in honor of Saint Nicholas the Wonderworker,Севілья,http://orthodoxspain.com,Spain,"calle Madre María Teresa 60, Sevilla",37.3831459,-5.961786399999999
Moscow Patriarchy of the Russian Orthodox Church,Moscow Patriarchy of the Russian Orthodox Church,Moscow Patriarchy of the Russian Orthodox Church,,Church of St. George the Victorious in Szeged,Сегеда,http://hungary.orthodoxia.org,Hungary,6720 Szeged Kazinczy u. 7,46.2563046,20.1532943
Moscow Patriarchy of the Russian Orthodox Church,Moscow Patriarchy of the Russian Orthodox Church,Moscow Patriarchy of the Russian Orthodox Church,Сурозька єпархія,Diocesan community of St. Atracta,Слайго,http://www.sourozh.org/,Ireland,"St. Bernadettes Chapel, JF Kennedy parade, Sligo. Co. Sligo",54.2714377,-8.4696143
Moscow Patriarchy of the Russian Orthodox Church,Moscow Patriarchy of the Russian Orthodox Church,Moscow Patriarchy of the Russian Orthodox Church,,"Courtyard of the Russian Orthodox Church, Church of Saint Nicholas the Wonderworker",Софія,http://podvorie-sofia.bg/,Bulgaria,"г. София, 1000, бул. “Царь Освободитель”, № 3.",42.69566349999999,23.3289254
Moscow Patriarchy of the Russian Orthodox Church,Moscow Patriarchy of the Russian Orthodox Church,Moscow Patriarchy of the Russian Orthodox Church,Адміністрація парафій МП в Італії,"Community in honor of the Cathedral of the holy, glorious and all-laudatory 12 Apostles of Christ",Спеція,http://ortodossia.org/,Italy,"via Giovani Bosco, 8-12. Cappella San Domenico Savio",44.1130347,9.8424207
Moscow Patriarchy of the Russian Orthodox Church,Moscow Patriarchy of the Russian Orthodox Church,Moscow Patriarchy of the Russian Orthodox Church,Благочиння РПЦ МП в Швеції,Sergievsky Parish in Stockholm,Стокгольм,http://sweden.cerkov.ru/,Sweden,"Alvastravägen 8, Hägersten  (t-bana Aspudden)",59.30979310000001,18.0067313
Moscow Patriarchy of the Russian Orthodox Church,Moscow Patriarchy of the Russian Orthodox Church,Moscow Patriarchy of the Russian Orthodox Church,Великобританська і Західно-Європейська єпархія РПЦЗ,Parish of St. Colman of Ogavalsky,Страдбалі,https://orthodox-europe.org,Ireland,"St Colman’s Orthodox Church
The Abbeyleix Road
1km from Stradbally, Co. Laois",52.9152801,-7.347892300000001
Moscow Patriarchy of the Russian Orthodox Church,Moscow Patriarchy of the Russian Orthodox Church,Moscow Patriarchy of the Russian Orthodox Church,Корсунська єпархія,Parish in honor of Saint Gregory Palamas and Martyr Attalia in Strasbourg,Страсбург,https://cerkov-ru.com/,France,"France, 6 rue du Coq - 67000 Strasbourg",48.5819797,7.740941299999999
Moscow Patriarchy of the Russian Orthodox Church,Moscow Patriarchy of the Russian Orthodox Church,Moscow Patriarchy of the Russian Orthodox Church,Сурозька єпархія,Parish of Saints Peter and Paul in Swindon,Суїндон,http://www.sourozh.org/,Great Britain,"The Rainbow Bookshop, Edgeware Road, Swindon  SN1 1QS ",51.5607125,-1.7834495
Moscow Patriarchy of the Russian Orthodox Church,Moscow Patriarchy of the Russian Orthodox Church,Moscow Patriarchy of the Russian Orthodox Church,Сурозька єпархія,"Diocesan community in Tunbridge Wells, Kent",Танбрідж-Уеллс-Кент,http://www.sourozh.org/,Great Britain,"St Luke’s Church, St Luke’s Road, Tunbridge Wells, TN4 9JH",51.14486340000001,0.2688776
Moscow Patriarchy of the Russian Orthodox Church,Moscow Patriarchy of the Russian Orthodox Church,Moscow Patriarchy of the Russian Orthodox Church,Адміністрація парафій МП в Італії,"Parish in honor of Saints Cosmas and Damian, Silverless Saints",Таранто,http://ortodossia.org/,Italy,"Via Minniti 4, Taranto",40.4678996,17.2507443
Moscow Patriarchy of the Russian Orthodox Church,Moscow Patriarchy of the Russian Orthodox Church,Moscow Patriarchy of the Russian Orthodox Church,Іспано-Португальська єпархія,"Church in honor of the icon of the Mother of God ""Skoroposhlynytsia""",Таррагона,http://orthodoxspain.com,Spain,"Raval de la Mar (antigua carretera de La Pineda), sin número, Vila-seca, Tarragona",41.1059437,1.1535085
Moscow Patriarchy of the Russian Orthodox Church,Moscow Patriarchy of the Russian Orthodox Church,Moscow Patriarchy of the Russian Orthodox Church,Іспано-Португальська єпархія,Parish in honor of the Ascension of the Lord,Тенеріфе,http://orthodoxspain.com,Spain,"г. Callao Salvaje, ул. Avenida del Jable,1, Испания. о. Тенерифе, Канарские острова",28.1316268,-16.7772619
Moscow Patriarchy of the Russian Orthodox Church,Moscow Patriarchy of the Russian Orthodox Church,Moscow Patriarchy of the Russian Orthodox Church,,Church of St. Nicholas in Tokai,Токай,http://hungary.orthodoxia.org,Hungary,"3910 Tokaj, Bethlen Gábor u. 15",48.12727,21.408146
Moscow Patriarchy of the Russian Orthodox Church,Moscow Patriarchy of the Russian Orthodox Church,Moscow Patriarchy of the Russian Orthodox Church,Іспано-Португальська єпархія,Church of the Nativity of the Holy Mother of God,Торревьєха,http://orthodoxspain.com,Spain,"03183 Torrevieja Urbanización Calas Blancas, calle Bruselas 4",37.9846095,-0.6674564
Moscow Patriarchy of the Russian Orthodox Church,Moscow Patriarchy of the Russian Orthodox Church,Moscow Patriarchy of the Russian Orthodox Church,Сурозька єпархія,Parish of Saints Anthony and Elijah in Totnes,Тотнес,http://www.sourozh.org/,Great Britain,"5 Priory Drive, Totnes, Devon, TQ9 5HU",50.4332439,-3.6868465
Moscow Patriarchy of the Russian Orthodox Church,Moscow Patriarchy of the Russian Orthodox Church,Moscow Patriarchy of the Russian Orthodox Church,Адміністрація парафій МП в Італії,Parish in honor of Saint Nicholas the Wonderworker,Тревізо,http://ortodossia.org/,Italy,"Chiesa Sant’Agostino, Via S. Agostino 36, 31100 Treviso (TV)",45.66724689999999,12.2497931
Moscow Patriarchy of the Russian Orthodox Church,Moscow Patriarchy of the Russian Orthodox Church,Moscow Patriarchy of the Russian Orthodox Church,Брюсельсько-Бельгійська єпархія,Monastery of the Iver icon of the Mother of God,Трезін'ї,https://www.archiepiskopia.be/,Belgium,"Rue du Caillou 3,
B-6183 Trazegnies",50.4623183,4.3331785
Moscow Patriarchy of the Russian Orthodox Church,Moscow Patriarchy of the Russian Orthodox Church,Moscow Patriarchy of the Russian Orthodox Church,Адміністрація парафій МП в Італії,Parish in the name of Saint Blessed Ksenia of St. Petersburg,Тренто,http://ortodossia.org/,Italy,"Via R. Zotti 17, 38068  Rovereto (TN)",45.8861237,11.0225277
Moscow Patriarchy of the Russian Orthodox Church,Moscow Patriarchy of the Russian Orthodox Church,Moscow Patriarchy of the Russian Orthodox Church,Берлінсько-Німецька єпархія,Parish in the name of the forty Martyrs of Sebastien,Трір,www.rokmp.de,Germany,"Autobahnkirche St. Paul, Arnold-Janssen-Straße 1, 54516 Wittlich",49.977747,6.9268413
Moscow Patriarchy of the Russian Orthodox Church,Moscow Patriarchy of the Russian Orthodox Church,Moscow Patriarchy of the Russian Orthodox Church,Сурозька єпархія,St. Cuthbert's Parish in Truro,Труро,http://www.sourozh.org/,Great Britain,"23 The Coombe, Newlyn, Penzance TR18 5HR",50.1070609,-5.5515662
Moscow Patriarchy of the Russian Orthodox Church,Moscow Patriarchy of the Russian Orthodox Church,Moscow Patriarchy of the Russian Orthodox Church,Корсунська єпархія,"Community in honor of the icon of the Mother of God ""Vladimirskaya""",Тулуза,https://cerkov-ru.com/,France,"Тулуза, 108 Avenue de Lavaur",43.6219218,1.464504
Moscow Patriarchy of the Russian Orthodox Church,Moscow Patriarchy of the Russian Orthodox Church,Moscow Patriarchy of the Russian Orthodox Church,Адміністрація парафій МП в Італії,"Parish in the name of Saint Maximus, Bishop of Turin",Турін,http://ortodossia.org/,Italy,Strada Val San Martino 7 — 10131 Torino,45.0552792,7.723143100000001
Moscow Patriarchy of the Russian Orthodox Church,Moscow Patriarchy of the Russian Orthodox Church,Moscow Patriarchy of the Russian Orthodox Church,Адміністрація парафій МП в Італії,Parish in honor of the Resurrection of Christ,Турін,http://ortodossia.org/,Italy,Via Monfalcone 20 — 10136 Torino,45.0489522,7.6469683
Moscow Patriarchy of the Russian Orthodox Church,Moscow Patriarchy of the Russian Orthodox Church,Moscow Patriarchy of the Russian Orthodox Church,Брюсельсько-Бельгійська єпархія,Chapel of the Annunciation of the Holy Mother of God,Турне,https://www.archiepiskopia.be/,Belgium,"Rue Albert 33,
B-7540 Kain",50.6251796,3.3903474
Moscow Patriarchy of the Russian Orthodox Church,Moscow Patriarchy of the Russian Orthodox Church,Moscow Patriarchy of the Russian Orthodox Church,Берлінсько-Німецька єпархія,Parish of Saint Reverend Mary of Egypt,Тюбинген,www.rokmp.de,Germany,Österbergstr.2 72074 Tübingen (Eingang Schlatterhaus),48.5207317,9.058339799999999
Moscow Patriarchy of the Russian Orthodox Church,Moscow Patriarchy of the Russian Orthodox Church,Moscow Patriarchy of the Russian Orthodox Church,Адміністрація парафій МП в Італії,Parish in honor of the Exaltation of the Holy Cross,Удіне,http://ortodossia.org/,Italy,"Chiesa ortodossa, Via Pozzuolo, 330 Udine, 33100",46.03423189999999,13.2222766
Moscow Patriarchy of the Russian Orthodox Church,Moscow Patriarchy of the Russian Orthodox Church,Moscow Patriarchy of the Russian Orthodox Church,Сурозька єпархія,Parish of St Edward the King and Martyr in Wimborne,Уїмборн,http://www.sourozh.org/,Great Britain,"Church St., Shapwick, Dorset, DT11 9LA",50.8145884,-2.0898159
Moscow Patriarchy of the Russian Orthodox Church,Moscow Patriarchy of the Russian Orthodox Church,Moscow Patriarchy of the Russian Orthodox Church,Берлінсько-Німецька єпархія,"Church of the icon of the Mother of God ""Sign"" of Kursk-Korinna",Ульм,www.rokmp.de,Germany,"Münsterplatz 21
89073 Ulm",48.3991864,9.9932614
Moscow Patriarchy of the Russian Orthodox Church,Moscow Patriarchy of the Russian Orthodox Church,Moscow Patriarchy of the Russian Orthodox Church,Берлінсько-Німецька єпархія,Chapel of St. Valentine and Pasikrates,Ульм,www.rokmp.de,Germany,"Judenhof 9,
D-89073 Ulm",48.3982134,9.995157899999999
Moscow Patriarchy of the Russian Orthodox Church,Moscow Patriarchy of the Russian Orthodox Church,Moscow Patriarchy of the Russian Orthodox Church,Благочиння РПЦ МП в Швеції,Parish of Saints Peter and Paul,Умео,http://sweden.cerkov.ru/,Sweden,Olle Fiskarens väg 10,63.815684,20.3447297
Moscow Patriarchy of the Russian Orthodox Church,Moscow Patriarchy of the Russian Orthodox Church,Moscow Patriarchy of the Russian Orthodox Church,Благочиння РПЦ МП в Швеції,Parish in honor of Saint Nicholas the Wonderworker,Уппсала,http://sweden.cerkov.ru/,Sweden,"Sankta Maria kyrka, Stenhagsvägen 201, 752 60 Uppsala",59.8532287,17.5639442
Moscow Patriarchy of the Russian Orthodox Church,Moscow Patriarchy of the Russian Orthodox Church,Moscow Patriarchy of the Russian Orthodox Church,Адміністрація парафій МП в Італії,Parish in honor of the Holy Apostles Peter and Paul,Фаєнца,http://ortodossia.org/,Italy,"Corso Giuseppe Mazzini 150, Faenza",44.2897185,11.8733337
Moscow Patriarchy of the Russian Orthodox Church,Moscow Patriarchy of the Russian Orthodox Church,Moscow Patriarchy of the Russian Orthodox Church,Адміністрація парафій МП в Італії,Parish in honor of the Intercession of the Holy Mother of God,Феррара,http://ortodossia.org/,Italy,"Via Dell’Isola Bianca 3, Pontelagoscuro, Ferrara",44.8834851,11.6095336
Moscow Patriarchy of the Russian Orthodox Church,Moscow Patriarchy of the Russian Orthodox Church,Moscow Patriarchy of the Russian Orthodox Church,Адміністрація парафій МП в Італії,Parish in honor of the Kazan icon of the Mother of God,Феррара,http://ortodossia.org/,Italy,"Piazzetta Giovanni Tossignano, 2-4, 44121 Ferrara FE. Chiesa San Girolamo",44.8323972,11.6268196
Moscow Patriarchy of the Russian Orthodox Church,Moscow Patriarchy of the Russian Orthodox Church,Moscow Patriarchy of the Russian Orthodox Church,Адміністрація парафій МП в Італії,Parish in honor of the Holy Trinity,Фіденца,http://ortodossia.org/,Italy,Via A. Zani 53/a,44.4449054,12.2587083
Moscow Patriarchy of the Russian Orthodox Church,Moscow Patriarchy of the Russian Orthodox Church,Moscow Patriarchy of the Russian Orthodox Church,Великобританська і Західно-Європейська єпархія РПЦЗ,Parish of Nativity of Christ and St. Nicholas the Wonderworker,Флоренція,https://orthodox-europe.org,Italy,"Via Leone X, 8
50129 Firenze FI, Italy",43.7836141,11.2546783
Moscow Patriarchy of the Russian Orthodox Church,Moscow Patriarchy of the Russian Orthodox Church,Moscow Patriarchy of the Russian Orthodox Church,Адміністрація парафій МП в Італії,"Community in honor of the Nativity of the Prophet, Forerunner and Baptist of the Lord John",Форте-деї-Мармі,http://ortodossia.org/,Italy,"Ripa- Pozzi-Ponterosso, Piazza 25 Aprile",43.986703,10.2254934
Moscow Patriarchy of the Russian Orthodox Church,Moscow Patriarchy of the Russian Orthodox Church,Moscow Patriarchy of the Russian Orthodox Church,Берлінсько-Німецька єпархія,Parish of St. Nicholas the Wonderworker,Фрайбург-у-Брайсгау,www.rokmp.de,Germany,"Аuwaldstr. 94a, 79110 Freiburg",48.02118600000001,7.8115101
Moscow Patriarchy of the Russian Orthodox Church,Moscow Patriarchy of the Russian Orthodox Church,Moscow Patriarchy of the Russian Orthodox Church,Адміністрація парафій МП в Італії,Parish in honor of the Intercession of the Holy Mother of God,Франкавілла Фонтану,http://ortodossia.org/,Italy,"Via Vittorio Veneto 55, Francavilla Fontana",40.5307614,17.5879785
Moscow Patriarchy of the Russian Orthodox Church,Moscow Patriarchy of the Russian Orthodox Church,Moscow Patriarchy of the Russian Orthodox Church,Берлінсько-Німецька єпархія,Parish of Holy Martyr Cyprian and Martyr Justina,Франкфурт-на-Майні,www.rokmp.de,Germany,"Friedrich-Ebert-Anlage 33, 60327 Frankfurt/Main",50.1102942,8.6575823
Moscow Patriarchy of the Russian Orthodox Church,Moscow Patriarchy of the Russian Orthodox Church,Moscow Patriarchy of the Russian Orthodox Church,Берлінсько-Німецька єпархія,Parish of Christ the Savior,Франкфурт-на-Одері,www.rokmp.de,Germany,"Bahnhofstraße 3, 15295 Brieskow-Finkenheerd",52.2531056,14.5686648
Moscow Patriarchy of the Russian Orthodox Church,Moscow Patriarchy of the Russian Orthodox Church,Moscow Patriarchy of the Russian Orthodox Church,Берлінсько-Німецька єпархія,Community in Friedrichshafen,Фридріхсхафен Айлінген,www.rokmp.de,Germany,Kirchweg 10 88048 Friedrichshafen-Ailingen,47.6885671,9.4891404
Moscow Patriarchy of the Russian Orthodox Church,Moscow Patriarchy of the Russian Orthodox Church,Moscow Patriarchy of the Russian Orthodox Church,Берлінсько-Німецька єпархія,Community of the Ascension of the Lord,Фульда,www.rokmp.de,Germany,"Radgarstr. 13, 36037 Fulda",50.55461,9.6850955
Moscow Patriarchy of the Russian Orthodox Church,Moscow Patriarchy of the Russian Orthodox Church,Moscow Patriarchy of the Russian Orthodox Church,Берлінсько-Німецька єпархія,Parish of St. First Martyr and Archdeacon Stephen,Хальберштадт,www.rokmp.de,Germany,"Moritzplan 1, 38820 Halberstadt ( St. Moritzkirche)",51.9000721,11.0488991
Moscow Patriarchy of the Russian Orthodox Church,Moscow Patriarchy of the Russian Orthodox Church,Moscow Patriarchy of the Russian Orthodox Church,,Assumption Cathedral (Russian Holy Trinity Parish),Хевіз,http://hungary.orthodoxia.org,Hungary,"8380 Hévíz, Ady Endre utca 15",46.7804302,17.1888223
Moscow Patriarchy of the Russian Orthodox Church,Moscow Patriarchy of the Russian Orthodox Church,Moscow Patriarchy of the Russian Orthodox Church,Берлінсько-Німецька єпархія,Parish of the Nativity of the Most Holy Theotokos,Хемніц,www.rokmp.de,Germany,"St. Johannes-Nepomuk-Propsteikirche, Hohe Straße 1, 09112 Chemnitz",50.8290601,12.9124232
Moscow Patriarchy of the Russian Orthodox Church,Moscow Patriarchy of the Russian Orthodox Church,Moscow Patriarchy of the Russian Orthodox Church,Берлінсько-Німецька єпархія,Community in the city of Homburg,Хомбург,www.rokmp.de,Germany,"St. Michael Str. 7 , 66424 Homburg/ Saar",49.320938,7.3409434
Moscow Patriarchy of the Russian Orthodox Church,Moscow Patriarchy of the Russian Orthodox Church,Moscow Patriarchy of the Russian Orthodox Church,Берлінсько-Німецька єпархія,"Community of the Icon of the Mother of God ""Iverska""",Целле,www.rokmp.de,Germany,"29225 Сelle, Heese 18(A)",52.6172658,10.0565746
Moscow Patriarchy of the Russian Orthodox Church,Moscow Patriarchy of the Russian Orthodox Church,Moscow Patriarchy of the Russian Orthodox Church,Брюсельсько-Бельгійська єпархія,Church of the Holy Trinity,Шарлеруа,https://www.archiepiskopia.be/,Belgium,"Chaussee de Charleroi 436,
B-6080 Montigny-sur-Sambre",50.40356370000001,4.455312699999999
Moscow Patriarchy of the Russian Orthodox Church,Moscow Patriarchy of the Russian Orthodox Church,Moscow Patriarchy of the Russian Orthodox Church,Берлінсько-Німецька єпархія,"Parish of the Nativity of the Prophet, Forerunner and Baptist of the Lord John",Швайнфурт,www.rokmp.de,Germany,Friedenstr. 17 97421 Schweinfurt,50.0430663,10.2250061
Moscow Patriarchy of the Russian Orthodox Church,Moscow Patriarchy of the Russian Orthodox Church,Moscow Patriarchy of the Russian Orthodox Church,Берлінсько-Німецька єпархія,Church of the Holy Great Martyr Dmitrii Solynskiy,Шверін,www.rokmp.de,Germany,"Hamburger Allee 120
19063 Schwerin",53.5928285,11.4627297
Moscow Patriarchy of the Russian Orthodox Church,Moscow Patriarchy of the Russian Orthodox Church,Moscow Patriarchy of the Russian Orthodox Church,Берлінсько-Німецька єпархія,Community in the city of Schleswig,Шлезвіг,www.rokmp.de,Germany,"die evangelische St-Michael-Kirche statt. Lölfuß, Schleswig",54.5138729,9.5515206
Moscow Patriarchy of the Russian Orthodox Church,Moscow Patriarchy of the Russian Orthodox Church,Moscow Patriarchy of the Russian Orthodox Church,Берлінсько-Німецька єпархія,Community in honor of the holy martyrs Adrian and Natalia,Штаде,www.rokmp.de,Germany,"Bockhorster Weg 27, 21682 Stade",53.6086932,9.4489229
Moscow Patriarchy of the Russian Orthodox Church,Moscow Patriarchy of the Russian Orthodox Church,Moscow Patriarchy of the Russian Orthodox Church,Берлінсько-Німецька єпархія,St. James the Apostle Parish,Штендаль,www.rokmp.de,Germany,"Jacobikirchhof 1, 39576 Stendal (Jacobikirche)",52.60823,11.85806
Moscow Patriarchy of the Russian Orthodox Church,Moscow Patriarchy of the Russian Orthodox Church,Moscow Patriarchy of the Russian Orthodox Church,Берлінсько-Німецька єпархія,The community of George the Victorious,Штральзунд,www.rokmp.de,Germany,"Marien Kirche, Marienstrasse 16, 18439 Stralsund",54.3099332,13.0880146
Moscow Patriarchy of the Russian Orthodox Church,Moscow Patriarchy of the Russian Orthodox Church,Moscow Patriarchy of the Russian Orthodox Church,Берлінсько-Німецька єпархія,Parish of God's Prophet Ilya,Штутгарт,www.rokmp.de,Germany,Steigerwald str.10 70469 Stuttgart,48.811153,9.1471775
Moscow Patriarchy of the Russian Orthodox Church,Moscow Patriarchy of the Russian Orthodox Church,Moscow Patriarchy of the Russian Orthodox Church,,Iremsky temple of St. Alexandra,Юрем,http://hungary.orthodoxia.org,Hungary,"2096 Üröm, Patak u. 7. Levelezesi cim: 1062 Budapest, Lendvay u. 26",47.4895203,19.2856448
Moscow Patriarchy of the Russian Orthodox Church,Russian Orthodox Church abroad,Russian Orthodox Church abroad,Берлінсько-Німецька єпархія,Parish of the Ascension of the Lord,Aalen,www.rokmp.de,Germany,"Langertstraße 116, 73431 Aalen",48.8243467,10.0999763
Moscow Patriarchy of the Russian Orthodox Church,Russian Orthodox Church abroad,Russian Orthodox Church abroad,Німецька єпархія РПЦЗ,Church of St. Apostles Peter and Paul,Amberg,https://rocor.de/,Germany,"Breslauerstr. 15,
92224 Amberg",49.42959090000001,11.8843135
Moscow Patriarchy of the Russian Orthodox Church,Russian Orthodox Church abroad,Russian Orthodox Church abroad,Великобританська і Західно-Європейська єпархія РПЦЗ,Parish of the Intercession of the Virgin,Arnhem,https://orthodox-europe.org,Netherlands,"Amsterdamseweg 96,
6814GG Arnhem, Holland",51.9870966,5.8975357
Moscow Patriarchy of the Russian Orthodox Church,Russian Orthodox Church abroad,Russian Orthodox Church abroad,Сурозька єпархія,Parish of the Holy Epiphany,Атлон,http://www.sourozh.org/,Ireland,"Summerhill, Crannagh, Athlone, Co. Roscommon, N37 T298",53.4112208,-7.9888948
Moscow Patriarchy of the Russian Orthodox Church,Russian Orthodox Church abroad,Russian Orthodox Church abroad,Німецька єпархія РПЦЗ,Church of the Icon of All Sorrowful Joys,Аугсбург,https://rocor.de/,Germany,"Stadtbergerstr. 26 а,
86157 Augsburg",48.3630709,10.8643263
Moscow Patriarchy of the Russian Orthodox Church,Russian Orthodox Church abroad,Russian Orthodox Church abroad,Німецька єпархія РПЦЗ,Church of St. mts. Tsarina Alexandra,Бад Емс,https://rocor.de/,Germany,"Wilhelmsallee 12,
56130 Bad Ems",50.3303405,7.7219404
Moscow Patriarchy of the Russian Orthodox Church,Russian Orthodox Church abroad,Russian Orthodox Church abroad,Німецька єпархія РПЦЗ,Church of All Saints,Бад Хомбург фор дер Гохе,https://rocor.de/,Germany,"Kaiser-Friedrich-Promenade,
61348 Bad Homburg vor der Höhe",50.2251043,8.6257348
Moscow Patriarchy of the Russian Orthodox Church,Russian Orthodox Church abroad,Russian Orthodox Church abroad,Німецька єпархія РПЦЗ,Church of Rev. Serhiy Radonezhsky,Бад-Кіссінген,https://rocor.de/,Germany,"Salinenstr. 20,
97688 Bad Kissingen",50.2057085,10.0746971
Moscow Patriarchy of the Russian Orthodox Church,Russian Orthodox Church abroad,Russian Orthodox Church abroad,Німецька єпархія РПЦЗ,Church of St. Innocent and St. Seraphim of Sarovsky,Бад-Наухайм,https://rocor.de/,Germany,"Reinhardstr. 12,
61231 Bad Nauheim",50.36456,8.73718
Moscow Patriarchy of the Russian Orthodox Church,Russian Orthodox Church abroad,Russian Orthodox Church abroad,Німецька єпархія РПЦЗ,Church of the Transfiguration of the Lord,Баден-Баден,https://rocor.de/,Germany,"Lichtentaler Str. 76,
76530 Baden-Baden",48.7538171,8.2444364
Moscow Patriarchy of the Russian Orthodox Church,Russian Orthodox Church abroad,Russian Orthodox Church abroad,,Patriarchal courtyard in honor of Saint Nicholas the Wonderworker,Барі,https://bargrad.com/,Italy,"Corso Benedetto Croce, 130
70125 Bari, Italia",41.1099688,16.8723695
Moscow Patriarchy of the Russian Orthodox Church,Russian Orthodox Church abroad,Russian Orthodox Church abroad,,"The Russian Orthodox Church, the Church of the Holy Trinity and the Iver Chapel",Белград,http://www.patriarchia.ru/db/text/4547484.html,Serbia,"ул. Таковска, 4, 11000, Белград, Сербия",44.8112155,20.4679494
Moscow Patriarchy of the Russian Orthodox Church,Russian Orthodox Church abroad,Russian Orthodox Church abroad,Великобританська і Західно-Європейська єпархія РПЦЗ,Parish of St. John of Shanghai,Белфаст,https://orthodox-europe.org,Great Britain,"St John’s Orthodox Church
4 Ashfield Drive, Belfast, BT15 3FT",54.6229457,-5.933015600000001
Moscow Patriarchy of the Russian Orthodox Church,Russian Orthodox Church abroad,Russian Orthodox Church abroad,Німецька єпархія РПЦЗ,Temple of the Intercession of the Holy Mother of God,Берлін,https://rocor.de/,Germany,"Wintersteinstraße 24,
10587 Berlin",52.5198799,13.3071949
Moscow Patriarchy of the Russian Orthodox Church,Russian Orthodox Church abroad,Russian Orthodox Church abroad,Німецька єпархія РПЦЗ,Savior and Transfiguration Church,Білефельд-Зеннештадт,https://rocor.de/,Germany,"Am Beckhof 18,
33689 Bielefeld-Sennestadt",51.92653,8.59615
Moscow Patriarchy of the Russian Orthodox Church,Russian Orthodox Church abroad,Russian Orthodox Church abroad,Німецька єпархія РПЦЗ,Church of St. Great Martyr George the Victorious,Бохум,https://rocor.de/,Germany,"Feldsieperstr. 129,
44809 Bochum",51.4946732,7.2100791
Moscow Patriarchy of the Russian Orthodox Church,Russian Orthodox Church abroad,Russian Orthodox Church abroad,Великобританська і Західно-Європейська єпархія РПЦЗ,Church of St. orthodox John of Kronstadt,Брюссель,https://orthodox-europe.org,Belgium,"8, avenue du Manoir, (avenue de Fré)
B–1180 Bruxelles, Belgique",50.8031391,4.3445944
Moscow Patriarchy of the Russian Orthodox Church,Russian Orthodox Church abroad,Russian Orthodox Church abroad,Великобританська і Західно-Європейська єпархія РПЦЗ,Church of the Resurrection of Christ,Брюссель,https://orthodox-europe.org,Belgium,"42, rue des Drapiers
B–1050 Bruxelles, Belgique",50.8349716,4.3597907
Moscow Patriarchy of the Russian Orthodox Church,Russian Orthodox Church abroad,Russian Orthodox Church abroad,Німецька єпархія РПЦЗ,Women's monastery in honor of the holy reverend martyr Grand Duchess Elizaveta,Бухендорф,https://rocor.de/,Germany,"Forstenrieder-Park-Str. 2,
82131 Buchendorf",48.0565051,11.4027619
Moscow Patriarchy of the Russian Orthodox Church,Russian Orthodox Church abroad,Russian Orthodox Church abroad,Німецька єпархія РПЦЗ,Church of St. Iov the Long-suffering,Вісбаден,https://rocor.de/,Germany,"Christian-Spielmann-Weg 1,
65193 Wiesbaden",50.0975808,8.234752499999999
Moscow Patriarchy of the Russian Orthodox Church,Russian Orthodox Church abroad,Russian Orthodox Church abroad,Німецька єпархія РПЦЗ,Orthodox parish in the name of the Apostle and Evangelist John the Theologian,Віттліх,https://rocor.de/,Germany,"Arnold-Janssen-Straße 1,
54516 Wittlich",49.97775009999999,6.9265982
Moscow Patriarchy of the Russian Orthodox Church,Russian Orthodox Church abroad,Russian Orthodox Church abroad,Великобританська і Західно-Європейська єпархія РПЦЗ,Church of St. App. Peter and Paul,Віши,https://orthodox-europe.org,France,"Les Rochelles à Périgny
F–03120 Lapalisse, France",46.249253,3.526688
Moscow Patriarchy of the Russian Orthodox Church,Russian Orthodox Church abroad,Russian Orthodox Church abroad,Великобританська і Західно-Європейська єпархія РПЦЗ,All-Orthodox Chapel of the Life-giving Spring,Волсінгем,https://orthodox-europe.org,Great Britain,"A Pan-Orthodox Chapel on the grounds of
The Walsingham Shrine
Walsingham, NR22 6BP",52.8946704,0.8759113
Moscow Patriarchy of the Russian Orthodox Church,Russian Orthodox Church abroad,Russian Orthodox Church abroad,Гаазька і Нідерландська єпархія,Orthodox Monastery of the Nativity of John the Baptist in The Hague,Гаага,www.russian-diocese.nl,Netherlands,"1e Sweelinckstraat 54, 2517GE The Hague",52.083711,4.2885123
Moscow Patriarchy of the Russian Orthodox Church,Russian Orthodox Church abroad,Russian Orthodox Church abroad,Німецька єпархія РПЦЗ,The community of St. John of Shanghai,Гайльбронн,https://rocor.de/,Germany,"Goppeltstr. 5,
74076 Heilbronn",49.1547949,9.2188736
Moscow Patriarchy of the Russian Orthodox Church,Russian Orthodox Church abroad,Russian Orthodox Church abroad,Німецька єпархія РПЦЗ,Church of St. Blessed Prokopius of Ustyug,Гамбург,https://rocor.de/,Germany,"Hagenbeckstr. 10,
22527 Hamburg",53.5842415,9.946950099999999
Moscow Patriarchy of the Russian Orthodox Church,Russian Orthodox Church abroad,Russian Orthodox Church abroad,Німецька єпархія РПЦЗ,Church of the Nativity of Christ,Ганновер,https://rocor.de/,Germany,"Plueschow Str. 6,
30163 Hannover",52.4037601,9.7396954
Moscow Patriarchy of the Russian Orthodox Church,Russian Orthodox Church abroad,Russian Orthodox Church abroad,Німецька єпархія РПЦЗ,"Church of the Icon of the Mother of God ""Sign""",Ганновер,https://rocor.de/,Germany,"Königsworther Straße 12,
30167 Hannover",52.37680839999999,9.7216209
Moscow Patriarchy of the Russian Orthodox Church,Russian Orthodox Church abroad,Russian Orthodox Church abroad,Благочиння РПЦ МП в Швеції,Resurrection of Christ Parish,Гельсинборг,http://sweden.cerkov.ru/,Sweden,"Nedre Eneborgs vägen 7, 252 68 Helsingborg",56.0416331,12.7044525
Moscow Patriarchy of the Russian Orthodox Church,Russian Orthodox Church abroad,Russian Orthodox Church abroad,Німецька єпархія РПЦЗ,Orthodox parish in the name of St. Athanasius of Alexandria,Герольштайн,https://rocor.de/,Germany,"Sarresdorfer Str. 15,
54568 Gerolstein",50.2236195,6.6554897
Moscow Patriarchy of the Russian Orthodox Church,Russian Orthodox Church abroad,Russian Orthodox Church abroad,Німецька єпархія РПЦЗ,Orthodox parish,Гільдесхайм,https://rocor.de/,Germany,"St. Mauritius Kapelle, Bergstr. 57,
31137 Hildesheim",52.148357,9.9263391
Moscow Patriarchy of the Russian Orthodox Church,Russian Orthodox Church abroad,Russian Orthodox Church abroad,Німецька єпархія РПЦЗ,The community of St. Princess Olga,Гомбург,https://rocor.de/,Germany,"Bodelschwinghstr. 5,
66424 Homburg",49.33581479999999,7.334149799999999
Moscow Patriarchy of the Russian Orthodox Church,Russian Orthodox Church abroad,Russian Orthodox Church abroad,Німецька єпархія РПЦЗ,Church of St. equal-to-the-apostle Mary Magdalene,Дармштадт,https://rocor.de/,Germany,"Mathildenhöhe,
64287 Darmstadt",49.8766962,8.6668723
Moscow Patriarchy of the Russian Orthodox Church,Russian Orthodox Church abroad,Russian Orthodox Church abroad,Німецька єпархія РПЦЗ,Parish of St. great martyr and the Healer Panteleimon,Деггендорф,https://rocor.de/,Germany,"Friedenskirche Am Stadtpark 1,
94469 Deggendorf",48.8453747,12.957855
Moscow Patriarchy of the Russian Orthodox Church,Russian Orthodox Church abroad,Russian Orthodox Church abroad,Німецька єпархія РПЦЗ,Community in Dillingen,Ділінген,https://rocor.de/,Germany,,48.580957651797505 ,10.492306985265088
Moscow Patriarchy of the Russian Orthodox Church,Russian Orthodox Church abroad,Russian Orthodox Church abroad,Німецька єпархія РПЦЗ,Parish of All Saints in Dingolfing,Дінгольфінг,https://rocor.de/,Germany,"Oberdingolfing 27,
84130 Dingolfing",48.6230595,12.500439
Moscow Patriarchy of the Russian Orthodox Church,Russian Orthodox Church abroad,Russian Orthodox Church abroad,Німецька єпархія РПЦЗ,The community of St. Anna,Дюрен,https://rocor.de/,Germany,"St.Angela-Realschule-Kapelle, Bismarckstrasse 24,,
52351 Düren",50.8063553,6.4891149
Moscow Patriarchy of the Russian Orthodox Church,Russian Orthodox Church abroad,Russian Orthodox Church abroad,Німецька єпархія РПЦЗ,Church of St. Nicholas,Дюссельдорф-Нойс,https://rocor.de/,Germany,"Alexanderplatz 1,
41464 Düsseldorf-Neuss",51.1910608,6.672621899999999
Moscow Patriarchy of the Russian Orthodox Church,Russian Orthodox Church abroad,Russian Orthodox Church abroad,Великобританська і Західно-Європейська єпархія РПЦЗ,The mission of Great martyr Seraphim and St. Vincentia,Елче,https://orthodox-europe.org,Spain,"Iglesia de San Serafim Sarovskiy y San Vicente Diacono y Martir
Calle Porta la Morera 18, 03203 Elx, Elche",38.2911575,-0.6322614999999999
Moscow Patriarchy of the Russian Orthodox Church,Russian Orthodox Church abroad,Russian Orthodox Church abroad,Німецька єпархія РПЦЗ,"Temple in honor of the icon of the Most Holy Mother of God ""Joy of all the sorrowful""",Енген,https://rocor.de/,Germany,"Jahnstr. 3a,
78234 Engen",47.854853,8.7760105
Moscow Patriarchy of the Russian Orthodox Church,Russian Orthodox Church abroad,Russian Orthodox Church abroad,Німецька єпархія РПЦЗ,Church of the Holy Trinity,Ерланген,https://rocor.de/,Germany,"Stintzingstr. 20,
91052 Erlangen",49.5815385,11.0075039
Moscow Patriarchy of the Russian Orthodox Church,Russian Orthodox Church abroad,Russian Orthodox Church abroad,Німецька єпархія РПЦЗ,"Church of St. mts. Vera, Nadezhda, Lyubov and their mother Sophia",Етлінген,https://rocor.de/,Germany,"Friedhofweg 1,
86833 Ettringen",48.064122,10.6420721
Moscow Patriarchy of the Russian Orthodox Church,Russian Orthodox Church abroad,Russian Orthodox Church abroad,Німецька єпархія РПЦЗ,Church of St. Nicholas,Зальцгіттер-Лебенштедт,https://rocor.de/,Germany,"Posthof 16,
38226 Salzgitter-Lebenstedt",52.1538485,10.3255847
Moscow Patriarchy of the Russian Orthodox Church,Russian Orthodox Church abroad,Russian Orthodox Church abroad,Німецька єпархія РПЦЗ,Church of the Intercession of the Holy Mother of God,Зюдмослесфен,https://rocor.de/,Germany,"Diedrich-Dannemann-Strasse 234,
26203 Südmoslesfehn",53.1073811,8.1361759
Moscow Patriarchy of the Russian Orthodox Church,Russian Orthodox Church abroad,Russian Orthodox Church abroad,Німецька єпархія РПЦЗ,Community in the name of St. John of Shanghai,Ідар-Оберштайн-Гетчід,https://rocor.de/,Germany,"Göttschieder Str. 43,
55743 Idar-Oberstein-Goettschied",49.72206509999999,7.335276599999998
Moscow Patriarchy of the Russian Orthodox Church,Russian Orthodox Church abroad,Russian Orthodox Church abroad,Німецька єпархія РПЦЗ,The temple of the holy Nicholas of Myrlikii the miracle worker,Інгольштадт,https://rocor.de/,Germany,"Esplanade 38,
85049 Ingolstadt",48.76885859999999,11.4250389
Moscow Patriarchy of the Russian Orthodox Church,Russian Orthodox Church abroad,Russian Orthodox Church abroad,Великобританська і Західно-Європейська єпархія РПЦЗ,Parish of the Kazan Icon of the Mother of God,Кардіфф,https://orthodox-europe.org,Great Britain,"The Church of St John the Evangelist
St John’s Crescent
Cardiff, CF5 1NX",51.4804144,-3.2025883
Moscow Patriarchy of the Russian Orthodox Church,Russian Orthodox Church abroad,Russian Orthodox Church abroad,Німецька єпархія РПЦЗ,Church of St. John of Shanghai,Карлсруе,https://rocor.de/,Germany,"Bernhard-Lichtenberg-Straße 46,
76189 Karlsruhe",48.98572,8.363629999999999
Moscow Patriarchy of the Russian Orthodox Church,Russian Orthodox Church abroad,Russian Orthodox Church abroad,Німецька єпархія РПЦЗ,Church of St. great martyr and healer Panteleimon,Кассель,https://rocor.de/,Germany,"Steinweg,
34117 Kassel",51.313871,9.5005532
Moscow Patriarchy of the Russian Orthodox Church,Russian Orthodox Church abroad,Russian Orthodox Church abroad,Німецька єпархія РПЦЗ,Church of St. great martyr and the healer Panteleimon,Кельн Порц-Вестховен,https://rocor.de/,Germany,"Neue Strasse 1,
51149 Köln Porz-Westhoven",50.9065179,7.018447099999999
Moscow Patriarchy of the Russian Orthodox Church,Russian Orthodox Church abroad,Russian Orthodox Church abroad,Німецька єпархія РПЦЗ,Parish in honor of equal-to-the-apostles Cyril and Methodius,Кірхгайм-унтер-Тек,https://rocor.de/,Germany,"Limburgerstr. 65,
73230 Kirchheim unter Teck",48.6422477,9.461188199999999
Moscow Patriarchy of the Russian Orthodox Church,Russian Orthodox Church abroad,Russian Orthodox Church abroad,Німецька єпархія РПЦЗ,Temple of the Intercession of the Mother of God and Saint Nicholas,Клагенфурт,https://rocor.de/,Austria,"Kaufmanngasse 11, Innere Stadt,
9020 Klagenfurt",46.62181520000001,14.3065605
Moscow Patriarchy of the Russian Orthodox Church,Russian Orthodox Church abroad,Russian Orthodox Church abroad,Великобританська і Західно-Європейська єпархія РПЦЗ,Monastery chapel of St. Panteleimon,Клактон-Он-Сі,https://orthodox-europe.org,Great Britain,"70 Jaywick Lane
Clacton-on-Sea
Essex CO16 8BB",51.7982625,1.1183331
Moscow Patriarchy of the Russian Orthodox Church,Russian Orthodox Church abroad,Russian Orthodox Church abroad,Німецька єпархія РПЦЗ,Church of Rev. Seraphim of Sarovsky,Клопенбург,https://rocor.de/,Germany,"Brookweg 26,
49661 Cloppenburg",52.8513448,8.0806664
Moscow Patriarchy of the Russian Orthodox Church,Russian Orthodox Church abroad,Russian Orthodox Church abroad,Німецька єпархія РПЦЗ,Parish in the name of Equal-to-the-Apostles Konstantin and Elena,Конц,https://rocor.de/,Germany,"Martinstr. 22,
54329 Konz",49.6953186,6.5753594
Moscow Patriarchy of the Russian Orthodox Church,Russian Orthodox Church abroad,Russian Orthodox Church abroad,Німецька єпархія РПЦЗ,Parish in honor of the holy martyr Clement Pope of Rome,Копенгаген,https://rocor.de/,Denmark,"Bredgade 53,
DK-1260 Copenhagen",55.6852416,12.5908269
Moscow Patriarchy of the Russian Orthodox Church,Russian Orthodox Church abroad,Russian Orthodox Church abroad,Німецька єпархія РПЦЗ,Community in honor of St. John of Shanghai,Котбус,https://rocor.de/,Germany,"Am Doll 4,
03046 Cottbus",51.7613998,14.3476045
Moscow Patriarchy of the Russian Orthodox Church,Russian Orthodox Church abroad,Russian Orthodox Church abroad,Німецька єпархія РПЦЗ,Parish in Künzelsau,Кюнцельзау,https://rocor.de/,Germany,"Stuttgarterstr.34,
74653 Künzelsau",49.2769786,9.6833942
Moscow Patriarchy of the Russian Orthodox Church,Russian Orthodox Church abroad,Russian Orthodox Church abroad,Німецька єпархія РПЦЗ,Church of St. Nikolay,Ландсхут,https://rocor.de/,Germany,"Regierungsplatz 541,
84028 Landshut",48.5370857,12.1558175
Moscow Patriarchy of the Russian Orthodox Church,Russian Orthodox Church abroad,Russian Orthodox Church abroad,Великобританська і Західно-Європейська єпархія РПЦЗ,Parish of Grand Duchess Elizaveta the New Martyr,Ліверпуль,https://orthodox-europe.org,Great Britain,"Rake Lane Cemetery
Rake Lane, Liscard, Wallasey. CH45 5DE",53.4270341,-3.0421126
Moscow Patriarchy of the Russian Orthodox Church,Russian Orthodox Church abroad,Russian Orthodox Church abroad,Великобританська і Західно-Європейська єпархія РПЦЗ,"The mission of St. Nicholas, wonderw.",Ліверпуль,https://orthodox-europe.org,Great Britain,Ліверпуль,53.4083714,-2.9915726
Moscow Patriarchy of the Russian Orthodox Church,Russian Orthodox Church abroad,Russian Orthodox Church abroad,Німецька єпархія РПЦЗ,Chapel of the Intercession of the Holy Mother of God,Лієнц-Пеггец,https://rocor.de/,Austria,"Am Tristacher-Steg 27,
9900 Lienz-Peggetz",46.82255259999999,12.7903572
Moscow Patriarchy of the Russian Orthodox Church,Russian Orthodox Church abroad,Russian Orthodox Church abroad,Великобританська і Західно-Європейська єпархія РПЦЗ,"Church of St. John of Rus, the confessor",Ліон,https://orthodox-europe.org,France,"4, Petite rue de la Viabert
F-69006 Lyon, France",45.766609,4.8637054
Moscow Patriarchy of the Russian Orthodox Church,Russian Orthodox Church abroad,Russian Orthodox Church abroad,Великобританська і Західно-Європейська єпархія РПЦЗ,Church of St. Nicholas the Wonderworker,Ліон,https://orthodox-europe.org,France,"5, rue Sainte-Geneviève
F–69006 Lyon, France",45.7678526,4.8650077
Moscow Patriarchy of the Russian Orthodox Church,Russian Orthodox Church abroad,Russian Orthodox Church abroad,Великобританська і Західно-Європейська єпархія РПЦЗ,Diocesan Cathedral of the Nativity of the Most Holy Theotokos and Holy Royal Martyrs,Лондон,https://orthodox-europe.org,Great Britain,"57 Harvard Road, Chiswick
London, W4 4ED",51.4898258,-0.276024
Moscow Patriarchy of the Russian Orthodox Church,Russian Orthodox Church abroad,Russian Orthodox Church abroad,Німецька єпархія РПЦЗ,Church of St. blessed Prokopius of Ustyug and Lyubets,Любек,https://rocor.de/,Germany,"Glockengiesserstr. 2,
23552 Lübeck",53.8691855,10.6900143
Moscow Patriarchy of the Russian Orthodox Church,Russian Orthodox Church abroad,Russian Orthodox Church abroad,Великобританська і Західно-Європейська єпархія РПЦЗ,Mission in Maastricht,Маастріхт,https://orthodox-europe.org,Netherlands,"6202 RB Maastricht
Postbus 4052, Holland",50.84830359999999,5.6709128
Moscow Patriarchy of the Russian Orthodox Church,Russian Orthodox Church abroad,Russian Orthodox Church abroad,Німецька єпархія РПЦЗ,Community of St. Luke of Crimea,Майєн,https://rocor.de/,Germany,"St.Veitkapelle, St.Veitstr. 41,
56727 Mayen",50.328779,7.2320031
Moscow Patriarchy of the Russian Orthodox Church,Russian Orthodox Church abroad,Russian Orthodox Church abroad,Німецька єпархія РПЦЗ,Church of St. the venerable great Prince Alexander Nevsky,Мангейм,https://rocor.de/,Germany,"Gärtnerstr. 10,
68169 Mannheim",49.49948,8.46339
Moscow Patriarchy of the Russian Orthodox Church,Russian Orthodox Church abroad,Russian Orthodox Church abroad,Великобританська і Західно-Європейська єпархія РПЦЗ,Church of St. Great Martyr George the Victorious,Марсель,https://orthodox-europe.org,France,"16, rue Clapier
F–13001 Marseille, France",43.3021708,5.3888223
Moscow Patriarchy of the Russian Orthodox Church,Russian Orthodox Church abroad,Russian Orthodox Church abroad,Великобританська і Західно-Європейська єпархія РПЦЗ,Church of the Resurrection of Christ,Медон,https://orthodox-europe.org,France,"8, rue des Bigots
F–92190 Meudon, France",48.8147223,2.2355958
Moscow Patriarchy of the Russian Orthodox Church,Russian Orthodox Church abroad,Russian Orthodox Church abroad,Німецька єпархія РПЦЗ,The community of St. John of Rus in Memmingen,Меммінген,https://rocor.de/,Germany,"Eisenacher Weg 2,
87700 Memmingen",47.9900277,10.1585269
Moscow Patriarchy of the Russian Orthodox Church,Russian Orthodox Church abroad,Russian Orthodox Church abroad,Великобританська і Західно-Європейська єпархія РПЦЗ,"Church of the Icon of the Mother of God ""Joy of All Sorrowful Ones""",Ментон,https://orthodox-europe.org,France,"14, rue Paul-Morillot
F–06500 Menton, France",43.766747,7.4850841
Moscow Patriarchy of the Russian Orthodox Church,Russian Orthodox Church abroad,Russian Orthodox Church abroad,Великобританська і Західно-Європейська єпархія РПЦЗ,"Parish and College of the Mother of God ""Joy of All Sorrowful""",Меттінгем,https://orthodox-europe.org,Great Britain,"The College of Our Lady of Mettingham
The White House, Mettingham, Suffolk, NR23 1TP",52.456698,1.47076
Moscow Patriarchy of the Russian Orthodox Church,Russian Orthodox Church abroad,Russian Orthodox Church abroad,Німецька єпархія РПЦЗ,Church of St. equal-to-the-apostles Mary Magdalene,Мінден,https://rocor.de/,Germany,"Sedanstraße 19,
32423 Minden",52.2880043,8.9462078
Moscow Patriarchy of the Russian Orthodox Church,Russian Orthodox Church abroad,Russian Orthodox Church abroad,Німецька єпархія РПЦЗ,"Community in honor of the icon of the Holy Mother of God ""Kazan""",Мюнстер,https://rocor.de/,Germany,"Hammerstraße 371,
48153 Münster",51.9278613,7.6289946
Moscow Patriarchy of the Russian Orthodox Church,Russian Orthodox Church abroad,Russian Orthodox Church abroad,Німецька єпархія РПЦЗ,Cathedral of St. New Martyrs and Confessors of Russia and St. Nicholas,Мюнхен,https://rocor.de/,Germany,"Lincolnstr. 58,
81549 München",48.0956355,11.5958371
Moscow Patriarchy of the Russian Orthodox Church,Russian Orthodox Church abroad,Russian Orthodox Church abroad,Німецька єпархія РПЦЗ,Church of St. Arch-strategist Mykhailo,Мюнхен-Людвігсфельд,https://rocor.de/,Germany,"Achatstr. 14,
80995 München-Ludwigsfeld",48.21694429999999,11.4896834
Moscow Patriarchy of the Russian Orthodox Church,Russian Orthodox Church abroad,Russian Orthodox Church abroad,Німецька єпархія РПЦЗ,Monastery of Rev. Iov Pochaevsky,Мюнхен-Оберменцінг,https://rocor.de/,Germany,"Hofbauernstr. 26,
81247 München-Obermenzing",48.1622209,11.4594911
Moscow Patriarchy of the Russian Orthodox Church,Russian Orthodox Church abroad,Russian Orthodox Church abroad,Німецька єпархія РПЦЗ,Community of the Holy Life-giving Trinity,Ноймюнстер,https://rocor.de/,Germany,"Anscharkirche Gemeindehaus Am Alten Kirchhof 4,
24534 Neumünster",54.0762012,9.9841999
Moscow Patriarchy of the Russian Orthodox Church,Russian Orthodox Church abroad,Russian Orthodox Church abroad,Великобританська і Західно-Європейська єпархія РПЦЗ,Parish of St. Alexander Nevsky,Норвіч,https://orthodox-europe.org,Great Britain,"134-138 Oak Street
Norwich NR3 3BP",52.63651720000001,1.2888933
Moscow Patriarchy of the Russian Orthodox Church,Russian Orthodox Church abroad,Russian Orthodox Church abroad,Німецька єпархія РПЦЗ,Community in honor of the Nativity of the Most Holy Theotokos,Нюрнберг,https://rocor.de/,Germany,"Neuselsbrunn, 6,
90489 Nürnberg",49.4138312,11.1149567
Moscow Patriarchy of the Russian Orthodox Church,Russian Orthodox Church abroad,Russian Orthodox Church abroad,Німецька єпархія РПЦЗ,Church of the Intercession of the Holy Mother of God,Ольденбург,https://rocor.de/,Germany,"Ammerländer Heerstr. 40,
26129 Oldenburg",53.1454082,8.1897503
Moscow Patriarchy of the Russian Orthodox Church,Russian Orthodox Church abroad,Russian Orthodox Church abroad,Великобританська і Західно-Європейська єпархія РПЦЗ,Church of St. faithful pince Alexander Nevsky,По,https://orthodox-europe.org,France,"18, rue Jean-Réveil
F–64000 Pau, France",43.3016647,-0.3669557
Moscow Patriarchy of the Russian Orthodox Church,Russian Orthodox Church abroad,Russian Orthodox Church abroad,Німецька єпархія РПЦЗ,Church of the Intercession of the Holy Mother of God,Регенсбург,https://rocor.de/,Germany,"Prüfeninger Straße 18,
93049 Regensburg",49.01900819999999,12.0803946
Moscow Patriarchy of the Russian Orthodox Church,Russian Orthodox Church abroad,Russian Orthodox Church abroad,Німецька єпархія РПЦЗ,Orthodox Church of St. Spyridon Trimifuntsky,Родінг,https://rocor.de/,Germany,"Ludwigstr. 5,
93426 Roding",49.1914394,12.5260929
Moscow Patriarchy of the Russian Orthodox Church,Russian Orthodox Church abroad,Russian Orthodox Church abroad,Німецька єпархія РПЦЗ,Church of the Iver Icon of the Mother of God,Розенхайм,https://rocor.de/,Germany,"c/o Altkatholische Gemeinde, Kaiserstr. 44-46,
83022 Rosenheim",47.8601246,12.1283427
Moscow Patriarchy of the Russian Orthodox Church,Russian Orthodox Church abroad,Russian Orthodox Church abroad,Німецька єпархія РПЦЗ,Community of the Church of the Assumption of the Virgin,Ройтлінген,https://rocor.de/,Germany,"Am Heilbrunnen 148, 72766 Reutlingen",48.5126115,9.2319813
Moscow Patriarchy of the Russian Orthodox Church,Russian Orthodox Church abroad,Russian Orthodox Church abroad,Німецька єпархія РПЦЗ,"Church of St. the righteous Elizabeth, the tomb of St. Princess Elizaveta Mykhailivna",Саарбрюкен,https://rocor.de/,Germany,"Lindenhofstrasse 1,
66115 Saarbrücken",49.2494458,6.940436999999999
Moscow Patriarchy of the Russian Orthodox Church,Russian Orthodox Church abroad,Russian Orthodox Church abroad,Великобританська і Західно-Європейська єпархія РПЦЗ,Parish of Christ the Savior and Rev. Seraphim,Сан Ремо,https://orthodox-europe.org,Italy,"Via Nuvoloni, 2,
18038 Sanremo IM, Italy",43.8145991,7.770406599999999
Moscow Patriarchy of the Russian Orthodox Church,Russian Orthodox Church abroad,Russian Orthodox Church abroad,Великобританська і Західно-Європейська єпархія РПЦЗ,Mission of the All-Merciful Savior,Сент-Леонардс-Он-Сі,https://orthodox-europe.org,Great Britain,Сент-Леонардс-Он-Сі,50.85563819999999,0.5525772
Moscow Patriarchy of the Russian Orthodox Church,Russian Orthodox Church abroad,Russian Orthodox Church abroad,Німецька єпархія РПЦЗ,The community of St. New Martyr Tsarina Alexandra,Сіген,https://rocor.de/,Germany,"Zwinglistrasse 1,
57080 Siegen",50.8573072,7.9979862
Moscow Patriarchy of the Russian Orthodox Church,Russian Orthodox Church abroad,Russian Orthodox Church abroad,Великобританська і Західно-Європейська єпархія РПЦЗ,The mission of St. David and St. Nikolay,Суонсі,https://orthodox-europe.org,Great Britain,"Vivian Hall, 82 Mumbles Rd,
Black Pill, Swansea SA3 5AS",51.5974833,-3.9954576
Moscow Patriarchy of the Russian Orthodox Church,Russian Orthodox Church abroad,Russian Orthodox Church abroad,Великобританська і Західно-Європейська єпархія РПЦЗ,Parish of St. Chad of Litchfield,Телфорд,https://orthodox-europe.org,Great Britain,"Worshipping at St Nicholas Serbian Church
Wellington Road, Telford, Shropshire TF2 8NQ",52.7240857,-2.4317018
Moscow Patriarchy of the Russian Orthodox Church,Russian Orthodox Church abroad,Russian Orthodox Church abroad,Німецька єпархія РПЦЗ,Church of the Kazan Mother of God,Унтеркірнах Шварцвальд,https://rocor.de/,Germany,"Kirnachtal 3-5,
78089 Unterkirnach-Schwarzwald",48.0731155,8.3887793
Moscow Patriarchy of the Russian Orthodox Church,Russian Orthodox Church abroad,Russian Orthodox Church abroad,Німецька єпархія РПЦЗ,The community of St. Apostles Peter and Paul,Фленсбург,https://rocor.de/,Germany,"Bauer Landstraße 17,
24534 Flensburg",54.8009555,9.4200208
Moscow Patriarchy of the Russian Orthodox Church,Russian Orthodox Church abroad,Russian Orthodox Church abroad,Німецька єпархія РПЦЗ,Church of St. Prince Volodymyr,Франкфурт-Хаузен,https://rocor.de/,Germany,"Am Industriehof 18,
60487 Frankfurt-Hausen",50.12984119999999,8.623021999999999
Moscow Patriarchy of the Russian Orthodox Church,Russian Orthodox Church abroad,Russian Orthodox Church abroad,Німецька єпархія РПЦЗ,Church of Rev. Grand Duchess Euphrosyne of Moscow,Фройденштадт,https://rocor.de/,Germany,"Parkweg 13,
72250 Freudenstadt",48.46159910000001,8.4288685
Moscow Patriarchy of the Russian Orthodox Church,Russian Orthodox Church abroad,Russian Orthodox Church abroad,РПЦ в Данії,Saint Nicholas Parish in Hobro,Хобро,https://ortodoxy.dk/,Denmark,"Onsildgade 1, 9500  Hobro",56.6344393,9.7938587
Moscow Patriarchy of the Russian Orthodox Church,Russian Orthodox Church abroad,Russian Orthodox Church abroad,Німецька єпархія РПЦЗ,Parish in honor of St. Nicholas of Serbia,Цвайбрюкен,https://rocor.de/,Germany,"Karlstr. 3,
66482 Zweibrücken",49.2477519,7.3622109
Moscow Patriarchy of the Russian Orthodox Church,Russian Orthodox Church abroad,Russian Orthodox Church abroad,Великобританська і Західно-Європейська єпархія РПЦЗ,Mission of St. Prince Volodymyr,Челтнем,https://orthodox-europe.org,Great Britain,"St John Chrysostom Greek Orthodox Church
Bentham Lane, Bentham, Cheltenham, GL3 4UG ",51.8469061,-2.1273519
Moscow Patriarchy of the Russian Orthodox Church,Russian Orthodox Church abroad,Russian Orthodox Church abroad,Німецька єпархія РПЦЗ,"Church in honor of the Nativity of the Holy Prophet, Forerunner and Baptist of the Lord John",Штраубінг,https://rocor.de/,Germany,"Tilsiterstr. 7,
94315 Straubing",48.8914812,12.6032295
Moscow Patriarchy of the Russian Orthodox Church,Russian Orthodox Church abroad,Russian Orthodox Church abroad,Німецька єпархія РПЦЗ,Church of St. Nicholas,Штутгарт,https://rocor.de/,Germany,"Seidenstr. 69,
70174 Stuttgart",48.7840386,9.163452399999999
Moscow Patriarchy of the Russian Orthodox Church,Russian Orthodox Church abroad,Russian Orthodox Church abroad,Німецька єпархія РПЦЗ,Temple-tomb of Queen Catherine Pavlovna of Württemberg,Штутгарт-Ротенберг,https://rocor.de/,Germany,"Württembergstraße 340,
70327 Stuttgart-Rotenberg",48.7813702,9.2688647
Moscow Patriarchy of the Russian Orthodox Church,Russian Orthodox Church abroad,Russian Orthodox Church abroad,,"Compound of the Russian Orthodox Church, Church of the Holy First Apostles Peter and Paul near Karlovy Vary",,http://podvorie.cz/,Czech Republic,"Krále Jiřího 2c, 360 01 Karlovy Vary, Česká republika",50.224647,12.874911