mother,stepdaughter,category_for_map,,name,place,,country,address,Latitude,Longitude
Руська православна церква (Московський патріархат),Руська православна церква (Московський патріархат),Руська православна церква (Московський патріархат),Віденсько-Австрійська єпархія,Свято-Микоївський кафедральний собор,Відень,https://austria-diocese.com/,Австрія,"Jaurèsgasse 2, 1030 Wien, Австрія",48.1974525,16.3850621
Руська православна церква (Московський патріархат),Руська православна церква (Московський патріархат),Руська православна церква (Московський патріархат),Віденсько-Австрійська єпархія,Храм святого Архістратига Божого Михайла,Лаа ан дер Тайя,https://austria-diocese.com/,Австрія,"Ruhhofstraße 93, Laa a. d. Thaya, 2136, Austria",48.73323,16.3993706
Руська православна церква (Московський патріархат),Руська православна церква (Московський патріархат),Руська православна церква (Московський патріархат),Віденсько-Австрійська єпархія,Російська православна парафія Покрова Пресвятої Богородиці,Грац,https://austria-diocese.com/,Австрія,"Griesplatz 30, 8020 Graz",47.0660649,15.431063
Руська православна церква (Московський патріархат),Руська православна церква (Московський патріархат),Руська православна церква (Московський патріархат),Віденсько-Австрійська єпархія,Парафія св. новомучеників та сповідників руських,Лінц,https://austria-diocese.com/,Австрія,"Biberweg 30, Pichling, Linz",48.2494948,14.3658988
Руська православна церква (Московський патріархат),Руська православна церква (Московський патріархат),Руська православна церква (Московський патріархат),Віденсько-Австрійська єпархія,Храм Покрова Пресвятої Богородиці,Зальцбург,https://austria-diocese.com/,Австрія,"Christian-Doppler-Strasse 3a, A-5020 Salzburg",47.8098617,13.034686
Руська православна церква (Московський патріархат),Руська православна церква (Московський патріархат),Руська православна церква (Московський патріархат),,Представництво РПЦ при європейських міжнародних організаціях,Брюссель,http://orthodoxru.eu/,Бельгія,"Rue Leon Lepage 35, 1000 Bruxelles, Belgium",50.8521459,4.345397999999999
Руська православна церква (Московський патріархат),Руська православна церква (Московський патріархат),Руська православна церква (Московський патріархат),Брюсельсько-Бельгійська єпархія,Свято-Микільський кафедральний храм,Брюссель,https://www.archiepiskopia.be/,Бельгія,"Rue des Chevaliers 29, B-1050 Bruxelles",50.8360313,4.3597603
Руська православна церква (Московський патріархат),Руська православна церква (Московський патріархат),Руська православна церква (Московський патріархат),Брюсельсько-Бельгійська єпархія,Храм Різдва Христового,Антверпен,https://www.archiepiskopia.be/,Бельгія,"Loosplaats 2 (St.-Jozefkerk), B-2018 Antwerpen",51.2096902,4.4184614
Руська православна церква (Московський патріархат),Руська православна церква (Московський патріархат),Руська православна церква (Московський патріархат),Брюсельсько-Бельгійська єпархія,Храм Святої Живоначальної Трійці,Брюссель,https://www.archiepiskopia.be/,Бельгія,"Rue Leon Lepage 35
B-1000 Bruxelles",50.8521459,4.345397999999999
Руська православна церква (Московський патріархат),Руська православна церква (Московський патріархат),Руська православна церква (Московський патріархат),Брюсельсько-Бельгійська єпархія,Храм Покрови Пресвятої Богородиці,Брюссель,https://www.archiepiskopia.be/,Бельгія,"Rue Leon Lepage 33, 1000 Bruxelles",50.8520809,4.34537
Руська православна церква (Московський патріархат),Руська православна церква (Московський патріархат),Руська православна церква (Московський патріархат),Брюсельсько-Бельгійська єпархія,Храм святої праведної Анни,Брюссель,https://www.archiepiskopia.be/,Бельгія,"Eglise Ste. Anne, Avenue des Trembles, 1020 Bruxelles (Laeken)",50.8887863,4.3494618
Руська православна церква (Московський патріархат),Руська православна церква (Московський патріархат),Руська православна церква (Московський патріархат),Брюсельсько-Бельгійська єпархія,Парафія св. Апостола та євангеліста Матвія,Левен,https://www.archiepiskopia.be/,Бельгія,"Tervuursestraat, 56, Bruxelles",50.8783787,4.6876628
Руська православна церква (Московський патріархат),Руська православна церква (Московський патріархат),Руська православна церква (Московський патріархат),Брюсельсько-Бельгійська єпархія,Храм Воздвиження чесного та життєдайного Хреста,Легліз,https://www.archiepiskopia.be/,Бельгія,"Rue de Luxembourg 76,
B-6860 Léglise",49.8006582,5.532817
Руська православна церква (Московський патріархат),Руська православна церква (Московський патріархат),Руська православна церква (Московський патріархат),Брюсельсько-Бельгійська єпархія,"Храм ікони Божої Матері ""Живоносне Джерело""",Льєж,https://www.archiepiskopia.be/,Бельгія,"Rue Ferrer 73,
B-4100 Seraing (Liège)",50.60921459999999,5.5087703
Руська православна церква (Московський патріархат),Руська православна церква (Московський патріархат),Руська православна церква (Московський патріархат),Брюсельсько-Бельгійська єпархія,Університетська православна каплиця,Лувен-ля-Ньов,https://www.archiepiskopia.be/,Бельгія,"ruelle Saint-Eloi 2,
1348 Louvain-la-Neuve",50.6680745,4.6175228
Руська православна церква (Московський патріархат),Руська православна церква (Московський патріархат),Руська православна церква (Московський патріархат),Брюсельсько-Бельгійська єпархія,Парафія святого Богоявлення (Хрещення Господнього),Мехелен,https://www.archiepiskopia.be/,Бельгія,"Frederik de Merodestraat 18,
B-2800 Mechelen",51.02938330000001,4.4813429
Руська православна церква (Московський патріархат),Руська православна церква (Московський патріархат),Руська православна церква (Московський патріархат),Брюсельсько-Бельгійська єпархія,Храм св. Архістратига Божого Михайла,Монс,https://www.archiepiskopia.be/,Бельгія,"Place des Martyrs 11 bis,
B-7000 Mons",50.44927329999999,3.9501352
Руська православна церква (Московський патріархат),Руська православна церква (Московський патріархат),Руська православна церква (Московський патріархат),Брюсельсько-Бельгійська єпархія,Парафія преподобного Серафима Саровського,Намюр,https://www.archiepiskopia.be/,Бельгія,"Avenue de la Vecquée 9,
B-5000 Namur",50.4483231,4.8502942
Руська православна церква (Московський патріархат),Руська православна церква (Московський патріархат),Руська православна церква (Московський патріархат),Брюсельсько-Бельгійська єпархія,Парафія св. Апостола Іоанна Богослова,Остенде,https://www.archiepiskopia.be/,Бельгія,"Sint-Catharinaplein 23
8400 - Oostende",51.2164528,2.9050547
Руська православна церква (Московський патріархат),Руська православна церква (Московський патріархат),Руська православна церква (Московський патріархат),Брюсельсько-Бельгійська єпархія,"Монастир ікони Божої Матері ""Всіх скорботних Радість""",Первейзе,https://www.archiepiskopia.be/,Бельгія,"Roesdammestraat 1,
B-8600 Pervijze (Diksmuide)",51.06633309999999,2.733803
Руська православна церква (Московський патріархат),Руська православна церква (Московський патріархат),Руська православна церква (Московський патріархат),Брюсельсько-Бельгійська єпархія,Монастир Іверської ікони Божої Матері,Трезін'ї,https://www.archiepiskopia.be/,Бельгія,"Rue du Caillou 3,
B-6183 Trazegnies",50.4623183,4.3331785
Руська православна церква (Московський патріархат),Руська православна церква (Московський патріархат),Руська православна церква (Московський патріархат),Брюсельсько-Бельгійська єпархія,Храм Святої Трійці,Шарлеруа,https://www.archiepiskopia.be/,Бельгія,"Chaussee de Charleroi 436,
B-6080 Montigny-sur-Sambre",50.40356370000001,4.455312699999999
Руська православна церква (Московський патріархат),Руська православна церква (Московський патріархат),Руська православна церква (Московський патріархат),Брюсельсько-Бельгійська єпархія,Каплиця Благовіщення Пресвятої Богородиці,Турне,https://www.archiepiskopia.be/,Бельгія,"Rue Albert 33,
B-7540 Kain",50.6251796,3.3903474
Руська православна церква (Московський патріархат),Руська православна церква (Московський патріархат),Руська православна церква (Московський патріархат),Брюсельсько-Бельгійська єпархія,Храм Різдва Пресвятої Богородиці,Кортрейк,https://www.archiepiskopia.be/,Бельгія,"Hoog Mosscher 61-76,
Kortrijk",50.8165337,3.2574395
Руська православна церква (Московський патріархат),РПЦ за кордоном,РПЦ за кордоном,Великобританська і Західно-Європейська єпархія РПЦЗ,Храм св. прав. Йова Багатостраждального,Брюссель,https://orthodox-europe.org,Бельгія,"8, avenue du Manoir, (avenue de Fré)
B–1180 Bruxelles, Belgique",50.8031391,4.3445944
Руська православна церква (Московський патріархат),РПЦ за кордоном,РПЦ за кордоном,Великобританська і Західно-Європейська єпархія РПЦЗ,Церква Воскресіння Христового,Брюссель,https://orthodox-europe.org,Бельгія,"42, rue des Drapiers
B–1050 Bruxelles, Belgique",50.8349716,4.3597907
Руська православна церква (Московський патріархат),Руська православна церква (Московський патріархат),Руська православна церква (Московський патріархат),,"Подвор'є РПЦ, Храм Святителя Миколи Чудотворця",Софія,http://podvorie-sofia.bg/,Болгарія,"г. София, 1000, бул. “Царь Освободитель”, № 3.",42.69566349999999,23.3289254
Руська православна церква (Московський патріархат),Руська православна церква (Московський патріархат),Руська православна церква (Московський патріархат),,Храм св. вмч. Пантелеймона,Княжево,http://podvorie-sofia.bg/,Болгарія,"г. София, бул. Цар Борис Трети, № 202, в двора на „Дом за възрастни хора с деменция“.",42.66380179999999,23.2554895
Руська православна церква (Московський патріархат),РПЦ за кордоном,РПЦ за кордоном,Великобританська і Західно-Європейська єпархія РПЦЗ,Єпархіальний кафедральний собор Різдва Пресвятої Богородиці та Святих Царських Мучеників,Лондон,https://orthodox-europe.org,Великобританія,"57 Harvard Road, Chiswick
London, W4 4ED",51.4898258,-0.276024
Руська православна церква (Московський патріархат),РПЦ за кордоном,РПЦ за кордоном,Великобританська і Західно-Європейська єпархія РПЦЗ,Парафія Великої Княгині Єлизавети Новомучениці,Ліверпуль,https://orthodox-europe.org,Великобританія,"Rake Lane Cemetery
Rake Lane, Liscard, Wallasey. CH45 5DE",53.4270341,-3.0421126
Руська православна церква (Московський патріархат),РПЦ за кордоном,РПЦ за кордоном,Великобританська і Західно-Європейська єпархія РПЦЗ,Парафія і коледж Божої Матері «Всіх скорботних радість»,Меттінгем,https://orthodox-europe.org,Великобританія,"The College of Our Lady of Mettingham
The White House, Mettingham, Suffolk, NR23 1TP",52.456698,1.47076
Руська православна церква (Московський патріархат),РПЦ за кордоном,РПЦ за кордоном,Великобританська і Західно-Європейська єпархія РПЦЗ,Парафія Св. Олександра Невського,Норвіч,https://orthodox-europe.org,Великобританія,"134-138 Oak Street
Norwich NR3 3BP",52.63651720000001,1.2888933
Руська православна церква (Московський патріархат),РПЦ за кордоном,РПЦ за кордоном,Великобританська і Західно-Європейська єпархія РПЦЗ,Парафія св. Чада Літчфілдського,Телфорд,https://orthodox-europe.org,Великобританія,"Worshipping at St Nicholas Serbian Church
Wellington Road, Telford, Shropshire TF2 8NQ",52.7240857,-2.4317018
Руська православна церква (Московський патріархат),РПЦ за кордоном,РПЦ за кордоном,Великобританська і Західно-Європейська єпархія РПЦЗ,Місія Св. Князя Володимира,Челтнем,https://orthodox-europe.org,Великобританія,"St John Chrysostom Greek Orthodox Church
Bentham Lane, Bentham, Cheltenham, GL3 4UG",51.8469061,-2.1273519
Руська православна церква (Московський патріархат),РПЦ за кордоном,РПЦ за кордоном,Великобританська і Західно-Європейська єпархія РПЦЗ,Місія Всемилостивого Спасителя,Сент-Леонардс-Он-Сі,https://orthodox-europe.org,Великобританія,Сент-Леонардс-Он-Сі,50.85563819999999,0.5525772
Руська православна церква (Московський патріархат),РПЦ за кордоном,РПЦ за кордоном,Великобританська і Західно-Європейська єпархія РПЦЗ,Всеправославна Каплиця Живоносного Джерела,Волсінгем,https://orthodox-europe.org,Великобританія,"A Pan-Orthodox Chapel on the grounds of
The Walsingham Shrine
Walsingham, NR22 6BP",52.8946704,0.8759113
Руська православна церква (Московський патріархат),РПЦ за кордоном,РПЦ за кордоном,Великобританська і Західно-Європейська єпархія РПЦЗ,Монастирська каплиця Св. Пантелеймона,Клактон-Он-Сі,https://orthodox-europe.org,Великобританія,"70 Jaywick Lane
Clacton-on-Sea
Essex CO16 8BB",51.7982625,1.1183331
Руська православна церква (Московський патріархат),РПЦ за кордоном,РПЦ за кордоном,Великобританська і Західно-Європейська єпархія РПЦЗ,Місія св. Миколи див.,Ліверпуль,https://orthodox-europe.org,Великобританія,Ліверпуль,53.4083714,-2.9915726
Руська православна церква (Московський патріархат),РПЦ за кордоном,РПЦ за кордоном,Великобританська і Західно-Європейська єпархія РПЦЗ,Парафія Св. Іоанна Шанхайського,Белфаст,https://orthodox-europe.org,Великобританія,"St John’s Orthodox Church
4 Ashfield Drive, Belfast, BT15 3FT",54.6229457,-5.933015600000001
Руська православна церква (Московський патріархат),РПЦ за кордоном,РПЦ за кордоном,Великобританська і Західно-Європейська єпархія РПЦЗ,Парафія Казанської ікони Божої Матері,Кардіфф,https://orthodox-europe.org,Великобританія,"The Church of St John the Evangelist
St John’s Crescent
Cardiff, CF5 1NX",51.4804144,-3.2025883
Руська православна церква (Московський патріархат),РПЦ за кордоном,РПЦ за кордоном,Великобританська і Західно-Європейська єпархія РПЦЗ,Місія св. Давида та св. Миколи,Суонсі,https://orthodox-europe.org,Великобританія,"Vivian Hall, 82 Mumbles Rd,
Black Pill, Swansea SA3 5AS",51.5974833,-3.9954576
Руська православна церква (Московський патріархат),Руська православна церква (Московський патріархат),Руська православна церква (Московський патріархат),Сурозька єпархія,Парафія Усіх Святих Британії та Ірландії,Бірмінгем,http://www.sourozh.org/,Великобританія,"141 Hagley Rd, Edgbaston, Birmingham B16 8UE",52.47202309999999,-1.9290134
Руська православна церква (Московський патріархат),Руська православна церква (Московський патріархат),Руська православна церква (Московський патріархат),Сурозька єпархія,Парфія Усіх святих Уельських,Бленау Ффестініог,http://www.sourozh.org/,Великобританія,"Manod Rd, Blaenau Ffestiniog LL41 4AF",52.9842339,-3.9296073
Руська православна церква (Московський патріархат),Руська православна церква (Московський патріархат),Руська православна церква (Московський патріархат),Сурозька єпархія,Парафія Благовіщення Матері Божої,Данді,http://www.sourozh.org/,Великобританія,"Chaplaincy Centre, University of Dundee, Cross Row, Dundee, DD1 4HN",56.45801760000001,-2.9815929
Руська православна церква (Московський патріархат),Руська православна церква (Московський патріархат),Руська православна церква (Московський патріархат),Сурозька єпархія,Єпархіальна громада в Іпсвічі,Іспвіч,http://www.sourozh.org/,Великобританія,"St Mary at the Elms, Elm Street, Ipswich IP1 2AB",52.0570613,1.1499808
Руська православна церква (Московський патріархат),Руська православна церква (Московський патріархат),Руська православна церква (Московський патріархат),Сурозька єпархія,Єпархіальна громада в Кінгс Лінн,Кінгс Лінн,http://www.sourozh.org/,Великобританія,"St Margaret’s Minster, St Margaret’s Place, King’s Lynn, Norfolk, PE30 5DL",52.751664,0.3956502
Руська православна церква (Московський патріархат),Руська православна церква (Московський патріархат),Руська православна церква (Московський патріархат),Сурозька єпархія,Єпархіальна громада в Ньюрі,Ньюрі,http://www.sourozh.org/,Великобританія,"Hall for All, 33 Downshire Rd, Newry, BT34 1EE",54.1817285,-6.3322229
Руська православна церква (Московський патріархат),Руська православна церква (Московський патріархат),Руська православна церква (Московський патріархат),Сурозька єпархія,Єпархіальна громада в Танбрідж-Уеллс-Кент,Танбрідж-Уеллс-Кент,http://www.sourozh.org/,Великобританія,"St Luke’s Church, St Luke’s Road, Tunbridge Wells, TN4 9JH",51.14486340000001,0.2688776
Руська православна церква (Московський патріархат),Руська православна церква (Московський патріархат),Руська православна церква (Московський патріархат),Сурозька єпархія,Єпархіальна громада Базілдон,Базілдон,http://www.sourozh.org/,Великобританія,"St Nicholas Church Church Hill, Basildon, Essex, SS15 5RX",51.5791587,0.4356882
Руська православна церква (Московський патріархат),Руська православна церква (Московський патріархат),Руська православна церква (Московський патріархат),Сурозька єпархія,Єпархіальна громада Святого Седда,Саутгейт,http://www.sourozh.org/,Великобританія,"Southgate Methodist Church, 45 The Bourne, Southgate, N14 6RS",51.6317706,-0.1240045
Руська православна церква (Московський патріархат),Руська православна церква (Московський патріархат),Руська православна церква (Московський патріархат),Сурозька єпархія,Парафія Пресвятої Трійці в Брістолі,Брістоль,http://www.sourozh.org/,Великобританія,"St John Fisher Church, 56 Begbrook Park, Frenchay, Bristol BS16 1NF",51.4944382,-2.5271029
Руська православна церква (Московський патріархат),Руська православна церква (Московський патріархат),Руська православна церква (Московський патріархат),Сурозька єпархія,Парафія Матері Божої Живоносного Джерела м. Волсінгема,Волсінгем,http://www.sourozh.org/,Великобританія,"Pan-Orthodox Chapel at the  Shrine of Our Lady of Walsingham, Little Walsingham, Norfolk NR22 6EF",52.8946704,0.8759113
Руська православна церква (Московський патріархат),Руська православна церква (Московський патріархат),Руська православна церква (Московський патріархат),Сурозька єпархія,Парафія Різдва Господнього в Кінгстон-апон-Хілл,Кінгстон-апон-Хілл,http://www.sourozh.org/,Великобританія,"Saint Charles Borromeo, 12 Jarratt Street, Kingston-upon-Hull, HU1 3HB",53.7468654,-0.3389426
Руська православна церква (Московський патріархат),Руська православна церква (Московський патріархат),Руська православна церква (Московський патріархат),Сурозька єпархія,Парафія на честь Єрусалимської ікони Божої Матері,Брайтон,http://www.sourozh.org/,Великобританія,"St Richard Hollingdean Community Hall, 9 Beal Crescent, Brighton, East Sussex, BN1 7BU",50.8431046,-0.1268786
Руська православна церква (Московський патріархат),Руська православна церква (Московський патріархат),Руська православна церква (Московський патріархат),Сурозька єпархія,Парафія Святого Миколая,Лондон,http://www.sourozh.org/,Великобританія,"69 Watling St, London EC4N 4SJ",51.5129946,-0.0933777
Руська православна церква (Московський патріархат),Руська православна церква (Московський патріархат),Руська православна церква (Московський патріархат),Сурозька єпархія,Парафія Стрітення Господнього у Бредфорді,Бредфорд,http://www.sourozh.org/,Великобританія,"98 Little Horton Lane, Bradford BD5 0JG",53.7857885,-1.7599148
Руська православна церква (Московський патріархат),Руська православна церква (Московський патріархат),Руська православна церква (Московський патріархат),Сурозька єпархія,Парафія Покрова Пресвятої Богородиці (Покров),Манчестер,http://www.sourozh.org/,Великобританія,"64 Clarence Road, Longsight, Manchester M13 0YE",53.4573994,-2.2068221
Руська православна церква (Московський патріархат),Руська православна церква (Московський патріархат),Руська православна церква (Московський патріархат),Сурозька єпархія,Парафія св. Ейдана та св. Діти в Ноттінгемі,Ноттінгем,http://www.sourozh.org/,Великобританія,"Carlton Road, Carlton, Nottingham NG4 1EE",52.9638334,-1.1174087
Руська православна церква (Московський патріархат),Руська православна церква (Московський патріархат),Руська православна церква (Московський патріархат),Сурозька єпархія,Парафія Святого Альбана в Лутоні,Лутон,http://www.sourozh.org/,Великобританія,"Buckle Close, Luton LU3 3RT",51.9172025,-0.4519791
Руська православна церква (Московський патріархат),Руська православна церква (Московський патріархат),Руська православна церква (Московський патріархат),Сурозька єпархія,Парафія Святих Антонія та Іллі у Тотнесі,Тотнес,http://www.sourozh.org/,Великобританія,"5 Priory Drive, Totnes, Devon, TQ9 5HU",50.4332439,-3.6868465
Руська православна церква (Московський патріархат),Руська православна церква (Московський патріархат),Руська православна церква (Московський патріархат),Сурозька єпархія,Парафія Святого Катберта в Труро,Труро,http://www.sourozh.org/,Великобританія,"23 The Coombe, Newlyn, Penzance TR18 5HR",50.1070609,-5.5515662
Руська православна церква (Московський патріархат),Руська православна церква (Московський патріархат),Руська православна церква (Московський патріархат),Сурозька єпархія,Парафія Святого Давида Уельського в Дербі,Дербі,http://www.sourozh.org/,Великобританія,"St. Mary's Bridge, Derby DE1 3AT",52.92713,-1.4751198
Руська православна церква (Московський патріархат),Руська православна церква (Московський патріархат),Руська православна церква (Московський патріархат),Сурозька єпархія,"Парафія Святого Едуарда, короля і мученика в Уїмборні",Уїмборн,http://www.sourozh.org/,Великобританія,"Church St., Shapwick, Dorset, DT11 9LA",50.8145884,-2.0898159
Руська православна церква (Московський патріархат),Руська православна церква (Московський патріархат),Руська православна церква (Московський патріархат),Сурозька єпархія,Парафія преподобного Єфрема Сиріна в Кембриджі,Кембрідж,http://www.sourozh.org/,Великобританія,"Bridge Street, Cambridge, CB2 1UF",52.2091576,0.1176217
Руська православна церква (Московський патріархат),Руська православна церква (Московський патріархат),Руська православна церква (Московський патріархат),Сурозька єпархія,Парафія святого Фініана Клонарського в Белфасті,Белфаст,http://www.sourozh.org/,Великобританія,"105 High St, Belfast, BT1 2AG, UK",54.5999382,-5.924929
Руська православна церква (Московський патріархат),Руська православна церква (Московський патріархат),Руська православна церква (Московський патріархат),Сурозька єпархія,Парафія Святого Георгія Побідоносця в Ньюкасл-апон-Тайн,Ньюкасл-апон-Тайн,http://www.sourozh.org/,Великобританія,"Jesmond Road, Newcastleupon Tyne, NE2 1NL",54.9844632,-1.599233
Руська православна церква (Московський патріархат),Руська православна церква (Московський патріархат),Руська православна церква (Московський патріархат),Сурозька єпархія,Парафія Святого Кентігера в Глазго,Глазго,http://www.sourozh.org/,Великобританія,"866 Govan Road, Glasgow G51 3UU",55.8646469,-4.3130171
Руська православна церква (Московський патріархат),Руська православна церква (Московський патріархат),Руська православна церква (Московський патріархат),Сурозька єпархія,Парафія Святого Махара Абердинського в Абердині,Абердин,http://www.sourozh.org/,Великобританія,"College Bounds, Old Aberdeen, AB24 3EE",57.1639872,-2.1020223
Руська православна церква (Московський патріархат),Руська православна церква (Московський патріархат),Руська православна церква (Московський патріархат),Сурозька єпархія,Парафія святого Нініана Уіторнського в Карлайлі,Карлайл,http://www.sourozh.org/,Великобританія,Карлайл,54.87464445664866,-2.919213302057266
Руська православна церква (Московський патріархат),Руська православна церква (Московський патріархат),Руська православна церква (Московський патріархат),Сурозька єпархія,Парафія святої Ольги до Пітерборо,Пітерборо,http://www.sourozh.org/,Великобританія,"All Saints Road, Peterborough, PE1 2UJ",52.5850055,-0.2401316
Руська православна церква (Московський патріархат),Руська православна церква (Московський патріархат),Руська православна церква (Московський патріархат),Сурозька єпархія,Парафія Святих Петра і Павла в Портсмуті,Портсмут,http://www.sourozh.org/,Великобританія,"St. Colman Ave, Cosham, Portsmouth, PO6 2JJ",50.8472581,-1.0622468
Руська православна церква (Московський патріархат),Руська православна церква (Московський патріархат),Руська православна церква (Московський патріархат),Сурозька єпархія,Парафія Святих Петра і Павла в Суїндоні,Суїндон,http://www.sourozh.org/,Великобританія,"The Rainbow Bookshop, Edgeware Road, Swindon  SN1 1QS",51.5607125,-1.7834495
Руська православна церква (Московський патріархат),Руська православна церква (Московський патріархат),Руська православна церква (Московський патріархат),Сурозька єпархія,Парафія преподобного Силуана Афонського в Саутгемптоні,Саутгемптон,http://www.sourozh.org/,Великобританія,"Millbrook Road, Southampton, SO15 0JZ",50.9141973,-1.4493164
Руська православна церква (Московський патріархат),Руська православна церква (Московський патріархат),Руська православна церква (Московський патріархат),Сурозька єпархія,Парафія Святого Тенеу в Единбурзі,Единбург,http://www.sourozh.org/,Великобританія,"1b Royal Terrace, EH7 5AB",55.9571787,-3.1813822
Руська православна церква (Московський патріархат),Руська православна церква (Московський патріархат),Руська православна церква (Московський патріархат),Сурозька єпархія,Парафія святої Ксенії Петербурзької в Лідсі,Лідс,http://www.sourozh.org/,Великобританія,"Wood Lane, Chapel Allerton, Leeds, United Kingdom LS7 3QF",53.8320266,-1.5410592
Руська православна церква (Московський патріархат),Руська православна церква (Московський патріархат),Руська православна церква (Московський патріархат),Сурозька єпархія,Парафія святого Андрія Первозванного в Ромфорді,Ромфорд,http://www.sourozh.org/,Великобританія,"5 Park End Rd, Romford RM1 4AT",51.5809951,0.1823839
Руська православна церква (Московський патріархат),Руська православна церква (Московський патріархат),Руська православна церква (Московський патріархат),Сурозька єпархія,Сестрицтво Святої Єлизавети у Бодіамі,Бодіам,http://www.sourozh.org/,Великобританія,"Rocks Farm, Bodiam, EAST SUSSEX, TN32 5RJ",50.98941440000001,0.5356419
Руська православна церква (Московський патріархат),Руська православна церква (Московський патріархат),Руська православна церква (Московський патріархат),Сурозька єпархія,Парафія святих рівноапостольних Костянтина та Олени в Йорку,Йорк,http://www.sourozh.org/,Великобританія,"Bishophill Junior, York, YO1 6EN",53.955724,-1.0870382
Руська православна церква (Московський патріархат),Руська православна церква (Московський патріархат),Руська православна церква (Московський патріархат),Сурозька єпархія,Парафія святителя Миколи Чудотворця в Оксфорді,Оксфорд,http://www.sourozh.org/,Великобританія,"34 Ferry Rd, Marston, Oxford  OX3 0EU",51.7600807,-1.2378129
Руська православна церква (Московський патріархат),Руська православна церква (Московський патріархат),Руська православна церква (Московський патріархат),Сурозька єпархія,Парафія Царських Страстотерпців у Дугласі,Дуглас,http://www.sourozh.org/,Великобританія,"North Quay, Douglas, IM2 1AZ",54.14876686933668,-4.479808265245264
Руська православна церква (Московський патріархат),Руська православна церква (Московський патріархат),Руська православна церква (Московський патріархат),Сурозька єпархія,Єпархіальний собор Успіння Божої Матері та Усіх Святих,Лондон,http://www.sourozh.org/,Великобританія,"67 Ennismore Gardens, London  SW7 1NH",51.5004941,-0.1690805
Елладська православна церква,,Елладська православна церква,,Храм на честь Сумельської ікони Божої Матері в Афінах,Афіни,https://www.psa.org.gr/,Греція,"El. Venizelou 73, Acharnes 136 74",38.097308,23.728651
Елладська православна церква,,Елладська православна церква,,Храм на честь Серафима Саровського у Салоніках,Салоніки,https://www.seraphim.gr/,Греція,"Iasonidou 2, Thessaloniki 564 29",40.6866014,22.9291639
Руська православна церква (Московський патріархат),РПЦ за кордоном,РПЦ за кордоном,Німецька єпархія РПЦЗ,Парафія на честь священномученика Климента Папи Римського,Орхус,https://rocor.de/,Данія,"Åby Kirkevej 1,
8230 Aarhus",56.14562590000001,10.1624436
Руська православна церква (Московський патріархат),РПЦ за кордоном,РПЦ за кордоном,Німецька єпархія РПЦЗ,Храм св. благовірного вел. Князя Олександра Невського,Копенгаген,https://rocor.de/,Данія,"Bredgade 53,
DK-1260 Copenhagen",55.6852416,12.5908269
Руська православна церква (Московський патріархат),Руська православна церква (Московський патріархат),Руська православна церква (Московський патріархат),РПЦ в Данії,Парафія святителя Миколая у м. Hobro,Хобро,https://ortodoxy.dk/,Данія,"Onsildgade 1, 9500  Hobro",56.6344393,9.7938587
Руська православна церква (Московський патріархат),Руська православна церква (Московський патріархат),Руська православна церква (Московський патріархат),РПЦ в Данії,Храм святих Царських страстотерпців Російських на о. Богу,Богу,https://ortodoxy.dk/,Данія,"Prinsehoejsvej 35, Baagoe 5160, Assens",55.3106118,9.8099926
Руська православна церква (Московський патріархат),РПЦ за кордоном,РПЦ за кордоном,Великобританська і Західно-Європейська єпархія РПЦЗ,Парафія Св. Колмана Огавальского,Страдбалі,https://orthodox-europe.org,Ірландія,"St Colman’s Orthodox Church
The Abbeyleix Road
1km from Stradbally, Co. Laois",52.9152801,-7.347892300000001
Руська православна церква (Московський патріархат),Руська православна церква (Московський патріархат),Руська православна церква (Московський патріархат),Сурозька єпархія,Парафія Святого Богоявлення,Атлон,http://www.sourozh.org/,Ірландія,"Summerhill, Crannagh, Athlone, Co. Roscommon, N37 T298",53.4112208,-7.9888948
Руська православна церква (Московський патріархат),Руська православна церква (Московський патріархат),Руська православна церква (Московський патріархат),Сурозька єпархія,"Єпархіальна громада Святителя Тихона, Патріарха Московського і всієї Русі",Каслбар,http://www.sourozh.org/,Ірландія,"F23 RY60, Derrycreeve, Co. Mayo",53.84749979999999,-9.4133213
Руська православна церква (Московський патріархат),Руська православна церква (Московський патріархат),Руська православна церква (Московський патріархат),Сурозька єпархія,Парафія Святої Трійці П'ятидесятниці,Корк,http://www.sourozh.org/,Ірландія,"Fr Matthew Quay, Cork",51.8954635,-8.4705585
Руська православна церква (Московський патріархат),Руська православна церква (Московський патріархат),Руська православна церква (Московський патріархат),Сурозька єпархія,Парафія Введення в храм Пресвятої Богородиці,Дрогеда,http://www.sourozh.org/,Ірландія,"Peter's Hill, Drogheda, Co. Louth",53.7164568,-6.350891
Руська православна церква (Московський патріархат),Руська православна церква (Московський патріархат),Руська православна церква (Московський патріархат),Сурозька єпархія,Парафія Святих апостолів Петра і Павла,Дублін,http://www.sourozh.org/,Ірландія,"Mount Argus Rd, Dublin 6W",53.3235851,-6.281638099999999
Руська православна церква (Московський патріархат),Руська православна церква (Московський патріархат),Руська православна церква (Московський патріархат),Сурозька єпархія,Парафія Святого Миколая Чудотворця,Голвей,http://www.sourozh.org/,Ірландія,"Market Place, Galway",53.2898419,-9.0224697
Руська православна церква (Московський патріархат),Руська православна церква (Московський патріархат),Руська православна церква (Московський патріархат),Сурозька єпархія,Єпархіальна громада Казанської ікони Божої Матері,Леттеркенні,http://www.sourozh.org/,Ірландія,"IOSAS Center, Derryvane, Muff, Co Donegal",55.0543574,-7.3285746
Руська православна церква (Московський патріархат),Руська православна церква (Московський патріархат),Руська православна церква (Московський патріархат),Сурозька єпархія,Парафія Іоанна Богослова,Лімерик,http://www.sourozh.org/,Ірландія,"St. Michael’s Church, Denmark St., Limerick",52.6641575,-8.6248735
Руська православна церква (Московський патріархат),Руська православна церква (Московський патріархат),Руська православна церква (Московський патріархат),Сурозька єпархія,Єпархіальна громада Св. Атракти,Слайго,http://www.sourozh.org/,Ірландія,"St. Bernadettes Chapel, JF Kennedy parade, Sligo. Co. Sligo",54.2714377,-8.4696143
Руська православна церква (Московський патріархат),Руська православна церква (Московський патріархат),Руська православна церква (Московський патріархат),Сурозька єпархія,Парафія Святого Патріка Ірландського,Вотерфорд,http://www.sourozh.org/,Ірландія,"Saint Paul's Boxing Club (1st floor), Lisduggan,  Waterford, X91XW80",52.2496895,-7.1323319
Руська православна церква (Московський патріархат),Руська православна церква (Московський патріархат),Руська православна церква (Московський патріархат),Іспано-Португальська єпархія,Храм на честь Архангела Михаїла,Алтея,http://orthodoxspain.com,Іспанія,"Calle Noraу, 1 Altea Alicante 03590",38.6305806,-0.0446062
Руська православна церква (Московський патріархат),Руська православна церква (Московський патріархат),Руська православна церква (Московський патріархат),Іспано-Португальська єпархія,Кафедральний собор на честь святої рівноапостольної Марії Магдалини,Мадрид,http://orthodoxspain.com,Іспанія,"Gran Via de Hortaleza, 48 28043 Madrid",40.4669971,-3.6515315
Руська православна церква (Московський патріархат),Руська православна церква (Московський патріархат),Руська православна церква (Московський патріархат),Іспано-Португальська єпархія,Парафія на честь Стрітення Господнього,Тенеріфе,http://orthodoxspain.com,Іспанія,"г. Callao Salvaje, ул. Avenida del Jable,1, Испания. о. Тенерифе, Канарские острова",28.1316268,-16.7772619
Руська православна церква (Московський патріархат),Руська православна церква (Московський патріархат),Руська православна церква (Московський патріархат),Іспано-Португальська єпархія,Парафія на честь великомученика Георгія,Валенсія,http://orthodoxspain.com,Іспанія,"Spain, CNorte 6 46008 Valencia España",39.47503090000001,-0.3904552
Руська православна церква (Московський патріархат),Руська православна церква (Московський патріархат),Руська православна церква (Московський патріархат),Іспано-Португальська єпархія,Храм Різдва Пресвятої Богородиці,Торревьєха,http://orthodoxspain.com,Іспанія,"03183 Torrevieja Urbanización Calas Blancas, calle Bruselas 4",37.9846095,-0.6674564
Руська православна церква (Московський патріархат),Руська православна церква (Московський патріархат),Руська православна церква (Московський патріархат),Іспано-Португальська єпархія,Парафія на честь святого великомученика Георгія та святої мучениці Анастасії,Калонже,http://orthodoxspain.com,Іспанія,"Avenida Andorra, 21 (C-253), Calonge",41.8474119,3.1009288
Руська православна церква (Московський патріархат),Руська православна церква (Московський патріархат),Руська православна церква (Московський патріархат),Іспано-Португальська єпархія,Храм Благовіщення Пресвятої Богородиці,Барселона,http://orthodoxspain.com,Іспанія,"Carrer de la Mare de Déu dels Reis,12",41.4131109,2.145474
Руська православна церква (Московський патріархат),Руська православна церква (Московський патріархат),Руська православна церква (Московський патріархат),Іспано-Португальська єпархія,Парафія на честь Вознесіння Господнього,Марбелья,http://orthodoxspain.com,Іспанія,"calle Hermanos Alvarez Quintero, 4, 29670, San Pedro de Alcántara (Malaga)",36.4821322,-4.9898913
Руська православна церква (Московський патріархат),Руська православна церква (Московський патріархат),Руська православна церква (Московський патріархат),Іспано-Португальська єпархія,Парафія на честь святителя Миколи Чудотворця,Севілья,http://orthodoxspain.com,Іспанія,"calle Madre María Teresa 60, Sevilla",37.3831459,-5.961786399999999
Руська православна церква (Московський патріархат),Руська православна церква (Московський патріархат),Руська православна церква (Московський патріархат),Іспано-Португальська єпархія,Храм Різдва Христового,Пальма-де-Майорка,http://orthodoxspain.com,Іспанія,"Porta Pintada 9, Calle Sant Miquel esquina Calle Omos, 07001 Palma de Mallorca",39.5719813,2.6518994
Руська православна церква (Московський патріархат),Руська православна церква (Московський патріархат),Руська православна церква (Московський патріархат),Іспано-Португальська єпархія,Парафія на честь святих мучеників Кирика та Іулітти,Льорет-де-Мар,http://orthodoxspain.com,Іспанія,"carrer de Pitàgores, 6, 17310, Lloret de Mar, Girona",41.7025243,2.8335723
Руська православна церква (Московський патріархат),Руська православна церква (Московський патріархат),Руська православна церква (Московський патріархат),Іспано-Португальська єпархія,"Храм на честь ікони Божої Матері ""Скоропослушниця""",Таррагона,http://orthodoxspain.com,Іспанія,"Raval de la Mar (antigua carretera de La Pineda), sin número, Vila-seca, Tarragona",41.1059437,1.1535085
Руська православна церква (Московський патріархат),Руська православна церква (Московський патріархат),Руська православна церква (Московський патріархат),Іспано-Португальська єпархія,Парафія на честь преподобної Єгипетської Марії,Малага,http://orthodoxspain.com,Іспанія,"calle Obsidiana 6, Malaga",36.7102171,-4.456696099999999
Руська православна церква (Московський патріархат),Руська православна церква (Московський патріархат),Руська православна церква (Московський патріархат),Іспано-Португальська єпархія,Парафія преподобного Іова Почаєвського,Мурсія,http://orthodoxspain.com,Іспанія,"Murcia, av. Ciudad de Almeria, 91",37.9752428,-1.1410931
Руська православна церква (Московський патріархат),Руська православна церква (Московський патріархат),Руська православна церква (Московський патріархат),Іспано-Португальська єпархія,Парафія на честь Покрови Божої Матері,Гранада,http://orthodoxspain.com,Іспанія,"Calle Pedro Machuca 21, Granada",37.2034445,-3.6067209
Руська православна церква (Московський патріархат),Руська православна церква (Московський патріархат),Руська православна церква (Московський патріархат),Іспано-Португальська єпархія,Парафія на честь Іверської ікони Божої Матері,Аліканте,http://orthodoxspain.com,Іспанія,"Carrer Dr. Sapena, 39, 03013 Alacant, Alicante",38.3543155,-0.4765982
Руська православна церква (Московський патріархат),Руська православна церква (Московський патріархат),Руська православна церква (Московський патріархат),Іспано-Португальська єпархія,Парафія на честь благовірного князя Олександра Невського,Сарагоса,http://orthodoxspain.com,Іспанія,"España, Comunidad Autónoma de Aragón, Zaragoza, Calle Ricardo del Arco, 29",41.6598939,-0.8781460999999999
Руська православна церква (Московський патріархат),РПЦ за кордоном,РПЦ за кордоном,Великобританська і Західно-Європейська єпархія РПЦЗ,Парафія преп. Симеона новобогослова та св. Інокентія Московського,Аліканте,https://orthodox-europe.org,Іспанія,"Calle Tato, 6
03005 Alicante",38.34638899999999,-0.4959453999999999
Руська православна церква (Московський патріархат),РПЦ за кордоном,РПЦ за кордоном,Великобританська і Західно-Європейська єпархія РПЦЗ,Місія влкм. Серафима та св. Вікентія,Елче,https://orthodox-europe.org,Іспанія,"Iglesia de San Serafim Sarovskiy y San Vicente Diacono y Martir
Calle Porta la Morera 18, 03203 Elx, Elche",38.2911575,-0.6322614999999999
Руська православна церква (Московський патріархат),Руська православна церква (Московський патріархат),Руська православна церква (Московський патріархат),,Патріарше подвор'є на честь святителя Миколи Чудотворця,Барі,https://bargrad.com/,Італія,"Corso Benedetto Croce, 130
70125 Bari, Italia",41.1099688,16.8723695
Руська православна церква (Московський патріархат),Руська православна церква (Московський патріархат),Руська православна церква (Московський патріархат),Адміністрація парафій МП в Італії,Храм святої великомучениці Катерини,Рим,http://ortodossia.org/,Італія,"via del Lago Terrione 77/79, 00165 Roma",41.8950927,12.4540632
Руська православна церква (Московський патріархат),Руська православна церква (Московський патріархат),Руська православна церква (Московський патріархат),Адміністрація парафій МП в Італії,Храм святителя та чудотворця Миколая,Рим,http://ortodossia.org/,Італія,"via Palestro 69/71, 00185 Roma",41.9040375,12.50521
Руська православна церква (Московський патріархат),Руська православна церква (Московський патріархат),Руська православна церква (Московський патріархат),Адміністрація парафій МП в Італії,Громада на честь Святителя Миколая Чудотворця,Алессандрія,http://ortodossia.org/,Італія,Via Solero (AL) — Via Ugo Ghisiglieri — chiesa San Michele,44.9188318,8.5109952
Руська православна церква (Московський патріархат),Руська православна церква (Московський патріархат),Руська православна церква (Московський патріархат),Адміністрація парафій МП в Італії,Громада на честь Почаївської ікони Божої Матері,Анкона,http://ortodossia.org/,Італія,"via Valleniano 70, Ancona",43.6158299,13.518915
Руська православна церква (Московський патріархат),Руська православна церква (Московський патріархат),Руська православна церква (Московський патріархат),Адміністрація парафій МП в Італії,Парафія на честь Володимирської ікони Божої Матері,Бергамо,http://ortodossia.org/,Італія,piazza Sant’Anna 1,38.1151024,13.3648335
Руська православна церква (Московський патріархат),Руська православна церква (Московський патріархат),Руська православна церква (Московський патріархат),Адміністрація парафій МП в Італії,Парафія на честь святителя Василя Великого,Болонья,http://ortodossia.org/,Італія,"via Sant’Isaia, 35, 40123 Bologna",44.4940826,11.3321642
Руська православна церква (Московський патріархат),Руська православна церква (Московський патріархат),Руська православна церква (Московський патріархат),Адміністрація парафій МП в Італії,Парафія на честь Покрови Пресвятої Богородиці,Болонья,http://ortodossia.org/,Італія,"Via Saragozza,  2.  Cap 40135, Bologna",44.49021940000001,11.3373084
Руська православна церква (Московський патріархат),Руська православна церква (Московський патріархат),Руська православна церква (Московський патріархат),Адміністрація парафій МП в Італії,Парафія на честь Зіслання Святого Духа,Брешія,http://ortodossia.org/,Італія,"Chiesa Santi Cosma e Damiano, Via Cairoli 27, Brescia",45.53950529999999,10.2118238
Руська православна церква (Московський патріархат),Руська православна церква (Московський патріархат),Руська православна церква (Московський патріархат),Адміністрація парафій МП в Італії,Громада на честь святителя Миколи Чудотворця,Брешія,http://ortodossia.org/,Італія,"via San Faustino 36, Brescia",45.5420379,10.2196233
Руська православна церква (Московський патріархат),Руська православна церква (Московський патріархат),Руська православна церква (Московський патріархат),Адміністрація парафій МП в Італії,Громада на честь Благовіщення Пресвятої Богородиці,Б'єлла,http://ortodossia.org/,Італія,"via Mazzini 26/a , Biella
chiesa instituto Lasana",45.5635425,8.053171299999999
Руська православна церква (Московський патріархат),Руська православна церква (Московський патріархат),Руська православна церква (Московський патріархат),Адміністрація парафій МП в Італії,Парафія на честь св. блгв. великого князя Олександра Невського,Варезе,http://ortodossia.org/,Італія,"via Milazzo 15, Varese",45.8146944,8.8132888
Руська православна церква (Московський патріархат),Руська православна церква (Московський патріархат),Руська православна церква (Московський патріархат),Адміністрація парафій МП в Італії,Парафія на честь святих Жен-мироносиць,Венеція,http://ortodossia.org/,Італія,"Sestiere Santa Croce, campo San Zan Degolà 1",45.4415226,12.3276874
Руська православна церква (Московський патріархат),Руська православна церква (Московський патріархат),Руська православна церква (Московський патріархат),Адміністрація парафій МП в Італії,Парафія на честь святителя Миколи Чудотворця,Верона,http://ortodossia.org/,Італія,"Vicolo San Salvatore Vecchio, 9 Verona",45.4440811,10.9945662
Руська православна церква (Московський патріархат),Руська православна церква (Московський патріархат),Руська православна церква (Московський патріархат),Адміністрація парафій МП в Італії,Парафія на честь Усіх Святих,Верона,http://ortodossia.org/,Італія,"Chiesa S. Antonio, Via A. Manzoni — San Martino Buon Albergo",45.4267967,11.0821672
Руська православна церква (Московський патріархат),Руська православна церква (Московський патріархат),Руська православна церква (Московський патріархат),Адміністрація парафій МП в Італії,Парафія на честь святителя Миколи Чудотворця,Віченца,http://ortodossia.org/,Італія,Via Porta Santa Croce 55,41.8401649,12.8938163
Руська православна церква (Московський патріархат),Руська православна церква (Московський патріархат),Руська православна церква (Московський патріархат),Адміністрація парафій МП в Італії,Парафія на честь Преображення Господнього,Генуя,http://ortodossia.org/,Італія,Chiesa alla salita della Seta 3r — Genova,44.4047244,8.9290947
Руська православна церква (Московський патріархат),Руська православна церква (Московський патріархат),Руська православна церква (Московський патріархат),Адміністрація парафій МП в Італії,Громада на честь Пресвятої Трійці,Домодоссола,http://ortodossia.org/,Італія,"via Paolo Silva 1, Domodossola",46.1157382,8.290740999999999
Руська православна церква (Московський патріархат),Руська православна церква (Московський патріархат),Руська православна церква (Московський патріархат),Адміністрація парафій МП в Італії,Парафія на честь святих рівноап. царів Костянтина та Олени,Імола,http://ortodossia.org/,Італія,"Piazza  della  Conciliazione, 3 – Imola",44.3535437,11.711888
Руська православна церква (Московський патріархат),Руська православна церква (Московський патріархат),Руська православна церква (Московський патріархат),Адміністрація парафій МП в Італії,Парафія на честь преподобного Сави Освяченого,Кальярі,http://ortodossia.org/,Італія,"via del Duomo, 23, Cagliari 09124",39.2179864,9.116547899999999
Руська православна церква (Московський патріархат),Руська православна церква (Московський патріархат),Руська православна церква (Московський патріархат),Адміністрація парафій МП в Італії,Громада на честь преподобного Антонія Великого,Канту,http://ortodossia.org/,Італія,via D’Averio 20,45.4598811,9.2005913
Руська православна церква (Московський патріархат),Руська православна церква (Московський патріархат),Руська православна церква (Московський патріархат),Адміністрація парафій МП в Італії,Парафія в ім'я святого Іоанна Кронштадського,Кастровілларі,http://ortodossia.org/,Італія,Palazzo Gallo — Piazza Vittorio Emanuele II — 87012 Castrovillari (CS),39.8102849,16.2051809
Руська православна церква (Московський патріархат),Руська православна церква (Московський патріархат),Руська православна церква (Московський патріархат),Адміністрація парафій МП в Італії,Парафія на честь святої мучениці Агафії,Катанія,http://ortodossia.org/,Італія,"Piazza Cavour 1, Catania",37.517202,15.0827298
Руська православна церква (Московський патріархат),Руська православна церква (Московський патріархат),Руська православна церква (Московський патріархат),Адміністрація парафій МП в Італії,Громада на честь святих апостолів Петра та Павла,Комо,http://ortodossia.org/,Італія,"Via Castelnuovo 1, Como 22100",45.8023049,9.102109
Руська православна церква (Московський патріархат),Руська православна церква (Московський патріархат),Руська православна церква (Московський патріархат),Адміністрація парафій МП в Італії,Громада в ім'я Успіння Пресвятої Богородиці,Комо,http://ortodossia.org/,Італія,"piazza San Rocco — via Regina Teodolinda, 61  — Como",45.7980402,9.086550599999999
Руська православна церква (Московський патріархат),Руська православна церква (Московський патріархат),Руська православна церква (Московський патріархат),Адміністрація парафій МП в Італії,Громада на честь св. великомученика і цілителя Пантелеїмону,Крема,http://ortodossia.org/,Італія,via Civerchi 6 Crema,45.3638312,9.6886335
Руська православна церква (Московський патріархат),Руська православна церква (Московський патріархат),Руська православна церква (Московський патріархат),Адміністрація парафій МП в Італії,Парафія в ім'я Благовіщення Пресвятої Богородиці,Кьярі,http://ortodossia.org/,Італія,"Chiari (BS) via S. Sebastiano, 5",45.5327783,9.928666999999999
Руська православна церква (Московський патріархат),Руська православна церква (Московський патріархат),Руська православна церква (Московський патріархат),Адміністрація парафій МП в Італії,Громада на честь святителя Миколи Чудотворця,Лекко,http://ortodossia.org/,Італія,"via Seminario 35, Lecco",45.8640038,9.3946322
Руська православна церква (Московський патріархат),Руська православна церква (Московський патріархат),Руська православна церква (Московський патріархат),Адміністрація парафій МП в Італії,Парафія святої рівноапостольної Марії Магдалини,Леньяно,http://ortodossia.org/,Італія,"via Ponzella 40, Legnano (MI)",45.58703089999999,8.896419999999999
Руська православна церква (Московський патріархат),Руська православна церква (Московський патріархат),Руська православна церква (Московський патріархат),Адміністрація парафій МП в Італії,Парафія на честь ікони Божої Матері «Скоропослушниця»,Маррубіу,http://ortodossia.org/,Італія,"via Napoli 182, Marrubbiu, Sardegna",39.7518915,8.6406356
Руська православна церква (Московський патріархат),Руська православна церква (Московський патріархат),Руська православна церква (Московський патріархат),Адміністрація парафій МП в Італії,Парафія на честь Святих Архангелів Михаїла та Гавриїла,Маргера,http://ortodossia.org/,Італія,"Via della Pila 66, Marghera (VE)",45.4788958,12.2397063
Руська православна церква (Московський патріархат),Руська православна церква (Московський патріархат),Руська православна церква (Московський патріархат),Адміністрація парафій МП в Італії,Парафія на честь святителя Миколи Чудотворця,Мерано,http://ortodossia.org/,Італія,"Via Schaffer, 21 39012 Merano (BZ)",46.6651215,11.1682047
Руська православна церква (Московський патріархат),Руська православна церква (Московський патріархат),Руська православна церква (Московський патріархат),Адміністрація парафій МП в Італії,Парафія святителя Амвросія Медіоланського,Мілан,http://ortodossia.org/,Італія,"Largo Corsia dei Servi, 4 – 20122 – Milano",45.4646438,9.196026699999999
Руська православна церква (Московський патріархат),Руська православна церква (Московський патріархат),Руська православна церква (Московський патріархат),Адміністрація парафій МП в Італії,"Парафія на честь святих Сергія, Серафима та Вікентія",Мілан,http://ortodossia.org/,Італія,"via Giulini, angolo via Porlezza, Milano",45.4664054,9.1822065
Руська православна церква (Московський патріархат),Руська православна церква (Московський патріархат),Руська православна церква (Московський патріархат),Адміністрація парафій МП в Італії,Парафія на честь Усіх святих,Модена,http://ortodossia.org/,Італія,"piazza Liberazione, Quartiere Modena Est, 41100, Modena",44.6409213,10.9662549
Руська православна церква (Московський патріархат),Руська православна церква (Московський патріархат),Руська православна церква (Московський патріархат),Адміністрація парафій МП в Італії,Парафія на честь святої Блаженній Ксенії Петербурзької,Реджіо-Емілія,http://ortodossia.org/,Італія,Via Gonzaga 59/A,44.72483369450853,10.619769682226215
Руська православна церква (Московський патріархат),Руська православна церква (Московський патріархат),Руська православна церква (Московський патріархат),Адміністрація парафій МП в Італії,Парафія в ім'я святого апостола Андрія Первозванного,Неаполь,http://ortodossia.org/,Італія,"Via Leopoldo Rodino’, 20, 80138, Napoli",40.8463095,14.2579541
Руська православна церква (Московський патріархат),Руська православна церква (Московський патріархат),Руська православна церква (Московський патріархат),Адміністрація парафій МП в Італії,Парафія на честь святителя Миколи Чудотворця,Новара,http://ortodossia.org/,Італія,via C. Magnani Ricotti 25 – 28100 Novara (NO),45.4444958,8.6253843
Руська православна церква (Московський патріархат),Руська православна церква (Московський патріархат),Руська православна церква (Московський патріархат),Адміністрація парафій МП в Італії,Парафія на честь Пресвятої Трійці,Новелара,http://ortodossia.org/,Італія,"via Cavour, 10\1 Novellara",44.8492956,10.7317542
Руська православна церква (Московський патріархат),Руська православна церква (Московський патріархат),Руська православна церква (Московський патріархат),Адміністрація парафій МП в Італії,Парафія на честь Різдва Пресвятої Богородиці,Падуя,http://ortodossia.org/,Італія,"via SS.Fabiano e Sebastiano, 134 Padova",45.393322,11.8401778
Руська православна церква (Московський патріархат),Руська православна церква (Московський патріархат),Руська православна церква (Московський патріархат),Адміністрація парафій МП в Італії,Парафія св. Олександра Команського,Палермо,http://ortodossia.org/,Італія,"via Sant’Alessandro, 3 Palermo",38.1212458,13.3653271
Руська православна церква (Московський патріархат),Руська православна церква (Московський патріархат),Руська православна церква (Московський патріархат),Адміністрація парафій МП в Італії,Парафія на честь Пресвятої Трійці,Пезаро,http://ortodossia.org/,Італія,"chiesa san Giovanni Battista, via Paseri 98 Pesaro",43.9094238,12.9065861
Руська православна церква (Московський патріархат),Руська православна церква (Московський патріархат),Руська православна церква (Московський патріархат),Адміністрація парафій МП в Італії,Парафія на честь Різдва Пресвятої Богородиці,Перуджа,http://ortodossia.org/,Італія,"via Monteripido 2, 06125 Perugia,
presso la chiesa di San Matteo degli Armeni",43.1200365,12.3835508
Руська православна церква (Московський патріархат),Руська православна церква (Московський патріархат),Руська православна церква (Московський патріархат),Адміністрація парафій МП в Італії,Парафія на честь Різдва Пресвятої Богородиці,Пескара,http://ortodossia.org/,Італія,"Моntesilvano,  via Vestino 9",42.51539289999999,14.1492599
Руська православна церква (Московський патріархат),Руська православна церква (Московський патріархат),Руська православна церква (Московський патріархат),Адміністрація парафій МП в Італії,Парафія на честь святителя Спиридона Триміфунтського,Піза,http://ortodossia.org/,Італія,"Piazza San Matteo in Soarta, 1",43.7145118,10.4073446
Руська православна церква (Московський патріархат),Руська православна церква (Московський патріархат),Руська православна церква (Московський патріархат),Адміністрація парафій МП в Італії,Парафія на честь Різдва Пресвятої Богородиці,Пістоя,http://ortodossia.org/,Італія,"Via di Ripalta, 251100 Pistoia",43.9366376,10.9135151
Руська православна церква (Московський патріархат),Руська православна церква (Московський патріархат),Руська православна церква (Московський патріархат),Адміністрація парафій МП в Італії,Парафія на честь Трьох Святителів,П'яченца,http://ortodossia.org/,Італія,"Chiesa San Eustachio, via del Consiglio 9, Piacenza",45.0519452,9.6996754
Руська православна церква (Московський патріархат),Руська православна церква (Московський патріархат),Руська православна церква (Московський патріархат),Адміністрація парафій МП в Італії,Парафія на честь Покрови Пресвятої Богородиці,Равенна,http://ortodossia.org/,Італія,via Candiano 33 angolo piazza d’Armi – Ravenna,44.4166657,12.209912
Руська православна церква (Московський патріархат),Руська православна церква (Московський патріархат),Руська православна церква (Московський патріархат),Адміністрація парафій МП в Італії,Парафія в ім'я святих архангелів Михайла та Гавриїла,Роверето,http://ortodossia.org/,Італія,"Via R. Zotti, 17 Rovereto (TN) 38068",45.8861237,11.0225277
Руська православна церква (Московський патріархат),Руська православна церква (Московський патріархат),Руська православна церква (Московський патріархат),Адміністрація парафій МП в Італії,Громада на честь Собору святих славних та всіхвальних 12-ти Апостолів Христових,Спеція,http://ortodossia.org/,Італія,"via Giovani Bosco, 8-12. Cappella San Domenico Savio",44.1130347,9.8424207
Руська православна церква (Московський патріархат),Руська православна церква (Московський патріархат),Руська православна церква (Московський патріархат),Адміністрація парафій МП в Італії,Парафія на честь святих Безсрібників Косми та Даміана,Таранто,http://ortodossia.org/,Італія,"Via Minniti 4, Taranto",40.4678996,17.2507443
Руська православна церква (Московський патріархат),Руська православна церква (Московський патріархат),Руська православна церква (Московський патріархат),Адміністрація парафій МП в Італії,Парафія на честь святителя Миколи Чудотворця,Тревізо,http://ortodossia.org/,Італія,"Chiesa Sant’Agostino, Via S. Agostino 36, 31100 Treviso (TV)",45.66724689999999,12.2497931
Руська православна церква (Московський патріархат),Руська православна церква (Московський патріархат),Руська православна церква (Московський патріархат),Адміністрація парафій МП в Італії,Парафія в ім'я святої блаженної Ксенії Петербурзької,Тренто,http://ortodossia.org/,Італія,"Via R. Zotti 17, 38068  Rovereto (TN)",45.8861237,11.0225277
Руська православна церква (Московський патріархат),Руська православна церква (Московський патріархат),Руська православна церква (Московський патріархат),Адміністрація парафій МП в Італії,"Парафія в ім'я святителя Максима, єпископа Туринського",Турін,http://ortodossia.org/,Італія,Strada Val San Martino 7 — 10131 Torino,45.0552792,7.723143100000001
Руська православна церква (Московський патріархат),Руська православна церква (Московський патріархат),Руська православна церква (Московський патріархат),Адміністрація парафій МП в Італії,Парафія на честь Воскресіння Христового,Турін,http://ortodossia.org/,Італія,Via Monfalcone 20 — 10136 Torino,45.0489522,7.6469683
Руська православна церква (Московський патріархат),Руська православна церква (Московський патріархат),Руська православна церква (Московський патріархат),Адміністрація парафій МП в Італії,Парафія на честь Воздвиження Хреста Господнього,Удіне,http://ortodossia.org/,Італія,"Chiesa ortodossa, Via Pozzuolo, 330 Udine, 33100",46.03423189999999,13.2222766
Руська православна церква (Московський патріархат),Руська православна церква (Московський патріархат),Руська православна церква (Московський патріархат),Адміністрація парафій МП в Італії,Парафія на честь Святих Апостолів Петра та Павла,Фаєнца,http://ortodossia.org/,Італія,"Corso Giuseppe Mazzini 150, Faenza",44.2897185,11.8733337
Руська православна церква (Московський патріархат),Руська православна церква (Московський патріархат),Руська православна церква (Московський патріархат),Адміністрація парафій МП в Італії,Парафія на честь Покрови Пресвятої Богородиці,Феррара,http://ortodossia.org/,Італія,"Via Dell’Isola Bianca 3, Pontelagoscuro, Ferrara",44.8834851,11.6095336
Руська православна церква (Московський патріархат),Руська православна церква (Московський патріархат),Руська православна церква (Московський патріархат),Адміністрація парафій МП в Італії,Парафія на честь Казанської ікони Божої Матері,Феррара,http://ortodossia.org/,Італія,"Piazzetta Giovanni Tossignano, 2-4, 44121 Ferrara FE. Chiesa San Girolamo",44.8323972,11.6268196
Руська православна церква (Московський патріархат),Руська православна церква (Московський патріархат),Руська православна церква (Московський патріархат),Адміністрація парафій МП в Італії,Парафія на честь Святої Трійці,Фіденца,http://ortodossia.org/,Італія,Via A. Zani 53/a,44.4449054,12.2587083
Руська православна церква (Московський патріархат),Руська православна церква (Московський патріархат),Руська православна церква (Московський патріархат),Адміністрація парафій МП в Італії,"Громада на честь Різдва Пророка, Предтечі та Хрестителя Господнього Івана",Форте-деї-Мармі,http://ortodossia.org/,Італія,"Ripa- Pozzi-Ponterosso, Piazza 25 Aprile",43.986703,10.2254934
Руська православна церква (Московський патріархат),Руська православна церква (Московський патріархат),Руська православна церква (Московський патріархат),Адміністрація парафій МП в Італії,Парафія на честь Покрови Пресвятої Богородиці,Франкавілла Фонтану,http://ortodossia.org/,Італія,"Via Vittorio Veneto 55, Francavilla Fontana",40.5307614,17.5879785
Руська православна церква (Московський патріархат),РПЦ за кордоном,РПЦ за кордоном,Великобританська і Західно-Європейська єпархія РПЦЗ,Парафія Різдва Христового та св. Миколи Чудотворця,Флоренція,https://orthodox-europe.org,Італія,"Via Leone X, 8
50129 Firenze FI, Italy",43.7836141,11.2546783
Руська православна церква (Московський патріархат),РПЦ за кордоном,РПЦ за кордоном,Великобританська і Західно-Європейська єпархія РПЦЗ,Парафія Христа Спасителя і преп. Серафима,Сан Ремо,https://orthodox-europe.org,Італія,"Via Nuvoloni, 2,
18038 Sanremo IM, Italy",43.8145991,7.770406599999999
Руська православна церква (Московський патріархат),Руська православна церква (Московський патріархат),Руська православна церква (Московський патріархат),Гаазька і Нідерландська єпархія,Православний монастир Різдва Іоанна Предтечі в Гаазі,Гаага,www.russian-diocese.nl,Нідерланди,"1e Sweelinckstraat 54, 2517GE The Hague",52.083711,4.2885123
Руська православна церква (Московський патріархат),Руська православна церква (Московський патріархат),Руська православна церква (Московський патріархат),Гаазька і Нідерландська єпархія,Російський Православний монастир Святого Миколая Чудотворця у м. Хемелюм,Гемелюм,www.russian-diocese.nl,Нідерланди,"Buorren 18, 8584 VC Hemelum",52.88192670000001,5.4552855
Руська православна церква (Московський патріархат),Руська православна церква (Московський патріархат),Руська православна церква (Московський патріархат),Гаазька і Нідерландська єпархія,Храм Іоанна Хрестителя у Леювардені,Леуварден,www.russian-diocese.nl,Нідерланди,"De Hooidollen 17, 8918 HV Leeuwarden",53.2160048,5.7910257
Руська православна церква (Московський патріархат),Руська православна церква (Московський патріархат),Руська православна церква (Московський патріархат),Гаазька і Нідерландська єпархія,Парафія Преображення Господнього,Гронінген,www.russian-diocese.nl,Нідерланди,"Ganzevoortsingel 2, 9711 AL Groningen",53.213909,6.5618329
Руська православна церква (Московський патріархат),Руська православна церква (Московський патріархат),Руська православна церква (Московський патріархат),Гаазька і Нідерландська єпархія,Парафія Святого Архангела Михаїла,Зволле,www.russian-diocese.nl,Нідерланди,"Theodorahof 20, 8011 AA Zwolle",52.5110104,6.0849953
Руська православна церква (Московський патріархат),Руська православна церква (Московський патріархат),Руська православна церква (Московський патріархат),Гаазька і Нідерландська єпархія,Парафія Святого Корнилія Сотника,Амерсфорт,www.russian-diocese.nl,Нідерланди,"Matthias Withoosstraat 34, 3812 ST Amersfoort",52.157831,5.3730842
Руська православна церква (Московський патріархат),Руська православна церква (Московський патріархат),Руська православна церква (Московський патріархат),Гаазька і Нідерландська єпархія,Парафія преподобного Сергія Радонезького,Амстердам,www.russian-diocese.nl,Нідерланди,"Krom Boomssloot 22, 1011 GW Amsterdam",52.37169650000001,4.9021463
Руська православна церква (Московський патріархат),Руська православна церква (Московський патріархат),Руська православна церква (Московський патріархат),Гаазька і Нідерландська єпархія,Парафія Святителя Тихона Патріарха Московського,Неймеген,www.russian-diocese.nl,Нідерланди,"Byzantijnse kapel, Dobbelmanweg 3, 6531 KT Nijmegen",51.8301737,5.847672500000001
Руська православна церква (Московський патріархат),Руська православна церква (Московський патріархат),Руська православна церква (Московський патріархат),Гаазька і Нідерландська єпархія,Парафія Святого благовірного великого князя Олександра Невського,Роттердам,www.russian-diocese.nl,Нідерланди,"Schiedamsesingel, 220, 3012 BA Rotterdam",51.912422,4.479233700000001
Руська православна церква (Московський патріархат),Руська православна церква (Московський патріархат),Руська православна церква (Московський патріархат),Гаазька і Нідерландська єпархія,Парафія Святої Марії Магдалини,Гаага,www.russian-diocese.nl,Нідерланди,"Obrechtstraat 9, 2517 VL Den Haag",52.0834103,4.2885354
Руська православна церква (Московський патріархат),РПЦ за кордоном,РПЦ за кордоном,Великобританська і Західно-Європейська єпархія РПЦЗ,Церква преп. Марії Єгипетської,Амстердам,https://orthodox-europe.org,Нідерланди,"Oosteinclweg 394
NL-1432 BG Aalsmeer, Holland",52.2846988,4.7991329
Руська православна церква (Московський патріархат),РПЦ за кордоном,РПЦ за кордоном,Великобританська і Західно-Європейська єпархія РПЦЗ,Місія в Маастріхті,Маастріхт,https://orthodox-europe.org,Нідерланди,"6202 RB Maastricht
Postbus 4052, Holland",50.84830359999999,5.6709128
Руська православна церква (Московський патріархат),РПЦ за кордоном,РПЦ за кордоном,Великобританська і Західно-Європейська єпархія РПЦЗ,Парафія Покрови Богородиці,Арнем,https://orthodox-europe.org,Нідерланди,"Amsterdamseweg 96,
6814GG Arnhem, Holland",51.9870966,5.8975357
Руська православна церква (Московський патріархат),Руська православна церква (Московський патріархат),Руська православна церква (Московський патріархат),Берлінсько-Німецька єпархія,Парафія Стрітення Господнього,Ален,www.rokmp.de,Німеччина,"Langertstraße 116, 73431 Aalen",48.8243467,10.0999763
Руська православна церква (Московський патріархат),Руська православна церква (Московський патріархат),Руська православна церква (Московський патріархат),Берлінсько-Німецька єпархія,Громада при приході Воскресіння Господнього (Мюнхен),Альтеттінг,www.rokmp.de,Німеччина,"Ostpreussenstrasse 2, 84503 Altötting",48.21751339999999,12.6734206
Руська православна церква (Московський патріархат),Руська православна церква (Московський патріархат),Руська православна церква (Московський патріархат),Берлінсько-Німецька єпархія,Парафія цариці Грузинської Тамари,Аахен,www.rokmp.de,Німеччина,"Schuetzenstrasse 13, 52062 Aachen",50.7716564,6.0913808
Руська православна церква (Московський патріархат),Руська православна церква (Московський патріархат),Руська православна церква (Московський патріархат),Берлінсько-Німецька єпархія,Парафія Св. Чесного і Животворчого Хреста Господнього,Бад-Кройцнах,www.rokmp.de,Німеччина,"Holbeinstr.108, 55543 Bad Kreuznach (St. Franziskus Kirche)",49.84023819999999,7.884063699999999
Руська православна церква (Московський патріархат),Руська православна церква (Московський патріархат),Руська православна церква (Московський патріархат),Берлінсько-Німецька єпархія,Парафія Преображення Господнього та свт. Спиридона Триміфунтського,Баден-Баден,www.rokmp.de,Німеччина,"Königsberger Str. 16a, 76532 Baden-Baden",48.7805227,8.1892666
Руська православна церква (Московський патріархат),Руська православна церква (Московський патріархат),Руська православна церква (Московський патріархат),Берлінсько-Німецька єпархія,Парафія в ім'я святих апостолів,Байройт,www.rokmp.de,Німеччина,"Leuschnerstrasse 80, 95447 Bayreuth",49.9332655,11.5661124
Руська православна церква (Московський патріархат),Руська православна церква (Московський патріархат),Руська православна церква (Московський патріархат),Берлінсько-Німецька єпархія,Громада прп. Севастіана Карагандинського,Бамберг,www.rokmp.de,Німеччина,"Hauptstrasse, 30, 96049 Gaustadt (Katholische Kapelle St. Sebastian)",49.9048113,10.8561007
Руська православна церква (Московський патріархат),Руська православна церква (Московський патріархат),Руська православна церква (Московський патріархат),Берлінсько-Німецька єпархія,Кафедральний собор Воскресіння Христового,Берлін,www.rokmp.de,Німеччина,"Hohenzollerndamm 166, 10713 Berlin",52.4880612,13.307816
Руська православна церква (Московський патріархат),Руська православна церква (Московський патріархат),Руська православна церква (Московський патріархат),Берлінсько-Німецька єпархія,Храм прп. Сергія Радонезького,Берлін,www.rokmp.de,Німеччина,"Wildensteinesstrasse 10, 10318 Berlin",52.4799894,13.5229071
Руська православна церква (Московський патріархат),Руська православна церква (Московський патріархат),Руська православна церква (Московський патріархат),Берлінсько-Німецька єпархія,Храм рівноап. князя Володимира у районі м. Берліна Марцан – Хеллерсдорф,Берлін,www.rokmp.de,Німеччина,"Allee der Kosmonauten 184-188, 12685 Berlin-Marzahn",52.5400309,13.5624759
Руська православна церква (Московський патріархат),Руська православна церква (Московський патріархат),Руська православна церква (Московський патріархат),Берлінсько-Німецька єпархія,Храм рівноапп. Костянтина та Олени,Берлін,www.rokmp.de,Німеччина,"Wittestrasse 37, 13509 Berlin-Tegel",52.57817,13.3015641
Руська православна церква (Московський патріархат),Руська православна церква (Московський патріархат),Руська православна церква (Московський патріархат),Берлінсько-Німецька єпархія,Парафія св. Ісідора Ростовського,Берлін,www.rokmp.de,Німеччина,"Alt Lankwitz 43, 12247 Berlin",52.4381937,13.3570017
Руська православна церква (Московський патріархат),Руська православна церква (Московський патріархат),Руська православна церква (Московський патріархат),Берлінсько-Німецька єпархія,Громада в Шпандау,Берлін,www.rokmp.de,Німеччина,"Melanchtonplatz 1, 13595 Berlin",52.52129610000001,13.1888328
Руська православна церква (Московський патріархат),Руська православна церква (Московський патріархат),Руська православна церква (Московський патріархат),Берлінсько-Німецька єпархія,Громада в ім'я св. вмч. Іоанна Сочавського,Берлін,www.rokmp.de,Німеччина,"Robert-Siewert-Str 67, 10318 Berlin",52.4930031,13.5345054
Руська православна церква (Московський патріархат),Руська православна церква (Московський патріархат),Руська православна церква (Московський патріархат),Берлінсько-Німецька єпархія,Громада св. апостола Якова,Білефельд,www.rokmp.de,Німеччина,"Andreas Kapelle, Kiskerstraße 26, Bielefeld 33615",52.0233046,8.523357599999999
Руська православна церква (Московський патріархат),Руська православна церква (Московський патріархат),Руська православна церква (Московський патріархат),Берлінсько-Німецька єпархія,Храм свт. Нектарія Егінського та блж. Прокопія Устюзького,Бишофсхайм-на-Рене,www.rokmp.de,Німеччина,"Fastnachtsgasse 4, 97653 Bischofshein (Rhoen)",50.4004416,10.0086064
Руська православна церква (Московський патріархат),Руська православна церква (Московський патріархат),Руська православна церква (Московський патріархат),Берлінсько-Німецька єпархія,Парафія Покрова Пресвятої Богородиці,Бонн,www.rokmp.de,Німеччина,"Am Draitschbusch 2a, 53177 Bonn",50.6791344,7.147305999999999
Руська православна церква (Московський патріархат),Руська православна церква (Московський патріархат),Руська православна церква (Московський патріархат),Берлінсько-Німецька єпархія,Парафія ікони Божої Матері «Знамення» Курська-Корінна,Бракель,www.rokmp.de,Німеччина,"Ostheimerstrasse, 33034 Brakel",51.7131117,9.19323
Руська православна церква (Московський патріархат),Руська православна церква (Московський патріархат),Руська православна церква (Московський патріархат),Берлінсько-Німецька єпархія,Парафія ікони Божої Матері «Всіх Скорботних Радість»,Бранденбург,www.rokmp.de,Німеччина,"Brahmstrasse 12A, 14772 Brandenburg an der Havel",52.4287567,12.51442
Руська православна церква (Московський патріархат),Руська православна церква (Московський патріархат),Руська православна церква (Московський патріархат),Берлінсько-Німецька єпархія,Храм святих Царських страстотерпців,Бремен,www.rokmp.de,Німеччина,"Kleine Westerholzstrasse 17, 28309 Bremen",53.0532929,8.890907499999999
Руська православна церква (Московський патріархат),Руська православна церква (Московський патріархат),Руська православна церква (Московський патріархат),Берлінсько-Німецька єпархія,Парафія преп. Анастасії Київської та свщмч. Володимира Абарцумова,Бремерхафен,www.rokmp.de,Німеччина,"Schillerstraße 117, Bremerhaven",53.52388209999999,8.5974962
Руська православна церква (Московський патріархат),Руська православна церква (Московський патріархат),Руська православна церква (Московський патріархат),Берлінсько-Німецька єпархія,Храм св. рівноап. Марії Магдалини,Веймар,www.rokmp.de,Німеччина,"Pfarramt ROK, Windmühlenstraße 25 b, 99425 Weimar",50.9721082,11.3135138
Руська православна церква (Московський патріархат),Руська православна церква (Московський патріархат),Руська православна церква (Московський патріархат),Берлінсько-Німецька єпархія,Громада св. вмц. Ірини,Вертхайм,www.rokmp.de,Німеччина,Willi-Brand-Str. 1. 97877 Wertheim,49.7531089,9.4957133
Руська православна церква (Московський патріархат),Руська православна церква (Московський патріархат),Руська православна церква (Московський патріархат),Берлінсько-Німецька єпархія,"Громада трьох святителів Василя Великого, Григорія Богослова та Іоанна Золотоуста",Вормс,www.rokmp.de,Німеччина,"Landgrafenstraße 66, 67549 Worms",49.63423580000001,8.3208352
Руська православна церква (Московський патріархат),Руська православна церква (Московський патріархат),Руська православна церква (Московський патріархат),Берлінсько-Німецька єпархія,Надходження прмцц. вів. кн. Єлисавети та інокіні Варвари,Вупперталь,www.rokmp.de,Німеччина,"Vogelsangstrasse 106, 42109 Wuppertal",51.2745968,7.1426177
Руська православна церква (Московський патріархат),Руська православна церква (Московський патріархат),Руська православна церква (Московський патріархат),Берлінсько-Німецька єпархія,Парафія Благовіщення Пресвятої Богородиці,Вюрцбург,www.rokmp.de,Німеччина,"Zeller Straße 45, 97082 Würzburg",49.7937774,9.918678199999999
Руська православна церква (Московський патріархат),Руська православна церква (Московський патріархат),Руська православна церква (Московський патріархат),Берлінсько-Німецька єпархія,Парафія Воздвиження Хреста Господнього,Галле,www.rokmp.de,Німеччина,"Franckeplatz 1, 06110 Halle",51.4779707,11.9709711
Руська православна церква (Московський патріархат),Руська православна церква (Московський патріархат),Руська православна церква (Московський патріархат),Берлінсько-Німецька єпархія,Храм св. прав. Іоанна Кронштадтського,Гамбург,www.rokmp.de,Німеччина,"Tschaikovskiplatz 1, 20355 Hamburg",53.5568845,9.9751759
Руська православна церква (Московський патріархат),Руська православна церква (Московський патріархат),Руська православна церква (Московський патріархат),Берлінсько-Німецька єпархія,Храм свв. Жінок-мироносиць,Гамбург,www.rokmp.de,Німеччина,"Holstenkamp 89, 22525 Hamburg",53.5713291,9.9144691
Руська православна церква (Московський патріархат),Руська православна церква (Московський патріархат),Руська православна церква (Московський патріархат),Берлінсько-Німецька єпархія,Парафія рівноапп. Кирила та Мефодія,Гамбург,www.rokmp.de,Німеччина,"Billhorner Mühlenweg 31, 20539 Hamburg",53.5355608,10.0327408
Руська православна церква (Московський патріархат),Руська православна церква (Московський патріархат),Руська православна церква (Московський патріархат),Берлінсько-Німецька єпархія,Свято-Георгіївський чоловічий монастир,Бранденбург,www.rokmp.de,Німеччина,,53.09198763913793,13.672138184377479
Руська православна церква (Московський патріархат),Руська православна церква (Московський патріархат),Руська православна церква (Московський патріархат),Берлінсько-Німецька єпархія,"Громада в ім'я свт. Луки, архієпископа Кримського",Гамельн,www.rokmp.de,Німеччина,"Lohstraße 8, 31785 Hameln",52.102113,9.3673792
Руська православна церква (Московський патріархат),Руська православна церква (Московський патріархат),Руська православна церква (Московський патріархат),Берлінсько-Німецька єпархія,Парафія Благовіщення Пресвятої Богородиці,Ганновер,www.rokmp.de,Німеччина,"Schulenburger Landstrasse 126a, Hannover",52.40657270000001,9.712592299999999
Руська православна церква (Московський патріархат),Руська православна церква (Московський патріархат),Руська православна церква (Московський патріархат),Берлінсько-Німецька єпархія,Громада прав. Йоакима та Ганни,Гейдельберг,www.rokmp.de,Німеччина,"Ploeck 4, 69177 Heidelberg",49.40876979999999,8.6959355
Руська православна церква (Московський патріархат),Руська православна церква (Московський патріархат),Руська православна церква (Московський патріархат),Берлінсько-Німецька єпархія,Парафія на честь ікони Божої Матері «Жировицька»,Гіссен,www.rokmp.de,Німеччина,"Egerländerstr. 6, 35396 Giessen",50.5957685,8.6772042
Руська православна церква (Московський патріархат),Руська православна церква (Московський патріархат),Руська православна церква (Московський патріархат),Берлінсько-Німецька єпархія,Храм свт. Миколи Чудотворця,Гіфхорн,www.rokmp.de,Німеччина,"Bromer Straße 2, 38518 Gifhorn",52.49251,10.5480169
Руська православна церква (Московський патріархат),Руська православна церква (Московський патріархат),Руська православна церква (Московський патріархат),Берлінсько-Німецька єпархія,Громада блж. Матрони Московської,Грайфсвальд,www.rokmp.de,Німеччина,"An der Christuskirche 1, 17491 Greifswald",54.084117,13.4245659
Руська православна церква (Московський патріархат),Руська православна церква (Московський патріархат),Руська православна церква (Московський патріархат),Берлінсько-Німецька єпархія,Парафія Архістратига Божого Михайла,Геттинген,www.rokmp.de,Німеччина,"Stauffenbergring 4, 37075 Göttingen",51.5477858,9.9601937
Руська православна церква (Московський патріархат),Руська православна церква (Московський патріархат),Руська православна церква (Московський патріархат),Берлінсько-Німецька єпархія,Чоловічий монастир вмч. Георгія Побідоносця в Гьотшендорфі,Гетшендорф,www.rokmp.de,Німеччина,"Germany, St. Georgskloster, Russische Orthodoxe Kirche Götschendorf 33, 17268 Milmersdorf",53.0919039,13.672106
Руська православна церква (Московський патріархат),Руська православна церква (Московський патріархат),Руська православна церква (Московський патріархат),Берлінсько-Німецька єпархія,Воскресенська каплиця-пам'ятник,Дахау,www.rokmp.de,Німеччина,"Alte Römerstr. 75, 85221 Dachau",48.2682845,11.469956
Руська православна церква (Московський патріархат),Руська православна церква (Московський патріархат),Руська православна церква (Московський патріархат),Берлінсько-Німецька єпархія,Громада рівноап. Миколи Японського,Деммин,www.rokmp.de,Німеччина,"St. Bartholomäus Kirche, Kirchplatz 7, 17109 Demmin",53.9067,13.03453
Руська православна церква (Московський патріархат),Руська православна церква (Московський патріархат),Руська православна церква (Московський патріархат),Берлінсько-Німецька єпархія,Парафія святителя Луки Кримського,Дибург,www.rokmp.de,Німеччина,"Minnefeld 36, 64807 Dieburg",49.9016212,8.8427168
Руська православна церква (Московський патріархат),Руська православна церква (Московський патріархат),Руська православна церква (Московський патріархат),Берлінсько-Німецька єпархія,Парафія Святої Живоначальної Трійці,Дортмунд,www.rokmp.de,Німеччина,"Flurstr. 39, 44145 Dortmund",51.5274455,7.4861995
Руська православна церква (Московський патріархат),Руська православна церква (Московський патріархат),Руська православна церква (Московський патріархат),Берлінсько-Німецька єпархія,Храм прп. Симеона Дивногорця,Дрезден,www.rokmp.de,Німеччина,"Fritz-Löffler-Str. 19, 01069 Dresden",51.0334893,13.7312145
Руська православна церква (Московський патріархат),Руська православна церква (Московський патріархат),Руська православна церква (Московський патріархат),Берлінсько-Німецька єпархія,Парафія на честь ікони Божої Матері «Відрада та Втіха»,Дуйсбург,www.rokmp.de,Німеччина,Norbertuskirchplatz 10 47166 Duisburg,51.4988661,6.7843096
Руська православна церква (Московський патріархат),Руська православна церква (Московський патріархат),Руська православна церква (Московський патріархат),Берлінсько-Німецька єпархія,Храм Покрови Пресвятої Богородиці,Дюссельдорф,www.rokmp.de,Німеччина,"Ellerstrasse 213
40227 Düsseldorf",51.2131781,6.8054952
Руська православна церква (Московський патріархат),Руська православна церква (Московський патріархат),Руська православна церква (Московський патріархат),Берлінсько-Німецька єпархія,Парафія Михайла Архангела і всіх Небесних Сил безтілесних,Зинген,www.rokmp.de,Німеччина,"Erzengel-Michael-Kapelle im Park an der Goethe-Straße, Singen",47.7670971,8.8722387
Руська православна церква (Московський патріархат),Руська православна церква (Московський патріархат),Руська православна церква (Московський патріархат),Берлінсько-Німецька єпархія,Громада Успіння Пресвятої Богородці,Зулінген,www.rokmp.de,Німеччина,"Edenstrasse 57, 27232 Sulingen",52.6794,8.82217
Руська православна церква (Московський патріархат),Руська православна церква (Московський патріархат),Руська православна церква (Московський патріархат),Берлінсько-Німецька єпархія,Громада в місті Єна,Йєна,www.rokmp.de,Німеччина,"Werner-Seelenbinder-Strasse 26, 07747 Jena",50.8818619,11.6116041
Руська православна церква (Московський патріархат),Руська православна церква (Московський патріархат),Руська православна церква (Московський патріархат),Берлінсько-Німецька єпархія,Громада ікони Божої Матері «Володимирська»,Кайзерслаутерн,www.rokmp.de,Німеччина,Kloster Str.6 D- 67655 Kaiserslautern,49.446026,7.773187399999999
Руська православна церква (Московський патріархат),Руська православна церква (Московський патріархат),Руська православна церква (Московський патріархат),Берлінсько-Німецька єпархія,Парафія Новомучеників та сповідників Російських,Кассель,www.rokmp.de,Німеччина,"Steinweg, 34117 Kassel",51.313871,9.5005532
Руська православна церква (Московський патріархат),Руська православна церква (Московський патріархат),Руська православна церква (Московський патріархат),Берлінсько-Німецька єпархія,Храм святителя Миколая Чудотворця,Кемптен,www.rokmp.de,Німеччина,"die katholischen Seelenkapelle, Fürstenstr. 7, Kempten",47.7298059,10.3086928
Руська православна церква (Московський патріархат),Руська православна церква (Московський патріархат),Руська православна церква (Московський патріархат),Берлінсько-Німецька єпархія,Парафія пророка Предтечі Іоанна Хрестителя,Кіль,www.rokmp.de,Німеччина,"Manrade 2, 24105 Kiel",54.3600888,10.1132959
Руська православна церква (Московський патріархат),Руська православна церква (Московський патріархат),Руська православна церква (Московський патріархат),Берлінсько-Німецька єпархія,Громада св. рівноапостольної княгині Ольги у Клеві,Клеве,www.rokmp.de,Німеччина,"Böllenstege 4, 47533 Kleve",51.7858378,6.1351963
Руська православна церква (Московський патріархат),Руська православна церква (Московський патріархат),Руська православна церква (Московський патріархат),Берлінсько-Німецька єпархія,Парафія святих благовірних князів Бориса та Гліба,Кобленц,www.rokmp.de,Німеччина,Zwickauer Str. 6 56075 Koblenz-Karthause,50.3369608,7.566062
Руська православна церква (Московський патріархат),Руська православна церква (Московський патріархат),Руська православна церква (Московський патріархат),Берлінсько-Німецька єпархія,Громада прп. Серафима Саровського,Кобург,www.rokmp.de,Німеччина,"Leopoldstr. 15, 96450 Coburg",50.2578335,10.9700924
Руська православна церква (Московський патріархат),Руська православна церква (Московський патріархат),Руська православна церква (Московський патріархат),Берлінсько-Німецька єпархія,Парафія святого блаженного Прокопія Устюзького,Констанц,www.rokmp.de,Німеччина,"Rheingasse 20, 78462 Konstanz",47.6654126,9.177043399999999
Руська православна церква (Московський патріархат),Руська православна церква (Московський патріархат),Руська православна церква (Московський патріархат),Берлінсько-Німецька єпархія,Храм вмц. Варвари,Крефельд,www.rokmp.de,Німеччина,"Wielandstr. 11, 47799 Krefeld",51.3407183,6.5700911
Руська православна церква (Московський патріархат),Руська православна церква (Московський патріархат),Руська православна церква (Московський патріархат),Берлінсько-Німецька єпархія,Парафія святих рівноапостольних царя Костянтина та цариці Олени,Кельн,www.rokmp.de,Німеччина,"Maria-Ablaß-Platz 14, 50668 Köln",50.9431368,6.951582699999999
Руська православна церква (Московський патріархат),Руська православна церква (Московський патріархат),Руська православна церква (Московський патріархат),Берлінсько-Німецька єпархія,Громада Святого Духа,Лар,www.rokmp.de,Німеччина,Untere Hauptstraße 33 77933 Lahr/Schwarzwald,48.3656973,7.833309
Руська православна церква (Московський патріархат),Руська православна церква (Московський патріархат),Руська православна церква (Московський патріархат),Берлінсько-Німецька єпархія,"Храм-пам'ятник Святителя Олексія, митрополита Московського",Лейпциг,www.rokmp.de,Німеччина,"Philipp-Rosenthal-Strasse 51a
04103 Leipzig",51.3241624,12.3969268
Руська православна церква (Московський патріархат),Руська православна церква (Московський патріархат),Руська православна церква (Московський патріархат),Берлінсько-Німецька єпархія,Парафія священномученика Іларіона Верейського,Лер,www.rokmp.de,Німеччина,"Ringstraße 40, 26789 Leer (Ostfriesland)",53.2397849,7.462548000000001
Руська православна церква (Московський патріархат),Руська православна церква (Московський патріархат),Руська православна церква (Московський патріархат),Берлінсько-Німецька єпархія,Громада в місті Лінген,Лінген,www.rokmp.de,Німеччина,Heinrichstr.1 in Lingen,52.520267,7.3328288
Руська православна церква (Московський патріархат),Руська православна церква (Московський патріархат),Руська православна церква (Московський патріархат),Берлінсько-Німецька єпархія,Громада в ім'я святого апостола Іоанна Богослова місті Ліндау,Ліндау,www.rokmp.de,Німеччина,"Ulrichskapelle, Anheggerstr.3, Lindau, 88131",47.55504149999999,9.6914032
Руська православна церква (Московський патріархат),Руська православна церква (Московський патріархат),Руська православна церква (Московський патріархат),Берлінсько-Німецька єпархія,"Громада в ім'я святителя Тихона, патріарха Московського та всієї Росії",Ліппштадт,www.rokmp.de,Німеччина,"Beckumer Straße 118, 59555 Lippstadt",51.6786792,8.3230417
Руська православна церква (Московський патріархат),Руська православна церква (Московський патріархат),Руська православна церква (Московський патріархат),Берлінсько-Німецька єпархія,Громада Воскресіння Христового,Люнебург,www.rokmp.de,Німеччина,"Ökumenisches Gemeindezentrum St. Stephanus, St. Stephanus Platz 1, 21337 Lüneburg",53.2385759,10.4347439
Руська православна церква (Московський патріархат),Руська православна церква (Московський патріархат),Руська православна церква (Московський патріархат),Берлінсько-Німецька єпархія,Парафія Усіх Святих,Магдебург,www.rokmp.de,Німеччина,"Lienhardstraße 6, 39108 Magdeburg Deutschland",52.1356756,11.6223176
Руська православна церква (Московський патріархат),Руська православна церква (Московський патріархат),Руська православна церква (Московський патріархат),Берлінсько-Німецька єпархія,Парафія мученика Христофора,Майнц,www.rokmp.de,Німеччина,"Berliner Straße 39a, 55131 Mainz",49.97866,8.26642
Руська православна церква (Московський патріархат),Руська православна церква (Московський патріархат),Руська православна церква (Московський патріархат),Берлінсько-Німецька єпархія,Парафія апп. Петра та Павла,Менден (Зауерланд),www.rokmp.de,Німеччина,Bodelschwingstr. 4-6 Menden,51.4362865,7.7923862
Руська православна церква (Московський патріархат),Руська православна церква (Московський патріархат),Руська православна церква (Московський патріархат),Берлінсько-Німецька єпархія,Парафія Воскресіння Христового у Мюнхені,Мюнхен,www.rokmp.de,Німеччина,"Kolpinghaus, Adolf-Kolpingstr. 1, 80336 München 
or
Kreuzerhöhungskapelle, Glyzinenstr. 38, 80935 München",48.1986278,11.5514754
Руська православна церква (Московський патріархат),Руська православна церква (Московський патріархат),Руська православна церква (Московський патріархат),Берлінсько-Німецька єпархія,Храм Воздвиження Чесного та Животворчого Хреста Господнього при південній резиденції правлячого архієрея,Мюнхен,www.rokmp.de,Німеччина,"Glyzinenstraße 38, 80935 München",48.1986278,11.5514754
Руська православна церква (Московський патріархат),Руська православна церква (Московський патріархат),Руська православна церква (Московський патріархат),Берлінсько-Німецька єпархія,Парафія св. викл. Антонія Великого,Менхенгладбах,www.rokmp.de,Німеччина,"Am Torfbend 19, 41238 Mönchengladbach",51.1592236,6.4658299
Руська православна церква (Московський патріархат),Руська православна церква (Московський патріархат),Руська православна церква (Московський патріархат),Берлінсько-Німецька єпархія,Парафія вмч. Георгія Побідоносця,Нойруппін,www.rokmp.de,Німеччина,,52.91542897031757,12.799108977700834
Руська православна церква (Московський патріархат),Руська православна церква (Московський патріархат),Руська православна церква (Московський патріархат),Берлінсько-Німецька єпархія,Парафія святих Архангелів,Нойс,www.rokmp.de,Німеччина,"Alexianerplatz 1, 41464 Neuss",51.1898406,6.703245
Руська православна церква (Московський патріархат),Руська православна церква (Московський патріархат),Руська православна церква (Московський патріархат),Берлінсько-Німецька єпархія,Парафія святої блаженної Ксенії Петербурзької,Нюрнберг,www.rokmp.de,Німеччина,"90478 Nürnberg, Glockenhofstraße 30",49.4440992,11.091069
Руська православна церква (Московський патріархат),Руська православна церква (Московський патріархат),Руська православна церква (Московський патріархат),Берлінсько-Німецька єпархія,Парафія великомученика Георгія Побідоносця,Оснабрюк,www.rokmp.de,Німеччина,"Wersenerstr. 85, 49090 Osnabrück",52.2961141,7.999493299999999
Руська православна церква (Московський патріархат),Руська православна церква (Московський патріархат),Руська православна церква (Московський патріархат),Берлінсько-Німецька єпархія,Парафія на честь ікони Божої Матері «Федоровська»,Падерборн,www.rokmp.de,Німеччина,Maximilian-Kolbe-Straße 2 33175 Bad Lippspringe,51.79027139999999,8.8274097
Руська православна церква (Московський патріархат),Руська православна церква (Московський патріархат),Руська православна церква (Московський патріархат),Берлінсько-Німецька єпархія,Парафія ікони Божої Матері «Несподівана Радість»,Пассау,www.rokmp.de,Німеччина,"Dom St. Stephan, Domplatz, 94032 Passau",48.5741597,13.4656793
Руська православна церква (Московський патріархат),Руська православна церква (Московський патріархат),Руська православна церква (Московський патріархат),Берлінсько-Німецька єпархія,Храм святого благовірного князя Олександра Невського,Потсдам,www.rokmp.de,Німеччина,"Russische Kolonie 14
14469 Potsdam",52.415263,13.0576635
Руська православна церква (Московський патріархат),Руська православна церква (Московський патріархат),Руська православна церква (Московський патріархат),Берлінсько-Німецька єпархія,Парафія Богоявлення Господнього,Пфорцхайм,www.rokmp.de,Німеччина,"Marienburgerstr. 16, Pforzheim",48.8832467,8.7338019
Руська православна церква (Московський патріархат),Руська православна церква (Московський патріархат),Руська православна церква (Московський патріархат),Берлінсько-Німецька єпархія,Парафія святої блаженної Ксенії Петербурзької,Росток,www.rokmp.de,Німеччина,"Thünenstr. 9, Rostock 18057",54.08382690000001,12.1079048
Руська православна церква (Московський патріархат),Руська православна церква (Московський патріархат),Руська православна церква (Московський патріархат),Берлінсько-Німецька єпархія,Парафія великомученика і цілителя Пантелеїмону,Саарбрюккен,www.rokmp.de,Німеччина,"die katholische St.Michael-Kirche. Schumannstr 25, 66111 Saarbrücken",49.23831670000001,7.00232
Руська православна церква (Московський патріархат),Руська православна церква (Московський патріархат),Руська православна церква (Московський патріархат),Берлінсько-Німецька єпархія,Парафія в ім'я сорока мучеників Севастійських,Трір,www.rokmp.de,Німеччина,"Autobahnkirche St. Paul, Arnold-Janssen-Straße 1, 54516 Wittlich",49.977747,6.9268413
Руська православна церква (Московський патріархат),Руська православна церква (Московський патріархат),Руська православна церква (Московський патріархат),Берлінсько-Німецька єпархія,Парафія святої преподобної Марії Єгипетської,Тюбинген,www.rokmp.de,Німеччина,Österbergstr.2 72074 Tübingen (Eingang Schlatterhaus),48.5207317,9.058339799999999
Руська православна церква (Московський патріархат),Руська православна церква (Московський патріархат),Руська православна церква (Московський патріархат),Берлінсько-Німецька єпархія,Храм ікони Божої Матері «Знамення» Курська-Корінна,Ульм,www.rokmp.de,Німеччина,"Münsterplatz 21
89073 Ulm",48.3991864,9.9932614
Руська православна церква (Московський патріархат),Руська православна церква (Московський патріархат),Руська православна церква (Московський патріархат),Берлінсько-Німецька єпархія,Каплиця мчч. Валентина та Пасикрата,Ульм,www.rokmp.de,Німеччина,"Judenhof 9,
D-89073 Ulm",48.3982134,9.995157899999999
Руська православна церква (Московський патріархат),Руська православна церква (Московський патріархат),Руська православна церква (Московський патріархат),Берлінсько-Німецька єпархія,Парафія свт. Миколи Чудотворця,Фрайбург-у-Брайсгау,www.rokmp.de,Німеччина,"Аuwaldstr. 94a, 79110 Freiburg",48.02118600000001,7.8115101
Руська православна церква (Московський патріархат),Руська православна церква (Московський патріархат),Руська православна церква (Московський патріархат),Берлінсько-Німецька єпархія,Парафія священномученика Кіпріана та мучениці Юстини,Франкфурт-на-Майні,www.rokmp.de,Німеччина,"Friedrich-Ebert-Anlage 33, 60327 Frankfurt/Main",50.1102942,8.6575823
Руська православна церква (Московський патріархат),Руська православна церква (Московський патріархат),Руська православна церква (Московський патріархат),Берлінсько-Німецька єпархія,Парафія Христа Спасителя,Франкфурт-на-Одері,www.rokmp.de,Німеччина,"Bahnhofstraße 3, 15295 Brieskow-Finkenheerd",52.2531056,14.5686648
Руська православна церква (Московський патріархат),Руська православна церква (Московський патріархат),Руська православна церква (Московський патріархат),Берлінсько-Німецька єпархія,Громада у Фрідрісхафен,Фридріхсхафен Айлінген,www.rokmp.de,Німеччина,Kirchweg 10 88048 Friedrichshafen-Ailingen,47.6885671,9.4891404
Руська православна церква (Московський патріархат),Руська православна церква (Московський патріархат),Руська православна церква (Московський патріархат),Берлінсько-Німецька єпархія,Громада Стрітення Господнього,Фульда,www.rokmp.de,Німеччина,"Radgarstr. 13, 36037 Fulda",50.55461,9.6850955
Руська православна церква (Московський патріархат),Руська православна церква (Московський патріархат),Руська православна церква (Московський патріархат),Берлінсько-Німецька єпархія,Парафія Святого першомученика та архідиякона Стефана,Хальберштадт,www.rokmp.de,Німеччина,"Moritzplan 1, 38820 Halberstadt ( St. Moritzkirche)",51.9000721,11.0488991
Руська православна церква (Московський патріархат),Руська православна церква (Московський патріархат),Руська православна церква (Московський патріархат),Берлінсько-Німецька єпархія,Парафія Різдва Пресвятої Богородиці,Хемніц,www.rokmp.de,Німеччина,"St. Johannes-Nepomuk-Propsteikirche, Hohe Straße 1, 09112 Chemnitz",50.8290601,12.9124232
Руська православна церква (Московський патріархат),Руська православна церква (Московський патріархат),Руська православна церква (Московський патріархат),Берлінсько-Німецька єпархія,Громада у м. Хомбург,Хомбург,www.rokmp.de,Німеччина,"St. Michael Str. 7 , 66424 Homburg/ Saar",49.320938,7.3409434
Руська православна церква (Московський патріархат),Руська православна церква (Московський патріархат),Руська православна церква (Московський патріархат),Берлінсько-Німецька єпархія,Громада ікони Божої Матері «Іверська»,Целле,www.rokmp.de,Німеччина,"29225 Сelle, Heese 18(A)",52.6172658,10.0565746
Руська православна церква (Московський патріархат),Руська православна церква (Московський патріархат),Руська православна церква (Московський патріархат),Берлінсько-Німецька єпархія,"Парафія Різдва Пророка, Предтечі та Хрестителя Господнього Івана",Швайнфурт,www.rokmp.de,Німеччина,Friedenstr. 17 97421 Schweinfurt,50.0430663,10.2250061
Руська православна церква (Московський патріархат),Руська православна церква (Московський патріархат),Руська православна церква (Московський патріархат),Берлінсько-Німецька єпархія,Храм святого великомученика Дмитра Солунського,Шверін,www.rokmp.de,Німеччина,"Hamburger Allee 120
19063 Schwerin",53.5928285,11.4627297
Руська православна церква (Московський патріархат),Руська православна церква (Московський патріархат),Руська православна церква (Московський патріархат),Берлінсько-Німецька єпархія,Громада в місті Шлезвіг,Шлезвіг,www.rokmp.de,Німеччина,"die evangelische St-Michael-Kirche statt. Lölfuß, Schleswig",54.5138729,9.5515206
Руська православна церква (Московський патріархат),Руська православна церква (Московський патріархат),Руська православна церква (Московський патріархат),Берлінсько-Німецька єпархія,Громада на честь святих мучеників Адріана та Наталії,Штаде,www.rokmp.de,Німеччина,"Bockhorster Weg 27, 21682 Stade",53.6086932,9.4489229
Руська православна церква (Московський патріархат),Руська православна церква (Московський патріархат),Руська православна церква (Московський патріархат),Берлінсько-Німецька єпархія,Парафія Святого апостола Якова,Штендаль,www.rokmp.de,Німеччина,"Jacobikirchhof 1, 39576 Stendal (Jacobikirche)",52.60823,11.85806
Руська православна церква (Московський патріархат),Руська православна церква (Московський патріархат),Руська православна церква (Московський патріархат),Берлінсько-Німецька єпархія,Громада вмч. Георгія Побідоносця,Штральзунд,www.rokmp.de,Німеччина,"Marien Kirche, Marienstrasse 16, 18439 Stralsund",54.3099332,13.0880146
Руська православна церква (Московський патріархат),Руська православна церква (Московський патріархат),Руська православна церква (Московський патріархат),Берлінсько-Німецька єпархія,Парафія Божого пророка Іллі,Штутгарт,www.rokmp.de,Німеччина,Steigerwald str.10 70469 Stuttgart,48.811153,9.1471775
Руська православна церква (Московський патріархат),Руська православна церква (Московський патріархат),Руська православна церква (Московський патріархат),Берлінсько-Німецька єпархія,Громада в місті Ерфурт,Ерфурт,www.rokmp.de,Німеччина,"Schonnebeckhöfe, 202, 45327 Essen",51.493074,7.047170599999999
Руська православна церква (Московський патріархат),Руська православна церква (Московський патріархат),Руська православна церква (Московський патріархат),Берлінсько-Німецька єпархія,Парафія святих Безсрібників Косми і Даміана,Ессен,www.rokmp.de,Німеччина,"Schonnebeckhöfe, 202, 45327 Essen",51.493074,7.047170599999999
Руська православна церква (Московський патріархат),РПЦ за кордоном,РПЦ за кордоном,Німецька єпархія РПЦЗ,Російська православна громада святої преп. Великої княгині Єлизавети,Альцей,https://rocor.de/,Німеччина,"Kirchenplatz 7,
55232 Alzey",49.743998,8.1125963
Руська православна церква (Московський патріархат),РПЦ за кордоном,РПЦ за кордоном,Німецька єпархія РПЦЗ,Храм свв. Апостолів Петра та Павла,Амберг,https://rocor.de/,Німеччина,"Breslauerstr. 15,
92224 Amberg",49.42959090000001,11.8843135
Руська православна церква (Московський патріархат),РПЦ за кордоном,РПЦ за кордоном,Німецька єпархія РПЦЗ,Храм Ікони Усіх Скорботних Радість,Аугсбург,https://rocor.de/,Німеччина,"Stadtbergerstr. 26 а,
86157 Augsburg",48.3630709,10.8643263
Руська православна церква (Московський патріархат),РПЦ за кордоном,РПЦ за кордоном,Німецька єпархія РПЦЗ,Церква св. мц. цариці Олександри,Бад Емс,https://rocor.de/,Німеччина,"Wilhelmsallee 12,
56130 Bad Ems",50.3303405,7.7219404
Руська православна церква (Московський патріархат),РПЦ за кордоном,РПЦ за кордоном,Німецька єпархія РПЦЗ,Церква Усіх Святих,Бад Хомбург фор дер Гохе,https://rocor.de/,Німеччина,"Kaiser-Friedrich-Promenade,
61348 Bad Homburg vor der Höhe",50.2251043,8.6257348
Руська православна церква (Московський патріархат),РПЦ за кордоном,РПЦ за кордоном,Німецька єпархія РПЦЗ,Храм преп. Сергія Радонезького,Бад-Кіссінген,https://rocor.de/,Німеччина,"Salinenstr. 20,
97688 Bad Kissingen",50.2057085,10.0746971
Руська православна церква (Московський патріархат),РПЦ за кордоном,РПЦ за кордоном,Німецька єпархія РПЦЗ,Храм свт. Інокентія та прп. Серафима Саровського,Бад-Наухайм,https://rocor.de/,Німеччина,"Reinhardstr. 12,
61231 Bad Nauheim",50.36456,8.73718
Руська православна церква (Московський патріархат),РПЦ за кордоном,РПЦ за кордоном,Німецька єпархія РПЦЗ,Храм Преображення Господнього,Баден-Баден,https://rocor.de/,Німеччина,"Lichtentaler Str. 76,
76530 Baden-Baden",48.7538171,8.2444364
Руська православна церква (Московський патріархат),РПЦ за кордоном,РПЦ за кордоном,Німецька єпархія РПЦЗ,Храм Покрови Пресвятої Богородиці,Берлін,https://rocor.de/,Німеччина,"Wintersteinstraße 24,
10587 Berlin",52.5198799,13.3071949
Руська православна церква (Московський патріархат),РПЦ за кордоном,РПЦ за кордоном,Німецька єпархія РПЦЗ,Спасо-Преображенський храм,Білефельд-Зеннештадт,https://rocor.de/,Німеччина,"Am Beckhof 18,
33689 Bielefeld-Sennestadt",51.92653,8.59615
Руська православна церква (Московський патріархат),РПЦ за кордоном,РПЦ за кордоном,Німецька єпархія РПЦЗ,Храм св. великомученика Георгія Побідоносця,Бохум,https://rocor.de/,Німеччина,"Feldsieperstr. 129,
44809 Bochum",51.4946732,7.2100791
Руська православна церква (Московський патріархат),РПЦ за кордоном,РПЦ за кордоном,Німецька єпархія РПЦЗ,Жіночий монастир на честь святої преподобномучениці Великої Княгині Єлисавети,Бухендорф,https://rocor.de/,Німеччина,"Forstenrieder-Park-Str. 2,
82131 Buchendorf",48.0565051,11.4027619
Руська православна церква (Московський патріархат),РПЦ за кордоном,РПЦ за кордоном,Німецька єпархія РПЦЗ,Храм преп. Серафима Саровського,Клопенбург,https://rocor.de/,Німеччина,"Brookweg 26,
49661 Cloppenburg",52.8513448,8.0806664
Руська православна церква (Московський патріархат),РПЦ за кордоном,РПЦ за кордоном,Німецька єпархія РПЦЗ,Громада на честь свт. Іоанна Шанхайського,Котбус,https://rocor.de/,Німеччина,"Am Doll 4,
03046 Cottbus",51.7613998,14.3476045
Руська православна церква (Московський патріархат),РПЦ за кордоном,РПЦ за кордоном,Німецька єпархія РПЦЗ,Храм св. рівноап. Марії Магдалини,Дармштадт,https://rocor.de/,Німеччина,"Mathildenhöhe,
64287 Darmstadt",49.8766962,8.6668723
Руська православна церква (Московський патріархат),РПЦ за кордоном,РПЦ за кордоном,Німецька єпархія РПЦЗ,Парафія св. влмчк. і Цілителя Пантелеїмону,Деггендорф,https://rocor.de/,Німеччина,"Friedenskirche Am Stadtpark 1,
94469 Deggendorf",48.8453747,12.957855
Руська православна церква (Московський патріархат),РПЦ за кордоном,РПЦ за кордоном,Німецька єпархія РПЦЗ,Громада в Діллінгені,Ділінген,https://rocor.de/,Німеччина,,48.580957651797505,10.492306985265088
Руська православна церква (Московський патріархат),РПЦ за кордоном,РПЦ за кордоном,Німецька єпархія РПЦЗ,Парафія всіх святих у Дінгольфінгу,Дінгольфінг,https://rocor.de/,Німеччина,"Oberdingolfing 27,
84130 Dingolfing",48.6230595,12.500439
Руська православна церква (Московський патріархат),РПЦ за кордоном,РПЦ за кордоном,Німецька єпархія РПЦЗ,Громада св. Анни,Дюрен,https://rocor.de/,Німеччина,"St.Angela-Realschule-Kapelle, Bismarckstrasse 24,,
52351 Düren",50.8063553,6.4891149
Руська православна церква (Московський патріархат),РПЦ за кордоном,РПЦ за кордоном,Німецька єпархія РПЦЗ,Церква св. Миколи,Дюссельдорф-Нойс,https://rocor.de/,Німеччина,"Alexanderplatz 1,
41464 Düsseldorf-Neuss",51.1910608,6.672621899999999
Руська православна церква (Московський патріархат),РПЦ за кордоном,РПЦ за кордоном,Німецька єпархія РПЦЗ,Храм на честь ікони Пресвятої Богородиці «Всіх скорботних радості»,Енген,https://rocor.de/,Німеччина,"Jahnstr. 3a,
78234 Engen",47.854853,8.7760105
Руська православна церква (Московський патріархат),РПЦ за кордоном,РПЦ за кордоном,Німецька єпархія РПЦЗ,Храм Пресвятої Трійці,Ерланген,https://rocor.de/,Німеччина,"Stintzingstr. 20,
91052 Erlangen",49.5815385,11.0075039
Руська православна церква (Московський патріархат),РПЦ за кордоном,РПЦ за кордоном,Німецька єпархія РПЦЗ,"Храм свв. мцц. Віри, Надії, Любові та матері їхньої Софії",Етлінген,https://rocor.de/,Німеччина,"Friedhofweg 1,
86833 Ettringen",48.064122,10.6420721
Руська православна церква (Московський патріархат),РПЦ за кордоном,РПЦ за кордоном,Німецька єпархія РПЦЗ,Громада св. Апостолів Петра та Павла,Фленсбург,https://rocor.de/,Німеччина,"Bauer Landstraße 17,
24534 Flensburg",54.8009555,9.4200208
Руська православна церква (Московський патріархат),РПЦ за кордоном,РПЦ за кордоном,Німецька єпархія РПЦЗ,Храм св. Миколи,Франкфурт-Хаузен,https://rocor.de/,Німеччина,"Am Industriehof 18,
60487 Frankfurt-Hausen",50.12984119999999,8.623021999999999
Руська православна церква (Московський патріархат),РПЦ за кордоном,РПЦ за кордоном,Німецька єпархія РПЦЗ,Церква преп. Єфросинії Великої княгині Московської,Фройденштадт,https://rocor.de/,Німеччина,"Parkweg 13,
72250 Freudenstadt",48.46159910000001,8.4288685
Руська православна церква (Московський патріархат),РПЦ за кордоном,РПЦ за кордоном,Німецька єпархія РПЦЗ,Православна парафія в ім'я св. Афанасія Олександрійського,Герольштайн,https://rocor.de/,Німеччина,"Sarresdorfer Str. 15,
54568 Gerolstein",50.2236195,6.6554897
Руська православна церква (Московський патріархат),РПЦ за кордоном,РПЦ за кордоном,Німецька єпархія РПЦЗ,Храм св. блаженного Прокопія Устюзького,Гамбург,https://rocor.de/,Німеччина,"Hagenbeckstr. 10,
22527 Hamburg",53.5842415,9.946950099999999
Руська православна церква (Московський патріархат),РПЦ за кордоном,РПЦ за кордоном,Німецька єпархія РПЦЗ,Храм Різдва Христового,Ганновер,https://rocor.de/,Німеччина,"Plueschow Str. 6,
30163 Hannover",52.4037601,9.7396954
Руська православна церква (Московський патріархат),РПЦ за кордоном,РПЦ за кордоном,Німецька єпархія РПЦЗ,"Храм ікони Божої Матері ""Знамення""",Ганновер,https://rocor.de/,Німеччина,"Königsworther Straße 12,
30167 Hannover",52.37680839999999,9.7216209
Руська православна церква (Московський патріархат),РПЦ за кордоном,РПЦ за кордоном,Німецька єпархія РПЦЗ,Громада святителя Іоанна Шанхайського,Гайльбронн,https://rocor.de/,Німеччина,"Goppeltstr. 5,
74076 Heilbronn",49.1547949,9.2188736
Руська православна церква (Московський патріархат),РПЦ за кордоном,РПЦ за кордоном,Німецька єпархія РПЦЗ,Православна парафія,Гільдесхайм,https://rocor.de/,Німеччина,"St. Mauritius Kapelle, Bergstr. 57,
31137 Hildesheim",52.148357,9.9263391
Руська православна церква (Московський патріархат),РПЦ за кордоном,РПЦ за кордоном,Німецька єпархія РПЦЗ,Громада св. Княгині Ольги,Гомбург,https://rocor.de/,Німеччина,"Bodelschwinghstr. 5,
66424 Homburg",49.33581479999999,7.334149799999999
Руська православна церква (Московський патріархат),РПЦ за кордоном,РПЦ за кордоном,Німецька єпархія РПЦЗ,Громада в ім'я свт. Іоанна Шанхайського,Ідар-Оберштайн-Гетчід,https://rocor.de/,Німеччина,"Göttschieder Str. 43,
55743 Idar-Oberstein-Goettschied",49.72206509999999,7.335276599999998
Руська православна церква (Московський патріархат),РПЦ за кордоном,РПЦ за кордоном,Німецька єпархія РПЦЗ,Храм святий. Миколи Мирлікійського чудотворця,Інгольштадт,https://rocor.de/,Німеччина,"Esplanade 38,
85049 Ingolstadt",48.76885859999999,11.4250389
Руська православна церква (Московський патріархат),РПЦ за кордоном,РПЦ за кордоном,Німецька єпархія РПЦЗ,Храм свт. Іоанна Шанхайського,Карлсруе,https://rocor.de/,Німеччина,"Bernhard-Lichtenberg-Straße 46,
76189 Karlsruhe",48.98572,8.363629999999999
Руська православна церква (Московський патріархат),РПЦ за кордоном,РПЦ за кордоном,Німецька єпархія РПЦЗ,Храм св. великомуч. і цілителя Пантелеймона,Кассель,https://rocor.de/,Німеччина,"Steinweg,
34117 Kassel",51.313871,9.5005532
Руська православна церква (Московський патріархат),РПЦ за кордоном,РПЦ за кордоном,Німецька єпархія РПЦЗ,Парафія на честь рівноапп. Кирила та Мефодія,Кірхгайм-унтер-Тек,https://rocor.de/,Німеччина,"Limburgerstr. 65,
73230 Kirchheim unter Teck",48.6422477,9.461188199999999
Руська православна церква (Московський патріархат),РПЦ за кордоном,РПЦ за кордоном,Німецька єпархія РПЦЗ,Храм Покрови Богородиці та святителя Миколая,Клагенфурт,https://rocor.de/,Австрія,"Kaufmanngasse 11, Innere Stadt,
9020 Klagenfurt",46.62181520000001,14.3065605
Руська православна церква (Московський патріархат),РПЦ за кордоном,РПЦ за кордоном,Німецька єпархія РПЦЗ,Храм св. великомуч. і цілителя Пантелеїмона,Кельн Порц-Вестховен,https://rocor.de/,Німеччина,"Neue Strasse 1,
51149 Köln Porz-Westhoven",50.9065179,7.018447099999999
Руська православна церква (Московський патріархат),РПЦ за кордоном,РПЦ за кордоном,Німецька єпархія РПЦЗ,Парафія в ім'я рівноапостольних Костянтина та Олени,Конц,https://rocor.de/,Німеччина,"Martinstr. 22,
54329 Konz",49.6953186,6.5753594
Руська православна церква (Московський патріархат),РПЦ за кордоном,РПЦ за кордоном,Німецька єпархія РПЦЗ,Парафія у Кюнцельзау,Кюнцельзау,https://rocor.de/,Німеччина,"Stuttgarterstr.34,
74653 Künzelsau",49.2769786,9.6833942
Руська православна церква (Московський патріархат),РПЦ за кордоном,РПЦ за кордоном,Німецька єпархія РПЦЗ,Храм св. Миколи,Ландсхут,https://rocor.de/,Німеччина,"Regierungsplatz 541,
84028 Landshut",48.5370857,12.1558175
Руська православна церква (Московський патріархат),РПЦ за кордоном,РПЦ за кордоном,Німецька єпархія РПЦЗ,Каплиця Покрови Пресвятої Богородиці,Лієнц-Пеггец,https://rocor.de/,Австрія,"Am Tristacher-Steg 27,
9900 Lienz-Peggetz",46.82255259999999,12.7903572
Руська православна церква (Московський патріархат),РПЦ за кордоном,РПЦ за кордоном,Німецька єпархія РПЦЗ,Храм св. блаженного Прокопія Устюзького та Любецького,Любек,https://rocor.de/,Німеччина,"Glockengiesserstr. 2,
23552 Lübeck",53.8691855,10.6900143
Руська православна церква (Московський патріархат),РПЦ за кордоном,РПЦ за кордоном,Німецька єпархія РПЦЗ,Храм св. благовірного вів. Князя Олександра Невського,Мангейм,https://rocor.de/,Німеччина,"Gärtnerstr. 10,
68169 Mannheim",49.49948,8.46339
Руська православна церква (Московський патріархат),РПЦ за кордоном,РПЦ за кордоном,Німецька єпархія РПЦЗ,Громада святителя Луки Кримського,Майєн,https://rocor.de/,Німеччина,"St.Veitkapelle, St.Veitstr. 41,
56727 Mayen",50.328779,7.2320031
Руська православна церква (Московський патріархат),РПЦ за кордоном,РПЦ за кордоном,Німецька єпархія РПЦЗ,Громада св. Іоанна Руського у Меммінгені,Меммінген,https://rocor.de/,Німеччина,"Eisenacher Weg 2,
87700 Memmingen",47.9900277,10.1585269
Руська православна церква (Московський патріархат),РПЦ за кордоном,РПЦ за кордоном,Німецька єпархія РПЦЗ,Храм св. св. князя Володимира,Мінден,https://rocor.de/,Німеччина,"Sedanstraße 19,
32423 Minden",52.2880043,8.9462078
Руська православна церква (Московський патріархат),РПЦ за кордоном,РПЦ за кордоном,Німецька єпархія РПЦЗ,Кафедральний собор свв. Новомучеників та Сповідників Російських та Свят. Миколи,Мюнхен,https://rocor.de/,Німеччина,"Lincolnstr. 58,
81549 München",48.0956355,11.5958371
Руська православна церква (Московський патріархат),РПЦ за кордоном,РПЦ за кордоном,Німецька єпархія РПЦЗ,Храм св. Архістратига Михайла,Мюнхен-Людвігсфельд,https://rocor.de/,Німеччина,"Achatstr. 14,
80995 München-Ludwigsfeld",48.21694429999999,11.4896834
Руська православна церква (Московський патріархат),РПЦ за кордоном,РПЦ за кордоном,Німецька єпархія РПЦЗ,Монастир преп. Іова Почаєвського,Мюнхен-Оберменцінг,https://rocor.de/,Німеччина,"Hofbauernstr. 26,
81247 München-Obermenzing",48.1622209,11.4594911
Руська православна церква (Московський патріархат),РПЦ за кордоном,РПЦ за кордоном,Німецька єпархія РПЦЗ,Громада на честь ікони Пресвятої Богородиці «Казанської»,Мюнстер,https://rocor.de/,Німеччина,"Hammerstraße 371,
48153 Münster",51.9278613,7.6289946
Руська православна церква (Московський патріархат),РПЦ за кордоном,РПЦ за кордоном,Німецька єпархія РПЦЗ,Громада Святої Живоначальної Трійці,Ноймюнстер,https://rocor.de/,Німеччина,"Anscharkirche Gemeindehaus Am Alten Kirchhof 4,
24534 Neumünster",54.0762012,9.9841999
Руська православна церква (Московський патріархат),РПЦ за кордоном,РПЦ за кордоном,Німецька єпархія РПЦЗ,Громада на честь Різдва Пресвяті Богородиці,Нюрнберг,https://rocor.de/,Німеччина,"Neuselsbrunn, 6,
90489 Nürnberg",49.4138312,11.1149567
Руська православна церква (Московський патріархат),РПЦ за кордоном,РПЦ за кордоном,Німецька єпархія РПЦЗ,Храм Покрови Пресвяті Богородиці,Ольденбург,https://rocor.de/,Німеччина,"Ammerländer Heerstr. 40,
26129 Oldenburg",53.1454082,8.1897503
Руська православна церква (Московський патріархат),РПЦ за кордоном,РПЦ за кордоном,Німецька єпархія РПЦЗ,Храм Покрови Пресвятої Богородиці,Регенсбург,https://rocor.de/,Німеччина,"Prüfeninger Straße 18,
93049 Regensburg",49.01900819999999,12.0803946
Руська православна церква (Московський патріархат),РПЦ за кордоном,РПЦ за кордоном,Німецька єпархія РПЦЗ,Громада храму Успіння Богородиці,Ройтлінген,https://rocor.de/,Німеччина,"Am Heilbrunnen 148, 72766 Reutlingen",48.5126115,9.2319813
Руська православна церква (Московський патріархат),РПЦ за кордоном,РПЦ за кордоном,Німецька єпархія РПЦЗ,Православний храм cв. Спиридона Триміфунтського,Родінг,https://rocor.de/,Німеччина,"Ludwigstr. 5,
93426 Roding",49.1914394,12.5260929
Руська православна церква (Московський патріархат),РПЦ за кордоном,РПЦ за кордоном,Німецька єпархія РПЦЗ,Храм Іверської ікони Божої Матері,Розенхайм,https://rocor.de/,Німеччина,"c/o Altkatholische Gemeinde, Kaiserstr. 44-46,
83022 Rosenheim",47.8601246,12.1283427
Руська православна церква (Московський патріархат),РПЦ за кордоном,РПЦ за кордоном,Німецька єпархія РПЦЗ,Храм св. преподобномученуці Євгенії,Саарбрюкен,https://rocor.de/,Німеччина,"Lindenhofstrasse 1,
66115 Saarbrücken",49.2494458,6.940436999999999
Руська православна церква (Московський патріархат),РПЦ за кордоном,РПЦ за кордоном,Німецька єпархія РПЦЗ,Храм св. Миколи мирлікійського чудотворця,Зальцгіттер-Лебенштедт,https://rocor.de/,Німеччина,"Posthof 16,
38226 Salzgitter-Lebenstedt",52.1538485,10.3255847
Руська православна церква (Московський патріархат),РПЦ за кордоном,РПЦ за кордоном,Німецька єпархія РПЦЗ,Громада св. новомучениці цариці Олександри,Сіген,https://rocor.de/,Німеччина,"Zwinglistrasse 1,
57080 Siegen",50.8573072,7.9979862
Руська православна церква (Московський патріархат),РПЦ за кордоном,РПЦ за кордоном,Німецька єпархія РПЦЗ,"Храм на честь Різдва Святого Пророка, Предтечі та Хрестителя Господнього Івана",Штраубінг,https://rocor.de/,Німеччина,"Tilsiterstr. 7,
94315 Straubing",48.8914812,12.6032295
Руська православна церква (Московський патріархат),РПЦ за кордоном,РПЦ за кордоном,Німецька єпархія РПЦЗ,Церква св. Миколи,Штутгарт,https://rocor.de/,Німеччина,"Seidenstr. 69,
70174 Stuttgart",48.7840386,9.163452399999999
Руська православна церква (Московський патріархат),РПЦ за кордоном,РПЦ за кордоном,Німецька єпархія РПЦЗ,Храм-усипальниця королеви Катерини Павлівни Вюртембергської,Штутгарт-Ротенберг,https://rocor.de/,Німеччина,"Württembergstraße 340,
70327 Stuttgart-Rotenberg",48.7813702,9.2688647
Руська православна церква (Московський патріархат),РПЦ за кордоном,РПЦ за кордоном,Німецька єпархія РПЦЗ,Храм Покрови Пресвяті Богородиці,Зюдмослесфен,https://rocor.de/,Німеччина,"Diedrich-Dannemann-Strasse 234,
26203 Südmoslesfehn",53.1073811,8.1361759
Руська православна церква (Московський патріархат),РПЦ за кордоном,РПЦ за кордоном,Німецька єпархія РПЦЗ,Храм Казанської Божої Матері,Унтеркірнах Шварцвальд,https://rocor.de/,Німеччина,"Kirnachtal 3-5,
78089 Unterkirnach-Schwarzwald",48.0731155,8.3887793
Руська православна церква (Московський патріархат),РПЦ за кордоном,РПЦ за кордоном,Німецька єпархія РПЦЗ,"Храм св. праведні Єлисавети, усипальниця вел. княгині Єлисавети Михайлівни",Вісбаден,https://rocor.de/,Німеччина,"Christian-Spielmann-Weg 1,
65193 Wiesbaden",50.0975808,8.234752499999999
Руська православна церква (Московський патріархат),РПЦ за кордоном,РПЦ за кордоном,Німецька єпархія РПЦЗ,Православна парафія в ім'я Апостола та Євангеліста Іоанна Богослова,Віттліх,https://rocor.de/,Німеччина,"Arnold-Janssen-Straße 1,
54516 Wittlich",49.97775009999999,6.9265982
Руська православна церква (Московський патріархат),РПЦ за кордоном,РПЦ за кордоном,Німецька єпархія РПЦЗ,Парафія на честь свят. Миколи Сербського,Цвайбрюкен,https://rocor.de/,Німеччина,"Karlstr. 3,
66482 Zweibrücken",49.2477519,7.3622109
Руська православна церква (Московський патріархат),Руська православна церква (Московський патріархат),Руська православна церква (Московський патріархат),,"Подвор'є РПЦ, Храм Святої Трійці та Іверська каплиця",Белград,http://www.patriarchia.ru/db/text/4547484.html,Сербія,"ул. Таковска, 4, 11000, Белград, Сербия",44.8112155,20.4679494
Руська православна церква (Московський патріархат),Угорська православна церква,Руська православна церква (Московський патріархат),,Успенський собор (угорська Успенська парафія),Будапешт,http://hungary.orthodoxia.org,Угорщина,"1052 Budapest, Petőfi tér 2",47.4932309,19.050837
Руська православна церква (Московський патріархат),Угорська православна церква,Руська православна церква (Московський патріархат),,Успенський собор (російська Свято-Троїцька парафія),Будапешт,http://hungary.orthodoxia.org,Угорщина,"1052 Budapest, Petőfi tér 2",47.4932309,19.050837
Руська православна церква (Московський патріархат),Угорська православна церква,Руська православна церква (Московський патріархат),,Будапештська Свято-Сергіївська парафія,Будапешт,http://hungary.orthodoxia.org,Угорщина,"1052 Budapest, Petőfi tér 2",47.4932309,19.050837
Руська православна церква (Московський патріархат),Угорська православна церква,Руська православна церква (Московський патріархат),,Іремський храм святої Олександри,Юрем,http://hungary.orthodoxia.org,Угорщина,"2096 Üröm, Patak u. 7. Levelezesi cim: 1062 Budapest, Lendvay u. 26",47.4895203,19.2856448
Руська православна церква (Московський патріархат),Угорська православна церква,Руська православна церква (Московський патріархат),,Хевізська російська парафія,Хевіз,http://hungary.orthodoxia.org,Угорщина,"8380 Hévíz, Ady Endre utca 15",46.7804302,17.1888223
Руська православна церква (Московський патріархат),Угорська православна церква,Руська православна церква (Московський патріархат),,Храм Святої Трійці у Мішкольці,Мишкольц,http://hungary.orthodoxia.org,Угорщина,3525 Miskolc Deák tér 7,48.10606019999999,20.7840733
Руська православна церква (Московський патріархат),Угорська православна церква,Руська православна церква (Московський патріархат),,Храм Святої Трійці у Дебрецені,Дебрецен,http://hungary.orthodoxia.org,Угорщина,"4029 Debrecen, Késmárk u. 7/c",47.5290019,21.6403876
Руська православна церква (Московський патріархат),Угорська православна церква,Руська православна церква (Московський патріархат),,Храм св.Георгія Побідоносця в Сегеді,Сегеда,http://hungary.orthodoxia.org,Угорщина,6720 Szeged Kazinczy u. 7,46.2563046,20.1532943
Руська православна церква (Московський патріархат),Угорська православна церква,Руська православна церква (Московський патріархат),,Храм св.Георгія Побідоносця в Ніредьхазі,Ніредьхаза,http://hungary.orthodoxia.org,Угорщина,"4400 Nyíregyháza, Széchenyi u. 5",47.9524908,21.7123571
Руська православна церква (Московський патріархат),Угорська православна церква,Руська православна церква (Московський патріархат),,Храм свт. Миколая в Дьондеші,Дьєндьєш,http://hungary.orthodoxia.org,Угорщина,"3200 Gyöngyös, Vachott S. u. 12",47.7864501,19.9227028
Руська православна церква (Московський патріархат),Угорська православна церква,Руська православна церква (Московський патріархат),,Храм свт. Миколая в Токаї,Токай,http://hungary.orthodoxia.org,Угорщина,"3910 Tokaj, Bethlen Gábor u. 15",48.12727,21.408146
Руська православна церква (Московський патріархат),Руська православна церква (Московський патріархат),Руська православна церква (Московський патріархат),Корсунська єпархія,Кафедральний собор на честь Пресвятої Трійці,Париж,https://cerkov-ru.com/,Франція,"France, 1 quai Branly 75007 Paris",48.86097849999999,2.3006359
Руська православна церква (Московський патріархат),Руська православна церква (Московський патріархат),Руська православна церква (Московський патріархат),Корсунська єпархія,Кафедральний храм на честь Трьох Святителів,Париж,https://cerkov-ru.com/,Франція,"France, 5 rue Petel",48.8410703,2.2994075
Руська православна церква (Московський патріархат),Руська православна церква (Московський патріархат),Руська православна церква (Московський патріархат),Корсунська єпархія,Свято-Миколаївський собор,Ніца,https://cerkov-ru.com/,Франція,"France, avenue Nicolas II - 06000 Nice",43.7032317,7.2537094
Руська православна церква (Московський патріархат),Руська православна церква (Московський патріархат),Руська православна церква (Московський патріархат),Корсунська єпархія,Храм на честь Різдва Пресвятої Богородиці,Париж,https://cerkov-ru.com/,Франція,"France, 4 rue Sainte-Geneviève",48.9025712,2.2796378
Руська православна церква (Московський патріархат),Руська православна церква (Московський патріархат),Руська православна церква (Московський патріархат),Корсунська єпархія,Будинковий храм на честь свт. Мартіна Сповідника та прп. Женев'єви Паризької,Епіне-су-Сенар,https://cerkov-ru.com/,Франція,"France, 4 rue Sainte-Geneviève",48.9025712,2.2796378
Руська православна церква (Московський патріархат),Руська православна церква (Московський патріархат),Руська православна церква (Московський патріархат),Корсунська єпархія,"Храм на честь преп. Серафима Саровського, преп. Сергія та Германа Валаамських у Монжероні",Монжерон,https://cerkov-ru.com/,Франція,"France, Rue du Moulin de Senlis 91230 Montgeron",48.7127322,2.4564801
Руська православна церква (Московський патріархат),Руська православна церква (Московський патріархат),Руська православна церква (Московський патріархат),Корсунська єпархія,"Парафія на честь ікони Божої Матері ""Всіх скорботних радість"" та прп. Женев'єви Паризької",Париж,https://cerkov-ru.com/,Франція,"France, 4 rue S. Victor - 75005 Paris",48.8434912,2.3518339
Руська православна церква (Московський патріархат),Руська православна церква (Московський патріархат),Руська православна церква (Московський патріархат),Корсунська єпархія,Парафія на честь рівноапостольних царів Костянтина та Олени,Кламар,https://cerkov-ru.com/,Франція,"France, 83 rue du Moulin-de-Pierre - 92140 Clamart",48.8099067,2.2669523
Руська православна церква (Московський патріархат),Руська православна церква (Московський патріархат),Руська православна церква (Московський патріархат),Корсунська єпархія,Храм на честь Пресвятої Трійці та Новомучеників та сповідників російських,Ванв,https://cerkov-ru.com/,Франція,"France, 16 rue Michel-Ange",48.84666439999999,2.2628204
Руська православна церква (Московський патріархат),Руська православна церква (Московський патріархат),Руська православна церква (Московський патріархат),Корсунська єпархія,Парафія на честь Архангела Божого Гавриїла,Мартініка,https://cerkov-ru.com/,Франція,"5, rue de la clairière 97200 Fort-de-France (Martinique)",14.6062875,-61.08115359999999
Руська православна церква (Московський патріархат),Руська православна церква (Московський патріархат),Руська православна церква (Московський патріархат),Корсунська єпархія,Парафія на честь Покрови Божої Матері у Ліоні,Ліон,https://cerkov-ru.com/,Франція,"France, Chapelle St-Joseph des Brotteaux 146 rue Sully - LYON 6ème",45.7716219,4.8546668
Руська православна церква (Московський патріархат),Руська православна церква (Московський патріархат),Руська православна церква (Московський патріархат),Корсунська єпархія,"Жіночий монастир на честь ікони Божої Матері ""Корсунська"" у Грассак",Грассак,https://cerkov-ru.com/,Франція,"France, Doumérac - 16380 Grassac",45.567253,0.418263
Руська православна церква (Московський патріархат),Руська православна церква (Московський патріархат),Руська православна церква (Московський патріархат),Корсунська єпархія,Скит на честь Святого Духа,Ле-Меніль-Сен-Дені,https://cerkov-ru.com/,Франція,"France, avenue des Bruyères - 78320 Le Mesnil-Saint-Denis Yvelines",48.7395338,1.9368783
Руська православна церква (Московський патріархат),Руська православна церква (Московський патріархат),Руська православна церква (Московський патріархат),Корсунська єпархія,Парафія на честь Казанської ікони Божої Матері у Марселі,Марсель,https://cerkov-ru.com/,Франція,"France, 20 boulevard Madeleine Remusat - 13013 Marseille. Станция метро La Rose",43.336434,5.421974100000001
Руська православна церква (Московський патріархат),Руська православна церква (Московський патріархат),Руська православна церква (Московський патріархат),Корсунська єпархія,Парафія на честь першомученика архідиякона Стефана та святителя Германа Осерського,Везле,https://cerkov-ru.com/,Франція,"France, Maison Romane rue du Couvent 89450 Vezelay",47.4661348,3.7470594
Руська православна церква (Московський патріархат),Руська православна церква (Московський патріархат),Руська православна церква (Московський патріархат),Корсунська єпархія,Громада на честь рівноапостольної цариці Олени у Парижі,Париж,https://cerkov-ru.com/,Франція,"France, Communauté ortohodoxe 92 rue Saint Denis 75001 Paris",48.8626899,2.3499577
Руська православна церква (Московський патріархат),Руська православна церква (Московський патріархат),Руська православна церква (Московський патріархат),Корсунська єпархія,Парафія на честь святителя Григорія Палами та мучениці Атталії у Страсбурзі,Страсбург,https://cerkov-ru.com/,Франція,"France, 6 rue du Coq - 67000 Strasbourg",48.5819797,7.740941299999999
Руська православна церква (Московський патріархат),Руська православна церква (Московський патріархат),Руська православна церква (Московський патріархат),Корсунська єпархія,Парафія на честь преп. Серафима Саровського до Бордо,Бордо,https://cerkov-ru.com/,Франція,"France, 15 rue saint François-Xavier Bruges 33520 Bordeaux",44.8957757,-0.5920027000000001
Руська православна церква (Московський патріархат),Руська православна церква (Московський патріархат),Руська православна церква (Московський патріархат),Корсунська єпархія,"Громада на честь ікони Божої Матері ""Володимирська""",Тулуза,https://cerkov-ru.com/,Франція,"Тулуза, 108 Avenue de Lavaur",43.6219218,1.464504
Руська православна церква (Московський патріархат),Руська православна церква (Московський патріархат),Руська православна церква (Московський патріархат),Корсунська єпархія,Громада на честь Різдва Іоанна Предтечі у Перпіньяні,Перпіньян,https://cerkov-ru.com/,Франція,"France, 11 rue Claude Monet - Perpignan",42.72009990000001,2.8932391
Руська православна церква (Московський патріархат),Руська православна церква (Московський патріархат),Руська православна церква (Московський патріархат),Корсунська єпархія,Парафія на честь Спаса Нерукотворного Образу,Пюїмуаян,https://cerkov-ru.com/,Франція,"France, Puyloubard Beaussac - 24340 Mareuil",45.49851,0.466627
Руська православна церква (Московський патріархат),Руська православна церква (Московський патріархат),Руська православна церква (Московський патріархат),Корсунська єпархія,"Громада на честь ікони Божої Матері ""Скоропослушниця""",Лимож,https://cerkov-ru.com/,Франція,"France, 30 rue François Perrin 87000 Limoges Haute Vienne",45.8297548,1.247154
Руська православна церква (Московський патріархат),Руська православна церква (Московський патріархат),Руська православна церква (Московський патріархат),Корсунська єпархія,"Каплиця на честь святителя Миколи Чудотворця при ""Руському домі""",Париж,https://cerkov-ru.com/,Франція,"France, Maison russe - rue de la Cossonnerie",48.8674347,2.285733
Руська православна церква (Московський патріархат),Руська православна церква (Московський патріархат),Руська православна церква (Московський патріархат),Корсунська єпархія,Громада на честь Усікнення Глави Іоанна Предтечі в Ам'єні,Амьєн,https://cerkov-ru.com/,Франція,"France, 30 Place Notre Dame 80000 Amiens",49.8945915,2.3021338
Руська православна церква (Московський патріархат),РПЦ за кордоном,РПЦ за кордоном,Великобританська і Західно-Європейська єпархія РПЦЗ,Громада Усіх Святих,Ансі,https://orthodox-europe.org,Франція,"2, place Notre Dame
F-74000 Annecy, France",45.8999371,6.1255736
Руська православна церква (Московський патріархат),РПЦ за кордоном,РПЦ за кордоном,Великобританська і Західно-Європейська єпархія РПЦЗ,"Церква св. Іоанна Руського, сповідника",Ліон,https://orthodox-europe.org,Франція,"4, Petite rue de la Viabert
F-69006 Lyon, France",45.766609,4.8637054
Руська православна церква (Московський патріархат),РПЦ за кордоном,РПЦ за кордоном,Великобританська і Західно-Європейська єпархія РПЦЗ,Церква св. Миколи Чудотворця,Ліон,https://orthodox-europe.org,Франція,"5, rue Sainte-Geneviève
F–69006 Lyon, France",45.7678526,4.8650077
Руська православна церква (Московський патріархат),РПЦ за кордоном,РПЦ за кордоном,Великобританська і Західно-Європейська єпархія РПЦЗ,Церква св. великомученика Георгія Побідоносця,Марсель,https://orthodox-europe.org,Франція,"16, rue Clapier
F–13001 Marseille, France",43.3021708,5.3888223
Руська православна церква (Московський патріархат),РПЦ за кордоном,РПЦ за кордоном,Великобританська і Західно-Європейська єпархія РПЦЗ,Церква ікони Божої Матері «Всіх скорботних Радості»,Ментон,https://orthodox-europe.org,Франція,"14, rue Paul-Morillot
F–06500 Menton, France",43.766747,7.4850841
Руська православна церква (Московський патріархат),РПЦ за кордоном,РПЦ за кордоном,Великобританська і Західно-Європейська єпархія РПЦЗ,Церква Воскресіння Христового,Медон,https://orthodox-europe.org,Франція,"8, rue des Bigots
F–92190 Meudon, France",48.8147223,2.2355958
Руська православна церква (Московський патріархат),РПЦ за кордоном,РПЦ за кордоном,Великобританська і Західно-Європейська єпархія РПЦЗ,Церква св. благовірного кн. Олександра Невського,По,https://orthodox-europe.org,Франція,"18, rue Jean-Réveil
F–64000 Pau, France",43.3016647,-0.3669557
Руська православна церква (Московський патріархат),РПЦ за кордоном,РПЦ за кордоном,Великобританська і Західно-Європейська єпархія РПЦЗ,Церква свв. апп. Петра та Павла,Віши,https://orthodox-europe.org,Франція,"Les Rochelles à Périgny
F–03120 Lapalisse, France",46.249253,3.526688
Руська православна церква (Московський патріархат),Руська православна церква (Московський патріархат),Руська православна церква (Московський патріархат),Благочиння РПЦ МП в Швеції,Парафія Воскресіння Христового,Гельсинборг,http://sweden.cerkov.ru/,Швеція,"Nedre Eneborgs vägen 7, 252 68 Helsingborg",56.0416331,12.7044525
Руська православна церква (Московський патріархат),Руська православна церква (Московський патріархат),Руська православна церква (Московський патріархат),Благочиння РПЦ МП в Швеції,Парафія Успіння Божої Матері,Євле,http://sweden.cerkov.ru/,Швеція,"Marma Kyrka, Kyrkvägen 2, 814 95 Älvkarleby",60.49190079999999,17.4257246
Руська православна церква (Московський патріархат),Руська православна церква (Московський патріархат),Руська православна церква (Московський патріархат),Благочиння РПЦ МП в Швеції,Сергієвська Парафія у Стокгольмі,Стокгольм,http://sweden.cerkov.ru/,Швеція,"Alvastravägen 8, Hägersten  (t-bana Aspudden)",59.30979310000001,18.0067313
Руська православна церква (Московський патріархат),Руська православна церква (Московський патріархат),Руська православна церква (Московський патріархат),Благочиння РПЦ МП в Швеції,Парафія в ім'я Казанської ікони Божої Матері,Вестерос,http://sweden.cerkov.ru/,Швеція,"Atmosfärvägen 8, 72131 Västerås",59.5922114,16.6242235
Руська православна церква (Московський патріархат),Руська православна церква (Московський патріархат),Руська православна церква (Московський патріархат),Благочиння РПЦ МП в Швеції,Парафія в ім'я Покрови Божої Матері,Гетеборг,http://sweden.cerkov.ru/,Швеція,"Runstavsgatan 9, Göteborg",57.7483024,12.0273188
Руська православна церква (Московський патріархат),Руська православна церква (Московський патріархат),Руська православна церква (Московський патріархат),Благочиння РПЦ МП в Швеції,Парафія на честь ікони Божої Матері «Призри на смиренність»,Карлстад,http://sweden.cerkov.ru/,Швеція,Drottninggatan 38,59.3320202,18.0632463
Руська православна церква (Московський патріархат),Руська православна церква (Московський патріархат),Руська православна церква (Московський патріархат),Благочиння РПЦ МП в Швеції,"Парафія на честь ікони Божої Матері ""Несподівана Радість""",Лулео,http://sweden.cerkov.ru/,Швеція,"Professorsvägen 9, Luleå",65.6191499,22.1491798
Руська православна церква (Московський патріархат),Руська православна церква (Московський патріархат),Руська православна церква (Московський патріархат),Благочиння РПЦ МП в Швеції,Парафія на честь святителя Миколи Чудотворця,Уппсала,http://sweden.cerkov.ru/,Швеція,"Sankta Maria kyrka, Stenhagsvägen 201, 752 60 Uppsala",59.8532287,17.5639442
Руська православна церква (Московський патріархат),Руська православна церква (Московський патріархат),Руська православна церква (Московський патріархат),Благочиння РПЦ МП в Швеції,Парафія свв.першоверховних апп.Петра і Павла,Умео,http://sweden.cerkov.ru/,Швеція,Olle Fiskarens väg 10,63.815684,20.3447297
Руська православна церква (Московський патріархат),Руська православна церква (Московський патріархат),Руська православна церква (Московський патріархат),Благочиння РПЦ МП в Швеції,Парафія Архістратига Михайла,Йонкопінг,http://sweden.cerkov.ru/,Швеція,"Ceciliakyrkan, Ebba Ramsayväg 10, Jönköping",57.80885199999999,14.1496434
Руська православна церква (Московський патріархат),РПЦ за кордоном,РПЦ за кордоном,Німецька єпархія РПЦЗ,"Парафія на честь Курської-Корінної ікони Божої Матері ""Знамення""",Мальме,https://rocor.de/,Швеція,"Cedergatan 4,
21567 Malmå",55.5741737,13.0003051
Руська православна церква (Московський патріархат),Руська православна церква (Московський патріархат),Руська православна церква (Московський патріархат),,"Подвор'є РПЦ, Храм святих первоверховних апостолів Петра та Павла у Карлових Варах",,http://podvorie.cz/,Чехія,"Krále Jiřího 2c, 360 01 Karlovy Vary, Česká republika",50.224647,12.874911